{
  "type": "FeatureCollection",
  "features": [
    {
      "type": "Feature",
      "properties": {},
      "geometry": {
        "type": "Polygon",
        "coordinates": [
          [
            [-13.7311592, 9.505638],
            [-13.7236232, 9.5274394],
            [-13.7155847, 9.5328896],
            [-13.7045319, 9.5244666],
            [-13.6995079, 9.5279349],
            [-13.693479, 9.5363578],
            [-13.6814214, 9.5502304],
            [-13.6723781, 9.5641024],
            [-13.6668517, 9.5849094],
            [-13.6598181, 9.5977893],
            [-13.6542917, 9.61265],
            [-13.6341956, 9.6299868],
            [-13.6256547, 9.641379],
            [-13.6286691, 9.6646576],
            [-13.6241475, 9.6933821],
            [-13.6191235, 9.7270561],
            [-13.6135971, 9.7404257],
            [-13.6090754, 9.7532996],
            [-13.564864, 9.6879346],
            [-13.557328, 9.6879346],
            [-13.5487871, 9.6864489],
            [-13.5457727, 9.6775344],
            [-13.5397439, 9.6755534],
            [-13.5312031, 9.6790202],
            [-13.5206526, 9.6636671],
            [-13.472422, 9.6497991],
            [-13.4859868, 9.5502304],
            [-13.5020637, 9.5160434],
            [-13.5221598, 9.4907725],
            [-13.5281886, 9.4967188],
            [-13.5538112, 9.5031604],
            [-13.5653664, 9.5155479],
            [-13.5824481, 9.5408169],
            [-13.5894817, 9.5561756],
            [-13.5894817, 9.5606345],
            [-13.5990274, 9.5715336],
            [-13.6146019, 9.5710382],
            [-13.6201283, 9.5576619],
            [-13.6286691, 9.5581574],
            [-13.6336932, 9.5581574],
            [-13.6362052, 9.5536985],
            [-13.6437412, 9.5487441],
            [-13.6482628, 9.5457714],
            [-13.6563013, 9.545276],
            [-13.6598181, 9.5393306],
            [-13.6633349, 9.5348714],
            [-13.6703685, 9.534376],
            [-13.675895, 9.5299168],
            [-13.6799142, 9.5224847],
            [-13.6849382, 9.5140614],
            [-13.6924742, 9.5130704],
            [-13.6985031, 9.509602],
            [-13.7040295, 9.5036559],
            [-13.7145799, 9.4996919],
            [-13.7241256, 9.4996919],
            [-13.7311592, 9.505638]
          ]
        ]
      }
    }
  ]
}
