{"type":"FeatureCollection", "features": [
{"type":"Feature","geometry":{"type":"MultiPolygon","coordinates":[[[[-13.467379999999821,12.66686],[-13.57874,12.67498],[-13.70902999999987,12.676220000000171],[-13.711665742999912,12.64377236700011],[-13.711111617999904,12.599442368000155],[-13.700583242999926,12.571736118000103],[-13.675256996999963,12.515678955999988],[-13.658251837999842,12.512381722000043],[-13.631871743999909,12.460356994000108],[-13.639027459999909,12.441153941000152],[-13.655144993999897,12.414364619000082],[-13.669951426999944,12.397248714000114],[-13.670660492999957,12.383056557000145],[-13.657279868999979,12.362929162],[-13.656733518999886,12.353766328000063],[-13.667394832999946,12.345836969000061],[-13.67009670799996,12.33369329500016],[-13.66727216299995,12.315247723000027],[-13.683793831999935,12.305438693000042],[-13.69938919599997,12.290893128000107],[-13.707658679999952,12.26260054000005],[-13.719576295999957,12.248393333000081],[-13.7291456129999,12.247336598000118],[-13.744084341999951,12.269895457000132],[-13.755404752999937,12.276409437000154],[-13.764954372999966,12.27482837399998],[-13.776274783999952,12.25180809700015],[-13.800243698999907,12.251934582000047],[-13.805872282999871,12.265215511000179],[-13.79429890199998,12.273057583000138],[-13.793350263999855,12.286401755000043],[-13.804733916999908,12.290512518000071],[-13.8100462889999,12.275144586000067],[-13.827943921999974,12.26142096000018],[-13.830030924999903,12.27988777500019],[-13.835722751999924,12.284694207000143],[-13.851723108999977,12.282543961000044],[-13.86430836999989,12.27406946300016],[-13.852861473999951,12.264013903000034],[-13.858932755999945,12.2411201110001],[-13.916926145999923,12.235428283999966],[-13.929195194999977,12.209119397],[-13.936404841999945,12.202099477000047],[-13.95714838799995,12.200138959000185],[-13.958223510999971,12.180849991000116],[-13.948737132999952,12.167505818999985],[-13.947282554999958,12.15473083],[-13.934986325999887,12.142882396000061],[-13.923841506999963,12.14313568800003],[-13.884581348999973,12.132750743000088],[-13.88052868799997,12.115273640000055],[-13.872676655999953,12.105141987000138],[-13.845574482999893,12.092224128000055],[-13.821511805999876,12.085891845000049],[-13.813406482999937,12.075253609000015],[-13.810109961999842,12.050488619000191],[-13.772008687999914,12.030182053999965],[-13.740369417999887,12.018276072000049],[-13.714941671999895,12.01628615300018],[-13.702688917999978,12.005531197000039],[-13.707676042999935,11.998327572000107],[-13.71593834999993,11.954122559000155],[-13.715845950999949,11.921542654],[-13.721524133999822,11.893133823000028],[-13.720448561999888,11.870087624000178],[-13.714577977999909,11.844703200000026],[-13.713400514999933,11.790036892999979],[-13.718481815999894,11.781795068000065],[-13.721476265999968,11.76091915800015],[-13.714920123999889,11.748556516000065],[-13.713428435999845,11.710034618000066],[-13.716502475999903,11.705323890000045],[-13.740061968999953,11.702470621000145],[-13.76022073199988,11.684132105000174],[-13.783568353999954,11.6864928170001],[-13.799014730999943,11.693621914000119],[-13.793943684999931,11.709064290000072],[-13.821764860999963,11.705756652000161],[-13.832743700999913,11.726132581],[-13.823233277999975,11.729861048000032],[-13.831767254999875,11.741223644000172],[-13.854681054999958,11.745957266000119],[-13.863563376999934,11.729052159],[-13.847055588999979,11.715553502000034],[-13.856481194999958,11.704758158000118],[-13.858786268999893,11.687161170000024],[-13.86482660199988,11.685695929000076],[-13.868885823999847,11.663991604000046],[-13.89851237299996,11.664415057000156],[-13.920295427999918,11.676573040999983],[-13.934986325999887,11.671000632000187],[-13.944743235999908,11.65617045300013],[-13.997308872999895,11.643377327000167],[-14.019004532999816,11.652306759],[-14.038218041999869,11.655312061000132],[-14.044139259999895,11.645281002],[-14.055193550999945,11.648006962000125],[-14.08163618899988,11.62615764900005],[-14.109066432999953,11.634080235000056],[-14.131919495999966,11.655123927000034],[-14.14253202599997,11.659422582],[-14.179572088999862,11.656975001000092],[-14.206767435999893,11.672476349000135],[-14.223356597999896,11.668125093000185],[-14.23532255099991,11.672204395],[-14.243869832999962,11.66526100699997],[-14.265781339999876,11.66649337299998],[-14.284393372999943,11.651769709000177],[-14.303563950999887,11.630641917000162],[-14.323924991999888,11.6015236880001],[-14.373775292999937,11.57429004800008],[-14.517338300999938,11.493014253000126],[-14.587831405999907,11.50092891200012],[-14.624705530999904,11.502260671000101],[-14.671427136999966,11.491926439000167],[-14.701287628999978,11.462120339000137],[-14.725437096999883,11.426494434],[-14.735771328999931,11.41588824900009],[-14.755509224999855,11.38932953900013],[-14.779773399999954,11.353393341000185],[-14.807730216999914,11.279911513000059],[-14.82909738199993,11.23254575500016],[-14.841398056999935,11.19938609000019],[-14.925615384999958,11.053412357000184],[-14.903278350999926,11.034573554000076],[-14.890547751999975,11.012859344000049],[-14.886494635999895,10.986454009999989],[-14.881169320999902,10.969953537000151],[-14.873158454999952,10.962229729000057],[-14.859197616999893,10.96262645700017],[-14.823210716999938,10.989504815000089],[-14.81214046499997,10.991920470000025],[-14.798484802999951,10.985423088000175],[-14.794843672999946,10.973044395000102],[-14.76904392199998,10.976333619000116],[-14.751042365999922,10.969869613000128],[-14.727160452999954,10.997518538000122],[-14.723544120999975,11.006760597000039],[-14.727703093999878,11.01915073500004],[-14.697134970999969,11.037884712000164],[-14.683390616999873,11.042108536000057],[-14.671010017999834,11.03900146500007],[-14.664639472999966,11.026517869000145],[-14.682095528999923,11.026092529000096],[-14.6939067859999,11.020668028999978],[-14.694165229999896,11.00295353000007],[-14.702670096999896,10.99365520400005],[-14.717517851999958,10.989347458000168],[-14.740933417999884,10.96147441900007],[-14.773491858999932,10.959030152000082],[-14.785899162999897,10.945544243000086],[-14.79356288899993,10.944074632000081],[-14.817296981999846,10.92468833900017],[-14.81578826999987,10.889475822000179],[-14.804094315999976,10.85262966099998],[-14.809371947999864,10.827263832000085],[-14.777003288999879,10.824883461000013],[-14.761412620999977,10.847433089999981],[-14.754131316999974,10.836192131000075],[-14.761760709999919,10.795384407000142],[-14.767842292999944,10.776308060000133],[-14.778833387999953,10.764133453000113],[-14.789066315999946,10.764014246000102],[-14.787051200999827,10.751156808000133],[-14.775099753999939,10.724383354000167],[-14.762408256999947,10.713258743000154],[-14.748177527999928,10.689961433000065],[-14.741808890999948,10.70199489700002],[-14.74412822699992,10.721059799000102],[-14.736235617999967,10.747120857000084],[-14.730832099999873,10.748952866000025],[-14.71397209099996,10.767178536000074],[-14.69152164499991,10.776863098000092],[-14.672147750999898,10.79111290100002],[-14.664504050999938,10.809816360000127],[-14.656233787999895,10.800231934000067],[-14.66618824099993,10.778758050000022],[-14.674476622999975,10.771304131000079],[-14.693945884999948,10.765335084000128],[-14.705685616999915,10.754851343000041],[-14.71227073699987,10.721424103],[-14.723169326999937,10.698987962000047],[-14.703064917999882,10.6900157930001],[-14.688346862999879,10.696608544000128],[-14.684931754999923,10.690450669000029],[-14.69764613999996,10.673916818000066],[-14.711432456999944,10.669908523000174],[-14.707080840999879,10.65569782300014],[-14.706498145999888,10.634887696000021],[-14.688540457999977,10.642564774000164],[-14.661901472999887,10.669548034000059],[-14.636949538999943,10.683626176000132],[-14.629098891999888,10.70878505700017],[-14.609889029999863,10.737681389000102],[-14.59370517699989,10.766448975],[-14.592273711999951,10.77396106800012],[-14.573373794999895,10.804623605000074],[-14.560749053999814,10.814650536000045],[-14.55294799799998,10.82650280100006],[-14.546528816999967,10.812045097],[-14.560934066999948,10.76887512200011],[-14.574777602999973,10.7381324750001],[-14.588770866999937,10.720958710000161],[-14.600374220999981,10.71476459500002],[-14.611522673999957,10.698690414000112],[-14.617348669999956,10.680809021000016],[-14.616887091999956,10.657626152000091],[-14.625006675999941,10.635684966000099],[-14.627397535999876,10.621169090000024],[-14.623734473999946,10.605798722000145],[-14.617374421999955,10.59850788000017],[-14.602497100999926,10.598442078000062],[-14.597666738999862,10.593328474999964],[-14.636763571999893,10.566091538000137],[-14.645966529999953,10.557939530000112],[-14.660819051999965,10.555934906000175],[-14.652948379999941,10.538542747000065],[-14.669162749999941,10.513751030000037],[-14.662577629999873,10.486914635000119],[-14.667083738999963,10.474674225000058],[-14.660693169999945,10.4646263140001],[-14.651533127999926,10.476228714000172],[-14.623343466999927,10.469641686000102],[-14.591046332999895,10.469766618000165],[-14.574176787999875,10.477999687000022],[-14.562789916999918,10.498593330000176],[-14.545666693999976,10.505857467000169],[-14.542149543999926,10.494235037000067],[-14.551980971999967,10.487900734000107],[-14.554555892999872,10.468782424999972],[-14.55190467999995,10.439372063000178],[-14.555779456999858,10.432660102],[-14.55213260599993,10.418210030000068],[-14.535104752999928,10.39102458900004],[-14.50558471699992,10.368111612000064],[-14.485141755999905,10.34647941600008],[-14.46344757099996,10.339283943000055],[-14.463552473999925,10.326007844000173],[-14.45608425099988,10.301018716000044],[-14.471147537999968,10.255555153000103],[-14.463812828999949,10.242753029000085],[-14.463626861999956,10.225507736000054],[-14.45836830099995,10.211535454000057],[-14.44905853299997,10.209332466000035],[-14.437347411999838,10.221182822000117],[-14.423941612999954,10.226610183000048],[-14.413475989999938,10.224879265000027],[-14.40175056499993,10.235578537000094],[-14.379204749999928,10.233049393000101],[-14.349338530999944,10.218633651000175],[-14.317090034999978,10.197799682000039],[-14.284230230999924,10.162019731000157],[-14.25337028399997,10.141753197000185],[-14.249772071999814,10.12809276500002],[-14.238041876999944,10.11532878900016],[-14.218910216999973,10.104935646000058],[-14.20083522799996,10.107408525000153],[-14.18433284799994,10.128261566000049],[-14.180010796999909,10.11489391300006],[-14.188677787999893,10.098095894000096],[-14.186223029999951,10.084321977000059],[-14.17517471399998,10.06970977900005],[-14.15951442699992,10.057899475],[-14.137603759999877,10.047067643000105],[-14.10193920099988,10.053606033000051],[-14.0786218639999,10.065776825000057],[-14.086965559999953,10.076137541000037],[-14.077370643999927,10.08073425300006],[-14.087111472999936,10.104790687000047],[-14.08548545799988,10.12918090800008],[-14.07931900099993,10.13981533100008],[-14.06126022399991,10.144348144000048],[-14.048113822999937,10.153204918000085],[-14.042755126999964,10.133887291],[-14.049212454999974,10.121460915],[-14.031004905999907,10.1161642080001],[-14.038002967999944,10.088908195999977],[-14.064996718999907,10.047734261000016],[-14.06713771799997,10.02862930300006],[-14.03273868599996,9.996287347000191],[-14.027444838999884,10.000703812000097],[-14.009927748999928,9.987522126000101],[-13.980330465999941,9.971917152],[-13.960161208999978,9.971457481000073],[-13.952116965999949,9.955147743000111],[-13.909448622999946,9.929071426],[-13.878176688999929,9.90611267100013],[-13.867883681999956,9.895622254000159],[-13.843738555999892,9.864782333000107],[-13.826658249999923,9.846300125000141],[-13.801536559999931,9.83615875200013],[-13.787951468999893,9.847074508],[-13.76698493999993,9.849980353000035],[-13.734065055999963,9.862679481000043],[-13.717707633999964,9.875452042000177],[-13.701725005999947,9.906156539000051],[-13.699305533999961,9.922730446000116],[-13.692904472999885,9.933815957000093],[-13.685007094999946,9.932268142],[-13.684067724999977,9.901694298000052],[-13.70174312599994,9.879485131000024],[-13.711317062999854,9.859177589000183],[-13.72049426999996,9.847380638000118],[-13.739615439999966,9.83274555200012],[-13.750568390999888,9.811506273000077],[-13.76004123599995,9.779703140000038],[-13.755065917999957,9.766407966000088],[-13.730796813999916,9.74590873700015],[-13.698994635999895,9.73902988500015],[-13.689270018999878,9.740024565],[-13.665773390999902,9.757677077999972],[-13.646216391999928,9.775758743000097],[-13.639847754999948,9.791210174000014],[-13.64410591199993,9.802213668000093],[-13.653897284999971,9.80949687900005],[-13.629364966999901,9.81428050900007],[-13.63018512699989,9.800479889000087],[-13.61441993699998,9.799907685000164],[-13.62313079699993,9.787426948000189],[-13.615606307999883,9.773459434000188],[-13.596080780999955,9.765787123000166],[-13.575005530999931,9.767549515000155],[-13.572012901999926,9.758351325999968],[-13.59179592099997,9.750875473000065],[-13.608137129999875,9.736269952000157],[-13.602264404999971,9.725968361000184],[-13.624260903999925,9.723734856000021],[-13.632756232999839,9.683898925999983],[-13.624506951999933,9.66579914100015],[-13.629797935999932,9.660932541000022],[-13.632637023999905,9.633851052000068],[-13.645922660999872,9.619660378000106],[-13.660349844999871,9.598631859000022],[-13.66142654499987,9.588278771000148],[-13.669213294999963,9.577185630000088],[-13.67183971499992,9.557855605000043],[-13.693448067999896,9.537919998000177],[-13.699121476999949,9.523624421000136],[-13.721758842999975,9.516781807000086],[-13.727001189999953,9.50662612900004],[-13.71630859399994,9.501422881999986],[-13.667949675999864,9.534438134000027],[-13.650193213999898,9.543767930000172],[-13.639177321999966,9.55649471200013],[-13.627125740999816,9.555205345000104],[-13.616785048999873,9.565627098000107],[-13.60351085799988,9.562349320000123],[-13.586458205999918,9.536427498000137],[-13.55353546099991,9.49988842100015],[-13.53336143499996,9.495667457000138],[-13.520698547999928,9.505181313000037],[-13.51153945999988,9.519038200000182],[-13.504186630999982,9.510991097000044],[-13.521415709999928,9.476540567000143],[-13.511464118999982,9.445482254000126],[-13.480657577999978,9.410531043000049],[-13.466962813999942,9.405109406000065],[-13.442024229999845,9.413095473000169],[-13.424079895999967,9.410198212000125],[-13.42013454399995,9.399060250000161],[-13.424044608999964,9.39046287500014],[-13.43256664199987,9.351791382000101],[-13.427566528999876,9.331829072000062],[-13.417257308999979,9.313282013],[-13.409696578999956,9.290579795000099],[-13.412625312999978,9.279298782000126],[-13.397079466999969,9.272507667000127],[-13.384615896999833,9.276727676000178],[-13.370705603999966,9.272223473999986],[-13.357077597999933,9.27529907200011],[-13.354527472999962,9.30887127],[-13.344973563999929,9.333065987],[-13.324626922999926,9.338552476000018],[-13.319654465999974,9.325520515000107],[-13.32845115699996,9.318922996000026],[-13.324157713999966,9.299414635000119],[-13.327111243999923,9.29135131900017],[-13.324172973999907,9.266778945999988],[-13.310924284999885,9.254088982000042],[-13.308755123999845,9.235976487000187],[-13.312225781999928,9.21374258600008],[-13.320793967999919,9.18608578200002],[-13.325907706999942,9.179667473],[-13.315804896999964,9.157235940000078],[-13.309839703999955,9.153873740000051],[-13.280406951999964,9.152607918000115],[-13.270252514999925,9.168190204000098],[-13.268575131999967,9.192595990000086],[-13.260532379999916,9.190420151000126],[-13.25804233499997,9.162628175000066],[-13.24970245399993,9.160150528000145],[-13.25094698099997,9.1478000890001],[-13.2665649409999,9.13652045200007],[-13.275790213999926,9.117936135000093],[-13.289449589999947,9.107779068000184],[-13.294547118999958,9.086955121000187],[-13.316221213999938,9.075056595000149],[-13.319008891999943,9.063337822000165],[-13.304475115999935,9.041442921000169],[-13.28948,9.050277],[-13.274062999999899,9.063639],[-13.253350999999839,9.0659],[-13.202164,9.083066],[-13.203036999999824,9.091648],[-13.18289099999987,9.094577000000129],[-13.172664,9.091032],[-13.166393999999855,9.07952],[-13.152466,9.069446],[-13.142906999999866,9.057626],[-13.120603,9.049558],[-13.112122999999883,9.053258000000142],[-13.099532,9.046834000000104],[-13.081904,9.048735],[-13.071317,9.082552],[-13.042485999999883,9.085841],[-13.040531999999871,9.097353000000112],[-13.029996999999867,9.101978000000145],[-13.021877,9.096942],[-13.00132,9.116420000000119],[-12.992633999999896,9.144069],[-12.982278,9.157663],[-12.978218,9.169894],[-12.951057,9.180636000000106],[-12.953087,9.196182],[-12.961696,9.205330000000174],[-12.971357999999896,9.227069],[-12.959791,9.238416],[-12.94942,9.265368000000137],[-12.954617,9.280858000000137],[-12.94206899999989,9.290699000000131],[-12.931099,9.288444],[-12.916511,9.278346000000113],[-12.907339999999863,9.262070000000108],[-12.881999,9.292956000000174],[-12.868033,9.28952900000013],[-12.856978,9.2935],[-12.84324,9.289501],[-12.824416999999869,9.296055],[-12.811935,9.290082],[-12.784502,9.30891800000012],[-12.771499,9.346567],[-12.763112,9.3438],[-12.746591,9.350276000000122],[-12.75462,9.365624000000139],[-12.7545,9.395916],[-12.745938,9.400978],[-12.732083999999873,9.39589],[-12.720113,9.397492],[-12.710961999999881,9.391253],[-12.704322,9.412637000000132],[-12.68833,9.413654],[-12.679472,9.420879000000127],[-12.684001,9.429814],[-12.677623,9.461320000000114],[-12.670783,9.476233],[-12.64594899999986,9.511869000000104],[-12.645308,9.520873000000108],[-12.655957,9.536118000000101],[-12.643243999999868,9.54925500000013],[-12.62907499999983,9.553105000000187],[-12.63424,9.564612000000125],[-12.626457,9.573457000000133],[-12.617715,9.604034000000183],[-12.609234,9.607604000000151],[-12.597377999999821,9.600712000000101],[-12.587972,9.602288000000101],[-12.58219,9.633232],[-12.587308999999891,9.652747000000147],[-12.58551599999987,9.66328],[-12.571345,9.660769],[-12.566042,9.679120000000182],[-12.564667,9.70328],[-12.550485,9.706601],[-12.530439,9.722082],[-12.527717,9.708958],[-12.517147,9.714057],[-12.526637,9.735375000000147],[-12.52377,9.74218900000011],[-12.507118,9.742561],[-12.51028,9.764696],[-12.506966999999861,9.781095000000107],[-12.49980399999987,9.793021000000124],[-12.497224,9.810232],[-12.488430999999878,9.814217],[-12.488256,9.830209],[-12.49772,9.832258000000138],[-12.495978,9.845150000000103],[-12.471198,9.849908000000141],[-12.463519,9.854686],[-12.45055,9.873251000000153],[-12.435534,9.881544],[-12.345401,9.893524000000127],[-12.339327,9.903625],[-12.222482,9.932905000000119],[-12.217648,9.90805900000015],[-12.199139999999886,9.90086100000019],[-12.184487,9.889538000000186],[-12.162022,9.884326],[-12.143111,9.875706],[-12.119947,9.872337000000186],[-11.906884999999875,9.940181000000166],[-11.909197,9.945876000000112],[-11.903716,9.972422],[-11.894622,9.999944000000141],[-11.673555230999966,9.99994791600011],[-11.372797823999917,9.999965174000067],[-11.208071,9.999973],[-11.213807,9.981058000000132],[-11.206592,9.972776],[-11.184793,9.971455000000162],[-11.172749999999894,9.961241],[-11.173766,9.952755000000138],[-11.164061,9.938629000000162],[-11.170615999999882,9.932887],[-11.168685,9.917034],[-11.161571,9.90946300000013],[-11.161419,9.890712000000121],[-11.157251999999858,9.8681],[-11.143075,9.867338],[-11.132353,9.855092],[-11.124427,9.857938],[-11.11091,9.853466],[-11.096175,9.857582],[-11.090178,9.843557],[-11.08103199999988,9.84437],[-11.070768,9.831464000000153],[-11.053593,9.818913000000123],[-11.043227,9.818049],[-11.045970999999895,9.801382],[-11.03900899999985,9.787408],[-11.02783,9.78817],[-11.015736999999888,9.77765200000016],[-11.010807999999884,9.763983],[-10.992998,9.752677000000176],[-10.987205,9.727576],[-10.97722,9.722469000000103],[-10.979125999999894,9.708851],[-10.972736999999825,9.703395000000171],[-10.967093,9.68777],[-10.963905,9.663941],[-10.951468,9.652184],[-10.943263999999886,9.657880000000148],[-10.917867,9.654848],[-10.920741,9.643300000000124],[-10.915411,9.634573000000103],[-10.910551,9.602539],[-10.89895,9.594858000000158],[-10.889962,9.599508000000128],[-10.881026,9.591513000000134],[-10.867596,9.563974],[-10.867857,9.541607],[-10.860959,9.529745],[-10.836345999999878,9.516368],[-10.822358999999892,9.513415000000123],[-10.837235,9.499436000000117],[-10.840723,9.487089],[-10.837677999999869,9.466610000000117],[-10.850692,9.458142],[-10.842557999999883,9.450551000000132],[-10.84005599999989,9.438956000000132],[-10.819868,9.431240000000116],[-10.816030999999896,9.42164600000018],[-10.804144,9.415223],[-10.804059999999822,9.39954],[-10.813612,9.39107300000012],[-10.810900999999888,9.377810000000125],[-10.79893,9.388487000000168],[-10.786041999999895,9.38873800000016],[-10.769566,9.378185],[-10.757929,9.385734000000127],[-10.731523,9.379581000000144],[-10.716866,9.362992000000133],[-10.71926999999988,9.351305],[-10.702917,9.341597],[-10.708619,9.332219],[-10.683501,9.324113],[-10.681332999999881,9.317751],[-10.663425,9.310683000000154],[-10.658948,9.301634],[-10.660078999999826,9.280003],[-10.666818,9.273264],[-10.67073,9.244941],[-10.667241999999817,9.232311],[-10.655791,9.226373],[-10.656874,9.21115200000014],[-10.667195,9.1997],[-10.698675,9.191688000000113],[-10.713142999999832,9.199558],[-10.723134,9.178776],[-10.714934,9.17411],[-10.708808,9.158087000000137],[-10.716631,9.149982],[-10.714887,9.139425],[-10.727291,9.098927000000117],[-10.730751,9.081704000000116],[-10.722438999999895,9.077438],[-10.700703,9.078693],[-10.667549999999892,9.08568700000012],[-10.647833999999818,9.0815],[-10.624673,9.071519],[-10.62026799999984,9.073453],[-10.592272,9.060787000000118],[-10.573589,9.048717000000124],[-10.581790999999896,9.029902000000163],[-10.58015499999982,9.017546],[-10.588834,9.012078],[-10.591278999999872,8.992695],[-10.588949999999897,8.966175000000135],[-10.58228899999989,8.93422],[-10.574946,8.921905],[-10.576323999999829,8.894517],[-10.559036999999819,8.84497400000015],[-10.55738799999989,8.820292],[-10.559551999999883,8.807448000000136],[-10.54886,8.801767],[-10.539959,8.803906000000154],[-10.532641999999896,8.791642],[-10.519772999999873,8.782599],[-10.513369999999895,8.761782],[-10.510870999999895,8.740593000000104],[-10.494955999999888,8.723759],[-10.499471,8.713244000000145],[-10.488181,8.707648],[-10.464666,8.679228],[-10.474562,8.658492],[-10.470026,8.651185],[-10.47866299999987,8.640855000000158],[-10.492865999999879,8.631974],[-10.493207,8.625453000000164],[-10.520512,8.619938000000161],[-10.562803,8.600322],[-10.576178,8.595916000000159],[-10.57474999999988,8.576171000000159],[-10.589795,8.563954],[-10.593849,8.549105000000168],[-10.616025999999863,8.541387000000157],[-10.627648,8.504385000000184],[-10.620207,8.495396],[-10.632478999999876,8.490959],[-10.634793,8.475393000000167],[-10.641294,8.47417600000017],[-10.641006999999831,8.441418000000112],[-10.64744,8.423036],[-10.639295,8.392237000000137],[-10.653243,8.381236000000115],[-10.664996,8.38304200000016],[-10.674282999999832,8.377670000000137],[-10.678434,8.366291000000103],[-10.679144,8.34776200000016],[-10.689304,8.335844000000122],[-10.690225,8.321869],[-10.699678,8.298508],[-10.699758,8.280474],[-10.685454999999877,8.286692],[-10.68428299999988,8.310877],[-10.676345,8.316275000000132],[-10.672837,8.33322500000014],[-10.648797303999913,8.35081503900011],[-10.641426735999914,8.341493781000167],[-10.630540253999868,8.337510637000094],[-10.586094909999929,8.336436006000099],[-10.574647750999873,8.32376236600004],[-10.572626976999913,8.309021229999985],[-10.557196674999943,8.305166574000111],[-10.539652152999963,8.3119647850001],[-10.49947029099991,8.340033684000048],[-10.480278778999889,8.361806647000037],[-10.474333264999927,8.378650323000159],[-10.449780278999924,8.393893733000027],[-10.432375925999963,8.410200093000071],[-10.41771655499997,8.434951653000041],[-10.406175949999977,8.440815401000066],[-10.39385273399995,8.456888146000097],[-10.393642479999869,8.467704543000025],[-10.379555465999886,8.489056997000148],[-10.352829855999971,8.482340552000153],[-10.349979746999963,8.489547590000143],[-10.337738295999884,8.494254942000055],[-10.322798585999863,8.506052523],[-10.29888804199993,8.489313974000027],[-10.290104099999837,8.490622220999967],[-10.280560907999927,8.483496949000028],[-10.267977,8.491723],[-10.262339999999881,8.486714000000177],[-10.24458,8.491593],[-10.225475,8.478420000000142],[-10.20395,8.483113000000117],[-10.201636,8.492636],[-10.176471,8.51032],[-10.163545999999883,8.514367],[-10.160778,8.524433],[-10.139714,8.519738000000189],[-10.117616999999882,8.527006],[-10.102876,8.511867000000166],[-10.088032999999825,8.518383],[-10.076401,8.516176],[-10.049774,8.499669],[-10.045803,8.488915],[-10.057924999999841,8.464453],[-10.06214199999988,8.441083000000106],[-10.060152,8.425772000000165],[-10.040343,8.428132],[-10.031249,8.434681000000126],[-9.989910999999836,8.444873],[-9.98681,8.451705],[-9.960801999999887,8.471371],[-9.923770999999874,8.495253],[-9.908093,8.499943000000144],[-9.890972,8.497174],[-9.853756,8.500049],[-9.839883,8.485126],[-9.831618,8.500937],[-9.808530999999846,8.501382],[-9.791614,8.506614],[-9.789543999999864,8.514481000000103],[-9.800465,8.526495],[-9.786171,8.532658],[-9.769993,8.551613],[-9.749762,8.544723000000147],[-9.742323,8.535851],[-9.725116,8.525933000000123],[-9.726265,8.514641],[-9.739552,8.511968],[-9.743872,8.503624],[-9.733770999999876,8.47149400000012],[-9.716876999999897,8.459274000000164],[-9.713471,8.439102000000162],[-9.698389,8.457238],[-9.701534,8.466094],[-9.697927,8.484234000000129],[-9.667762999999866,8.500194000000135],[-9.646938999999861,8.490944],[-9.652791,8.473614],[-9.639946999999893,8.475038],[-9.622546,8.460856],[-9.620081,8.452844000000141],[-9.6287,8.44038300000011],[-9.644476999999881,8.426555000000121],[-9.650045,8.427135],[-9.658298,8.411144],[-9.647218,8.399145],[-9.631816999999899,8.405766],[-9.608534999999847,8.404254],[-9.593821,8.411523],[-9.593582,8.422913],[-9.577584999999829,8.417423],[-9.567748,8.409432],[-9.560724999999877,8.391762],[-9.54596,8.379016],[-9.515584,8.379525000000115],[-9.478772,8.354161],[-9.519167,8.318515],[-9.510451999999873,8.307063],[-9.495587999999884,8.304314],[-9.502189,8.287896],[-9.500681,8.27754300000015],[-9.48899,8.267334000000119],[-9.511749999999893,8.24172],[-9.502057,8.23923800000017],[-9.506602,8.226084000000185],[-9.504877,8.207788000000164],[-9.515801,8.194170000000156],[-9.507006,8.183745],[-9.495043999999893,8.186935000000176],[-9.492506999999875,8.175481000000104],[-9.480344999999886,8.18088500000016],[-9.462251,8.176514000000168],[-9.459422,8.161679000000163],[-9.462296,8.135575000000188],[-9.44896,8.13287600000018],[-9.45563,8.123089],[-9.454143999999872,8.1044],[-9.441035,8.084033],[-9.452401999999893,8.05021],[-9.420132,8.065063],[-9.405698,8.049734],[-9.408704999999884,8.028787],[-9.404704,8.020383],[-9.418449999999893,8.005097],[-9.430675,7.996543000000145],[-9.442572,7.976531],[-9.442321999999876,7.96160900000018],[-9.436417,7.949982],[-9.443097,7.933157],[-9.434339,7.914367],[-9.439692999999863,7.892101],[-9.43214499999982,7.859599000000173],[-9.418243,7.844726],[-9.415682,7.831070000000125],[-9.400841,7.820934],[-9.393661,7.802187],[-9.380369,7.810079],[-9.360488,7.778613000000121],[-9.360854,7.765482],[-9.352119,7.750447],[-9.368630999999823,7.716012],[-9.379178,7.701067],[-9.382919,7.653183],[-9.37653,7.637686000000144],[-9.360124,7.625107000000128],[-9.36946,7.60126600000018],[-9.381589999999846,7.590929000000187],[-9.399192,7.543516000000125],[-9.404519,7.540207],[-9.411119999999869,7.512314],[-9.423154999999895,7.50425],[-9.416295,7.494350000000168],[-9.425065,7.47297],[-9.446968,7.452021000000116],[-9.455666,7.450822000000187],[-9.467926,7.429831000000149],[-9.470059999999876,7.405835000000138],[-9.481533,7.378896000000168],[-9.47538,7.366646000000173],[-9.467145,7.386500000000126],[-9.467248,7.395828000000108],[-9.426381,7.415662000000168],[-9.421496999999874,7.426014000000123],[-9.412259,7.418374],[-9.396514,7.395553],[-9.383947,7.394976000000156],[-9.380616,7.40933200000012],[-9.372326,7.41433000000012],[-9.360377,7.433374000000185],[-9.342235,7.428928],[-9.328719,7.429257],[-9.311714,7.434795000000179],[-9.306107,7.423652000000118],[-9.291867,7.420301000000165],[-9.288498,7.40221600000018],[-9.29357,7.38785],[-9.28198,7.375308000000132],[-9.260058999999899,7.383724000000143],[-9.247848,7.38427600000017],[-9.23356399999983,7.390684],[-9.217391,7.385544],[-9.202525,7.38581100000016],[-9.206897,7.353565000000174],[-9.201523,7.338489000000152],[-9.203178,7.322009],[-9.186438,7.303658],[-9.179752,7.30227],[-9.167421999999817,7.278539],[-9.155492,7.272089000000108],[-9.126189,7.27507],[-9.127127,7.25728700000019],[-9.111167,7.248178],[-9.11223,7.235286],[-9.08983499999988,7.202504000000147],[-9.073568,7.199631000000124],[-9.040184,7.224920000000168],[-9.033564,7.240366],[-9.025212999999894,7.246969],[-9.010692,7.244484000000114],[-8.991749,7.255064000000118],[-8.969776,7.253261000000123],[-8.960597999999834,7.262340000000108],[-8.957789,7.274703],[-8.946014,7.270951],[-8.9285,7.289990000000103],[-8.915268,7.293518000000176],[-8.916137,7.279011000000139],[-8.911021,7.264164],[-8.900908,7.258263000000113],[-8.895583999999872,7.265222],[-8.872550999999874,7.257378],[-8.853589,7.26267700000011],[-8.837753,7.27623],[-8.838739,7.316549],[-8.846141999999816,7.321328000000108],[-8.843392,7.333932],[-8.853071999999884,7.349481000000139],[-8.841993999999886,7.360378],[-8.8228289999999,7.390996],[-8.815854,7.406191],[-8.808748,7.404967],[-8.790901,7.41621600000019],[-8.779991,7.417266],[-8.778013999999871,7.436381],[-8.773268999999857,7.447545000000105],[-8.738496999999882,7.484274],[-8.718388,7.509395],[-8.708566,7.514595],[-8.718112,7.527516],[-8.711399,7.544513],[-8.723595,7.556081],[-8.71823,7.566654],[-8.723024,7.574392],[-8.71193,7.596109000000126],[-8.713003999999898,7.611291],[-8.704779,7.624785000000145],[-8.71414,7.640699],[-8.68830899999989,7.670423],[-8.675437999999872,7.69823],[-8.550254,7.701117],[-8.558486,7.687931],[-8.554076999999893,7.672240000000102],[-8.553812999999877,7.656545],[-8.569565999999895,7.631],[-8.558759,7.626041000000157],[-8.471103,7.558004],[-8.41296599999987,7.613899],[-8.407902,7.622887000000105],[-8.39706299999989,7.62807800000013],[-8.38017,7.616995],[-8.384167,7.596841000000154],[-8.354658,7.587412],[-8.339283,7.592304],[-8.325062,7.608755],[-8.307921999999849,7.612193000000104],[-8.297981,7.585010000000182],[-8.260291,7.573656],[-8.229211,7.552144000000112],[-8.218713,7.538724000000116],[-8.210092999999858,7.536841],[-8.20507,7.548761000000127],[-8.183194999999898,7.561416],[-8.170411,7.584276],[-8.184913,7.608218],[-8.170882,7.626544],[-8.171815,7.640255],[-8.163539,7.649487000000136],[-8.143601,7.659741000000167],[-8.147942,7.674881000000141],[-8.144591,7.685729],[-8.117051999999887,7.724333000000172],[-8.115587999999889,7.734759],[-8.101424999999836,7.765817],[-8.104559999999879,7.780043000000148],[-8.09535099999988,7.797342],[-8.107501,7.814731],[-8.111291999999821,7.837528000000134],[-8.124602,7.834988000000124],[-8.125733,7.847896000000162],[-8.134473,7.860303000000158],[-8.134847,7.88311],[-8.124043,7.889639],[-8.114983,7.901661000000161],[-8.117834999999843,7.913185000000112],[-8.105997,7.93995],[-8.094879,7.950147000000186],[-8.091284,7.976572],[-8.080536,7.988930000000153],[-8.078053,8.000437],[-8.066895999999872,8.007474],[-8.06781999999987,8.021901],[-8.062146999999868,8.036965000000123],[-8.048619999999858,8.046533],[-8.034196,8.03778300000016],[-8.015004,8.037105000000167],[-8.008392999999899,8.044205],[-7.992618,8.042882000000134],[-7.982270999999855,8.034833000000106],[-7.988535,8.027762],[-7.979529,8.01728700000018],[-7.971647,8.023209],[-7.947297,8.011766],[-7.943345,8.017687],[-7.949534,8.037891],[-7.943524,8.048513000000128],[-7.961643,8.053457],[-7.970835,8.069946000000186],[-7.975662,8.090208000000132],[-7.987095,8.091329000000144],[-7.996541,8.098628000000133],[-8.012981,8.102008000000183],[-8.008175999999878,8.119587],[-7.992683999999883,8.128068],[-7.997572,8.155535],[-7.993198,8.175926000000175],[-7.983951,8.187144],[-7.981845302999886,8.201584356000069],[-8.010885999999857,8.187322],[-8.034691,8.194630000000188],[-8.044773,8.174663000000123],[-8.055637323999974,8.173795006000091],[-8.05423,8.156722000000173],[-8.067866,8.157473000000152],[-8.089184999999873,8.177226],[-8.109224,8.183882000000153],[-8.116477,8.182134000000133],[-8.141095,8.190419000000134],[-8.150889,8.184862],[-8.17360699999989,8.18483300000014],[-8.184414,8.202715000000182],[-8.205814,8.223645000000147],[-8.221246,8.230103000000156],[-8.242461,8.233701000000167],[-8.243753,8.250386000000105],[-8.238428,8.267161],[-8.222664999999836,8.275848],[-8.217664,8.296395000000132],[-8.228685,8.322272],[-8.215007,8.359580000000108],[-8.22048,8.374286],[-8.230127999999866,8.385569],[-8.22602,8.403404],[-8.238012,8.415615000000173],[-8.23978499999987,8.444537],[-8.23550299999988,8.465025],[-8.221757,8.465031],[-8.215859,8.474099],[-8.206366,8.47566600000016],[-8.184632,8.504764],[-8.16735999999986,8.50278],[-8.163347,8.493857],[-8.148965,8.495920000000183],[-8.13765,8.489587],[-8.099267999999881,8.486291000000165],[-8.090401,8.508181],[-8.082683,8.502931000000103],[-8.065439,8.503479],[-8.062918,8.511079000000166],[-8.038146,8.497956],[-8.018485,8.501092],[-8.005452,8.489917000000162],[-8.000793,8.496986000000106],[-7.98834,8.490265],[-7.976363999999876,8.48909900000018],[-7.977461,8.500130000000183],[-7.965424,8.50576500000011],[-7.946399999999812,8.498576],[-7.930958,8.509474],[-7.927077999999824,8.499005000000182],[-7.90807,8.491245000000106],[-7.914562,8.481402000000116],[-7.913393,8.470858],[-7.920152,8.454734],[-7.904339999999877,8.453615000000184],[-7.897409,8.441965],[-7.876943999999867,8.426717],[-7.866227,8.42322],[-7.852348,8.429871],[-7.838303,8.426507],[-7.823177999999871,8.443343],[-7.82616599999983,8.457548000000145],[-7.835346999999899,8.473404],[-7.825814,8.495486000000142],[-7.813241,8.484416000000124],[-7.798537,8.486385000000155],[-7.786286,8.474836],[-7.777998,8.450603000000172],[-7.755871,8.409221000000116],[-7.756163,8.39765],[-7.740494999999839,8.377471000000185],[-7.716380999999842,8.380576],[-7.697554,8.374944],[-7.685127,8.379171000000156],[-7.675135,8.376439],[-7.665074999999888,8.382876000000124],[-7.660096,8.373952],[-7.648512,8.377802],[-7.650982,8.402693],[-7.663219,8.411621000000139],[-7.672268,8.425217],[-7.677529999999877,8.441208000000131],[-7.670586,8.450377000000117],[-7.673134,8.46399300000013],[-7.665190999999822,8.47089300000016],[-7.658928,8.496617000000128],[-7.690053936999959,8.55190451600015],[-7.690225595999948,8.565892132000045],[-7.662784462999923,8.617797611000071],[-7.682203797999875,8.638728250000042],[-7.689912368999956,8.651342061000037],[-7.698824661999936,8.654663675000052],[-7.703829902999928,8.664627905000089],[-7.712878235999938,8.66669058900004],[-7.714105398999948,8.68028539900007],[-7.729970537999975,8.69453898],[-7.729579414999932,8.701880332000087],[-7.742635327999892,8.70965732000019],[-7.747861699999874,8.719300427],[-7.778911207999954,8.72958904100011],[-7.767763877999926,8.749402017000023],[-7.777832688999979,8.761167008000086],[-7.783823451999979,8.774628178000114],[-7.793111999999894,8.7652700000001],[-7.809339,8.768196000000103],[-7.822119,8.759481],[-7.830733,8.76857600000011],[-7.847954999999899,8.775619],[-7.859683,8.773736],[-7.8692,8.788876000000187],[-7.89386,8.789414000000136],[-7.899792,8.778565],[-7.912655,8.774835000000166],[-7.93153999999987,8.776612000000114],[-7.948614,8.788675],[-7.948992,8.80267600000019],[-7.958741999999859,8.814446],[-7.954301369999939,8.824866466000174],[-7.955847,8.84491800000012],[-7.937526,8.849592000000143],[-7.933117,8.876018000000101],[-7.914515116999894,8.888699672000087],[-7.925248131999922,8.903058913999985],[-7.93744229899994,8.90671059300007],[-7.916698,8.935632],[-7.926108,8.944522000000177],[-7.929964999999868,8.958181],[-7.927106,8.96748700000012],[-7.934717,8.981848000000184],[-7.918310427999927,8.996286620000035],[-7.923788142999911,9.00992384600005],[-7.915638061999971,9.014270982000028],[-7.903931428999954,9.031549405000135],[-7.892747762999875,9.025786393000033],[-7.881828,9.031421],[-7.856739999999888,9.032525],[-7.85119799999984,9.041106],[-7.848686,9.058022000000108],[-7.840262,9.066225],[-7.822147,9.063604000000112],[-7.805803999999853,9.073929],[-7.77733,9.074448000000132],[-7.7568,9.067406000000119],[-7.733578,9.064959000000158],[-7.726564,9.072818],[-7.730568,9.081084000000146],[-7.75417,9.095055],[-7.780287,9.104996],[-7.801239,9.129708],[-7.807486,9.143323000000123],[-7.823769,9.15855],[-7.824028,9.176465000000178],[-7.835481,9.178972000000101],[-7.852146,9.176601],[-7.855070999999839,9.168669000000136],[-7.870176,9.159018],[-7.88264,9.161609],[-7.905307999999877,9.1787700000001],[-7.914415,9.189365000000123],[-7.920069,9.212409],[-7.917604,9.222544],[-7.905821,9.239248],[-7.888071,9.285952000000123],[-7.878716,9.293592],[-7.876688999999885,9.318644000000177],[-7.882426,9.331284],[-7.870191,9.367355],[-7.859982,9.375679],[-7.855693,9.392310000000123],[-7.855163999999888,9.409784000000172],[-7.848937,9.421265000000119],[-7.87015,9.422516],[-7.88709,9.419183000000146],[-7.916337999999882,9.421968],[-7.925019,9.413193000000149],[-7.954845,9.410089],[-7.974859999999865,9.398513],[-7.996672999999817,9.398210000000176],[-8.005778,9.403104],[-8.013253,9.395963],[-8.033144,9.395008],[-8.049461999999892,9.416434],[-8.053807,9.416022],[-8.073531999999886,9.433463],[-8.084713,9.43985],[-8.091852,9.454387],[-8.10282,9.465500000000134],[-8.105085,9.476294],[-8.113112,9.48114900000013],[-8.128719,9.507987],[-8.123241,9.522149000000184],[-8.140481,9.531532],[-8.137633,9.545111],[-8.143684,9.549880000000144],[-8.13470999999987,9.565188],[-8.138857,9.584545],[-8.145086,9.589261],[-8.134779,9.617284],[-8.144747999999879,9.621690000000171],[-8.125922999999887,9.633078],[-8.116682,9.64886700000011],[-8.11931,9.666706000000147],[-8.12587399999984,9.679225],[-8.124494,9.698279000000184],[-8.11533699999984,9.701065000000142],[-8.111586999999872,9.71442100000013],[-8.117447,9.72377100000017],[-8.113458,9.733046],[-8.120609,9.760608],[-8.104601999999886,9.76128800000015],[-8.113328,9.789659000000142],[-8.097736,9.791333],[-8.1112609999999,9.805526],[-8.095449,9.808623000000125],[-8.093243,9.828965000000153],[-8.097725,9.853246000000127],[-8.095063,9.863403000000119],[-8.103127,9.873546],[-8.126514,9.868339000000162],[-8.138969,9.868941],[-8.141039999999862,9.876683],[-8.124036999999873,9.885176],[-8.120649,9.900961000000109],[-8.132957,9.910078],[-8.151816999999824,9.909872],[-8.16035,9.931747],[-8.147127999999896,9.940319],[-8.144661999999869,9.949116000000117],[-8.12924,9.959105],[-8.117266,9.956252],[-8.11211,9.961894],[-8.113895,9.97894],[-8.121878,9.979921],[-8.130612999999812,9.970927000000188],[-8.144038,9.975057000000106],[-8.145022,9.987703000000181],[-8.132696,9.992886],[-8.1229,10.01947500000017],[-8.124109,10.03592500000019],[-8.11769,10.056258000000184],[-8.101907,10.065411],[-8.079852999999844,10.062453000000119],[-8.074566999999888,10.072794],[-8.059950999999899,10.071015000000102],[-8.056450999999868,10.078041],[-8.034251999999867,10.08328100000017],[-8.032228,10.090971000000138],[-8.008805999999879,10.097318],[-8.013666,10.119831],[-8.004761999999857,10.143077],[-7.99779999999987,10.143033000000116],[-7.991327,10.155007000000182],[-7.989510999999823,10.17350000000016],[-7.981202382999982,10.171413489000088],[-7.97687,10.18755],[-7.962481,10.19655],[-7.954886,10.232584],[-7.947062,10.23949400000015],[-7.946206,10.254856],[-7.969178,10.291932000000145],[-7.972937999999886,10.310159000000112],[-7.985244,10.34339],[-7.998255,10.351371000000142],[-8.008348999999896,10.347209],[-8.025926,10.346621],[-8.043438,10.332726],[-8.055419,10.331936],[-8.071218,10.341152],[-8.10349,10.38691],[-8.10587,10.40171],[-8.1011,10.42897],[-8.114459999999838,10.449790000000178],[-8.128199999999822,10.44338],[-8.14909,10.427930000000174],[-8.162979999999834,10.42815],[-8.1831,10.41348],[-8.2135,10.41781],[-8.22947,10.41757],[-8.235725,10.455353],[-8.235154,10.468726],[-8.244339,10.489951],[-8.247146999999813,10.513507000000118],[-8.257854,10.528403],[-8.27289999999988,10.56076],[-8.2687,10.569550000000106],[-8.27586,10.58356],[-8.2865,10.59441],[-8.2942,10.58536000000015],[-8.324169999999867,10.58858],[-8.326674,10.596674000000121],[-8.328637,10.632069],[-8.321617,10.644888],[-8.321469,10.673531000000139],[-8.299816,10.67588000000012],[-8.298804,10.691198],[-8.291635999999869,10.70541500000013],[-8.300766999999894,10.709996000000103],[-8.303058,10.722815],[-8.291516999999885,10.743725],[-8.29003,10.757139],[-8.305318,10.770821000000183],[-8.331580999999858,10.772576],[-8.332028,10.786228],[-8.30395,10.81847],[-8.302407,10.834472000000176],[-8.30907,10.843276000000117],[-8.307343999999887,10.853924],[-8.259159999999895,10.89235200000013],[-8.25896,10.905669000000103],[-8.278714,10.946555000000103],[-8.278698,10.994409],[-8.2818,11.01181],[-8.28853,11.020310000000109],[-8.314246,11.027275],[-8.344751,11.063466],[-8.363953,11.071564],[-8.373483,11.071242],[-8.386653,11.062783],[-8.419132999999874,11.062783],[-8.442056,11.070903],[-8.44938,11.06855],[-8.48163,11.07162],[-8.487429999999847,11.044],[-8.50216,11.02564],[-8.5019,11.00978],[-8.52115,10.99613],[-8.52782,10.9878700000001],[-8.55155,10.97203],[-8.569841,10.965973],[-8.579121,10.958787],[-8.594499999999812,10.96009],[-8.602532,10.955247],[-8.616869999999835,10.96857000000017],[-8.649609999999882,10.95324],[-8.6675,10.954200000000128],[-8.67417,10.97209],[-8.67179,10.99008],[-8.67616,11.001020000000153],[-8.65856,11.02377],[-8.6341,11.039860000000147],[-8.628959999999893,11.0509],[-8.62848,11.06622],[-8.62258,11.07697],[-8.59983,11.09763],[-8.60602,11.11828],[-8.60297,11.132080000000144],[-8.59403,11.13789],[-8.57318,11.13437],[-8.559479999999837,11.13703],[-8.54929,11.16406000000012],[-8.556239999999889,11.18158],[-8.553859999999872,11.206230000000176],[-8.538819999999873,11.21746000000013],[-8.515219999999886,11.21613],[-8.5056,11.22469],[-8.483139999999878,11.222600000000114],[-8.47029,11.23611000000011],[-8.48362,11.26743],[-8.48067,11.28151],[-8.467529999999897,11.29255000000012],[-8.4564,11.29503000000011],[-8.43926,11.29132],[-8.429079999999885,11.28332],[-8.39586,11.275710000000117],[-8.37197,11.27942000000013],[-8.365029999999877,11.28465000000017],[-8.3556999999999,11.30607],[-8.352079999999887,11.32444],[-8.356269999999824,11.328820000000121],[-8.38006,11.32749],[-8.39729,11.33082],[-8.408429999999896,11.34386],[-8.40329,11.35794],[-8.39187,11.365270000000123],[-8.37234999999987,11.37117000000012],[-8.35467,11.371638000000132],[-8.351358999999832,11.376335],[-8.371014,11.388899],[-8.396997,11.391897],[-8.409418,11.401224],[-8.43483099999986,11.400748000000135],[-8.450868,11.41550100000012],[-8.460006,11.411979],[-8.473331,11.420165000000168],[-8.482771999999898,11.412798],[-8.50173,11.418790000000115],[-8.50611,11.437810000000127],[-8.51492,11.449270000000126],[-8.51726,11.47491],[-8.5219,11.48427],[-8.53322,11.49236],[-8.53636,11.47982],[-8.55968,11.47723000000019],[-8.56388,11.463820000000169],[-8.59761,11.47429000000011],[-8.61639,11.47638],[-8.61898,11.488350000000139],[-8.637539999999888,11.5035],[-8.653899999999851,11.524090000000172],[-8.658018,11.538694],[-8.640218,11.549942],[-8.659587,11.564504],[-8.65556,11.574680000000171],[-8.66267,11.58554],[-8.67987,11.595470000000148],[-8.69181,11.62359],[-8.69004,11.635250000000156],[-8.7061,11.64485],[-8.722199999999873,11.628870000000177],[-8.7448,11.61222],[-8.75076,11.627450000000124],[-8.78878,11.630510000000186],[-8.79605,11.6396],[-8.81391,11.64447],[-8.815499999999872,11.649920000000122],[-8.849317999999869,11.653372000000104],[-8.819232,11.782698],[-8.830815,11.798938],[-8.82145,11.819268],[-8.803145,11.841612],[-8.788472999999897,11.86759000000012],[-8.792890999999884,11.892359000000113],[-8.785415,11.918349],[-8.782469999999876,11.945690000000127],[-8.78405,11.964070000000163],[-8.77395,11.97173000000015],[-8.78122999999988,11.987570000000119],[-8.79157,11.99063000000018],[-8.80265,12.00814],[-8.80223,12.01588],[-8.81587,12.02357],[-8.83185,12.04181],[-8.84909,12.04769000000016],[-8.85799,12.03538],[-8.87035,12.03288],[-8.88938,12.04355],[-8.909789999999873,12.04955],[-8.9063799999999,12.05738],[-8.91181,12.09356],[-8.90145,12.09868],[-8.89120999999983,12.11868],[-8.89305,12.13863],[-8.88359,12.15099],[-8.896549999999877,12.16549],[-8.90762,12.19023],[-8.91743,12.203620000000171],[-8.93022,12.199090000000183],[-8.931739999999877,12.19069],[-8.95096,12.18845],[-8.97075,12.19266],[-8.96586,12.20133],[-8.970509999999877,12.212400000000116],[-8.98551,12.219670000000178],[-8.99299,12.23205],[-8.98421999999988,12.25813],[-8.978098999999872,12.261822000000109],[-8.958004,12.292212000000177],[-8.95454,12.300972],[-8.933479,12.32452400000011],[-8.954636,12.356619],[-8.964446999999893,12.357404],[-9.005599,12.395224],[-9.003101,12.404218000000185],[-9.014272,12.420851],[-9.03988,12.42631],[-9.05355,12.43379],[-9.089789999999823,12.44353000000018],[-9.10656,12.455220000000168],[-9.110839999999882,12.46219],[-9.12668,12.465770000000191],[-9.133939999999825,12.47836],[-9.143439999999885,12.479600000000175],[-9.15694,12.489370000000122],[-9.17096999999984,12.488960000000134],[-9.21643,12.49525],[-9.21909,12.49896],[-9.24517,12.50235],[-9.24993,12.50583],[-9.26824,12.5013],[-9.28322,12.48653000000013],[-9.2936,12.488320000000101],[-9.29937,12.499250000000131],[-9.3144,12.506110000000149],[-9.32138,12.48578],[-9.33454,12.47927],[-9.33663,12.49439000000018],[-9.35536,12.501700000000142],[-9.366629999999816,12.494750000000124],[-9.36665,12.47971],[-9.38466,12.477500000000134],[-9.406459999999868,12.46489],[-9.40054,12.452040000000125],[-9.390709999999842,12.45463],[-9.37893,12.44778],[-9.37941,12.430700000000172],[-9.370469999999898,12.42155],[-9.35533,12.42221],[-9.35555,12.41181],[-9.34367,12.40733],[-9.33909,12.38165],[-9.32645,12.37241],[-9.303449999999827,12.36803],[-9.297549999999887,12.360590000000116],[-9.31051,12.35385],[-9.30409,12.344710000000134],[-9.31061,12.324050000000113],[-9.32161,12.322530000000143],[-9.323829999999873,12.31009],[-9.322789999999884,12.28605000000016],[-9.31827,12.28107],[-9.32873,12.26981],[-9.34805,12.25761000000017],[-9.37307,12.25055],[-9.39081,12.26157],[-9.42217,12.265100000000132],[-9.443599999999833,12.259340000000122],[-9.46453,12.26046],[-9.48565,12.255860000000155],[-9.4947,12.245690000000138],[-9.49303,12.233880000000113],[-9.5019,12.225550000000112],[-9.518119999999897,12.220640000000117],[-9.52867,12.21093000000019],[-9.53369,12.19757],[-9.55795,12.19357],[-9.571929999999895,12.1978],[-9.599289999999883,12.18826],[-9.605749999999887,12.181920000000105],[-9.63496,12.175540000000126],[-9.64905999999985,12.16537000000011],[-9.66011,12.149560000000122],[-9.66956,12.14358],[-9.682969999999898,12.11853],[-9.675179999999898,12.084500000000105],[-9.680679999999882,12.07219],[-9.69278,12.06688],[-9.694589999999891,12.05812],[-9.68895,12.036120000000153],[-9.69376,12.03164],[-9.71302,12.028280000000166],[-9.74253,12.030690000000106],[-9.764049999999884,12.03952],[-9.77813,12.038480000000163],[-9.81658,12.06653],[-9.82949,12.05760000000015],[-9.84828,12.06241],[-9.87066,12.05936],[-9.885089999999877,12.06393],[-9.897329999999897,12.07331],[-9.9059,12.092530000000124],[-9.9165,12.10417],[-9.93867,12.09951000000018],[-9.95293,12.107060000000104],[-9.966389999999876,12.10386],[-9.98772,12.11601],[-9.99873,12.13122],[-10.01102,12.13434],[-10.028189999999881,12.133150000000171],[-10.04221,12.14825],[-10.053429999999878,12.144440000000145],[-10.062549999999874,12.153970000000129],[-10.07843,12.1463],[-10.092789999999866,12.15047],[-10.091029999999819,12.16904],[-10.095529999999826,12.17835],[-10.112369999999885,12.176090000000158],[-10.127989999999897,12.182230000000175],[-10.13566,12.17587],[-10.149769999999876,12.17666],[-10.16799,12.190070000000105],[-10.17626,12.186760000000163],[-10.18685,12.1918],[-10.1924,12.20528],[-10.208252,12.202795000000151],[-10.22493,12.208660000000123],[-10.23775,12.20097],[-10.249679999999898,12.21802],[-10.26736,12.21305],[-10.284539999999879,12.21385],[-10.284069999999815,12.198460000000125],[-10.29811,12.19221],[-10.29884,12.20382],[-10.30988,12.22391000000016],[-10.319279999999878,12.22734],[-10.34183999999982,12.22444000000013],[-10.341269999999895,12.214790000000164],[-10.33064,12.20114000000018],[-10.33504,12.192230000000109],[-10.35457,12.198570000000132],[-10.36479,12.19332],[-10.360629999999844,12.174930000000131],[-10.37884,12.16848],[-10.394379999999899,12.182120000000111],[-10.407739999999876,12.17927],[-10.41505,12.172530000000108],[-10.41488,12.1614],[-10.40854,12.14917],[-10.41488,12.141640000000109],[-10.432639999999878,12.13895],[-10.450849999999889,12.12035],[-10.469699999999818,12.119190000000117],[-10.47723,12.1233],[-10.51253,12.12593],[-10.518029999999897,12.11756],[-10.5175,12.101240000000132],[-10.507069999999885,12.09605],[-10.52155,12.07265000000018],[-10.51868,12.04926],[-10.5304,12.03333],[-10.534969999999873,12.03613],[-10.55962,12.02845],[-10.57085,12.02888],[-10.58231,12.02242],[-10.575329999999894,12.0081],[-10.567089999999894,12.002210000000161],[-10.56661,11.99051],[-10.58399,11.98583],[-10.5944,11.97734000000014],[-10.609109999999873,11.975210000000118],[-10.62399,11.93687],[-10.63321999999988,11.9263],[-10.63117,11.91012000000012],[-10.6566,11.89866000000012],[-10.69573,11.90393],[-10.718349999999873,11.91669000000013],[-10.72397,11.92397000000011],[-10.74423,11.93553],[-10.76555,11.942730000000154],[-10.76349,11.96099],[-10.770231,11.983825],[-10.780030999999838,11.999129000000153],[-10.77743,12.01131],[-10.79975,12.040090000000134],[-10.79272,12.04824],[-10.78389,12.06848],[-10.78835,12.084870000000137],[-10.79063,12.11341],[-10.79581,12.11739],[-10.82517,12.121030000000133],[-10.859709999999893,12.14273],[-10.882069999999828,12.16779],[-10.88165,12.17681],[-10.892489999999896,12.19199],[-10.89543,12.20267],[-10.909309999999834,12.21011],[-10.91205,12.218000000000188],[-10.93707,12.2305],[-10.93941,12.22524],[-10.96332,12.2244],[-10.97457999999989,12.2289],[-10.98922,12.21509],[-11.00753,12.21409000000017],[-11.02492999999987,12.21719000000013],[-11.03673,12.224610000000155],[-11.044349999999895,12.221810000000119],[-11.047509999999875,12.19595],[-11.058789999999874,12.18555],[-11.05141,12.166650000000175],[-11.061829999999873,12.16807],[-11.07035,12.13411],[-11.093349999999816,12.13189],[-11.10237,12.126750000000186],[-11.10821,12.115270000000123],[-11.10513,12.10117],[-11.13165,12.103050000000167],[-11.14287,12.09251],[-11.140849999999887,12.07025],[-11.13581,12.06539],[-11.144629999999893,12.04781000000014],[-11.15657,12.044190000000128],[-11.16111,12.03397],[-11.17331,12.02269],[-11.18841,12.01415],[-11.20305,12.020570000000134],[-11.21633,12.00863],[-11.22557,12.007590000000164],[-11.233809999999892,11.99519],[-11.248469999999884,12.00579],[-11.268489999999872,12.00701],[-11.28725,12.01363],[-11.29223,12.02255],[-11.309262999999874,12.024387000000104],[-11.31583,12.034770000000151],[-11.33008999999987,12.046350000000132],[-11.34881,12.052690000000155],[-11.35757,12.065050000000156],[-11.35549,12.08299],[-11.36827,12.10889],[-11.407309999999882,12.11745],[-11.45393,12.13341],[-11.46385,12.14271],[-11.473189999999818,12.16233000000011],[-11.48783,12.16927],[-11.485889999999813,12.176630000000102],[-11.49563,12.18607],[-11.489489999999876,12.19613],[-11.49487,12.214790000000164],[-11.48537,12.22369],[-11.47889,12.239170000000115],[-11.457789999999875,12.25213],[-11.44611,12.25581],[-11.45097,12.27379],[-11.44385,12.28113],[-11.430089999999893,12.28407],[-11.42693,12.303790000000163],[-11.432629999999847,12.306570000000136],[-11.42987,12.324870000000146],[-11.436889999999892,12.34513],[-11.449169999999867,12.35335],[-11.434329999999818,12.36943],[-11.43641,12.38181],[-11.4299299999999,12.392290000000173],[-11.410729999999887,12.38351],[-11.36931,12.391630000000134],[-11.364909999999895,12.39725],[-11.376727518999928,12.413262403000033],[-11.40867,12.417580000000157],[-11.43302,12.431610000000148],[-11.45971,12.441490000000158],[-11.53135,12.442840000000103],[-11.581439999999873,12.43314],[-11.600389999999834,12.42692],[-11.63901,12.423660000000154],[-11.66383,12.423400000000129],[-11.712469999999882,12.39345],[-11.76161,12.387860000000103],[-11.785729999999887,12.393580000000156],[-11.81382,12.39284],[-11.8494,12.397380000000169],[-11.86065,12.401740000000132],[-11.89395,12.42721],[-11.91268,12.430390000000102],[-11.93186,12.425290000000189],[-11.95874,12.407060000000115],[-11.99874,12.396860000000117],[-12.016759999999863,12.396590000000174],[-12.03622,12.40689],[-12.04961,12.423190000000147],[-12.073,12.418990000000122],[-12.096839999999816,12.42131],[-12.1132,12.41231],[-12.139819999999816,12.38856],[-12.15919,12.36805],[-12.189139999999838,12.35864],[-12.23476,12.355060000000151],[-12.292009999999834,12.331180000000131],[-12.33078,12.311490000000106],[-12.34363,12.30731],[-12.360029999999881,12.31139000000013],[-12.389929999999879,12.356140000000153],[-12.404019999999889,12.368740000000116],[-12.43451,12.382420000000138],[-12.44953,12.391570000000115],[-12.47414,12.39906],[-12.48936,12.40061],[-12.5062,12.39732],[-12.54376,12.37141],[-12.56458,12.368560000000173],[-12.577049999999815,12.38185],[-12.58437,12.39538],[-12.60595,12.40518],[-12.621739999999818,12.426270000000102],[-12.63394,12.431280000000186],[-12.67281,12.43340000000012],[-12.7147,12.43204],[-12.73763,12.429410000000189],[-12.755449999999882,12.43507],[-12.7612,12.458270000000141],[-12.7815599999999,12.47626],[-12.80015,12.47280000000012],[-12.83418,12.486880000000156],[-12.841729999999814,12.49627],[-12.84559,12.51558000000017],[-12.868809999999883,12.52304],[-12.88765,12.54065],[-12.90523,12.541940000000181],[-12.922529999999824,12.537010000000123],[-12.93647,12.5206],[-12.940489999999897,12.48746000000017],[-12.948149999999885,12.477060000000165],[-12.96865,12.46167],[-13.00399,12.474340000000154],[-13.02854,12.47798],[-13.0509899999999,12.47395],[-13.0606,12.47781],[-13.07121,12.49132],[-13.07229,12.51524000000012],[-13.07659,12.52971],[-13.065649999999891,12.54196],[-13.0508999999999,12.58206],[-13.056729999999845,12.61929],[-13.065429999999878,12.625],[-13.073469999999872,12.63899],[-13.08003,12.63918],[-13.09728,12.62575],[-13.11092,12.63441],[-13.13415,12.64233],[-13.145109999999875,12.63491],[-13.15264,12.639690000000144],[-13.17956,12.63655],[-13.1877,12.62776],[-13.197119999999813,12.6369],[-13.22155,12.648260000000107],[-13.23297,12.63968],[-13.26301,12.649160000000109],[-13.28786,12.652460000000133],[-13.30466,12.64246],[-13.32409,12.64172],[-13.33602,12.65212],[-13.3509,12.65957],[-13.467379999999821,12.66686]]],[[[-13.753334998999946,9.442746163000152],[-13.74560546899994,9.460046768000097],[-13.747606276999932,9.478190422000125],[-13.755760191999968,9.484332084000073],[-13.760077475999935,9.502687454000181],[-13.771832464999818,9.496156692],[-13.76482009799986,9.488166809000177],[-13.755625724999902,9.46801281],[-13.753334998999946,9.442746163000152]]],[[[-13.83279323499994,9.450149536000083],[-13.83360004399998,9.46324253],[-13.82470989199993,9.479637146000073],[-13.815496444999837,9.485229492000087],[-13.795348166999872,9.512057305000155],[-13.807876586999953,9.515173912000023],[-13.815022467999938,9.511209488000077],[-13.824814795999885,9.492049217000101],[-13.838619232999974,9.481821059000026],[-13.84381580299987,9.466836930000056],[-13.83279323499994,9.450149536000083]]],[[[-13.765042304999952,9.824036598000077],[-13.76146125899993,9.839469910000162],[-13.778575896999882,9.834733963000076],[-13.78490352699987,9.815140724000116],[-13.77879047399989,9.804614066000113],[-13.770673751999936,9.804219245000013],[-13.765042304999952,9.824036598000077]]],[[[-14.038882254999976,10.108675957],[-14.062944411999922,10.125937462000138],[-14.07279682099994,10.112509728000077],[-14.058279989999903,10.09861373900003],[-14.038882254999976,10.108675957]]],[[[-14.873248099999898,10.856413840000187],[-14.875234603999957,10.866511345000163],[-14.870862007999904,10.889335632000098],[-14.880745886999875,10.89818954600014],[-14.892550467999968,10.894022942000163],[-14.896530151999968,10.883238791000053],[-14.887304305999919,10.877948761000027],[-14.880537032999825,10.862537384000063],[-14.873248099999898,10.856413840000187]]],[[[-14.897646903999942,10.816326141000047],[-14.890934943999923,10.819167136000033],[-14.881245612999919,10.844586373000084],[-14.886671065999849,10.850502014000085],[-14.885284424999952,10.870071411000026],[-14.894768714999884,10.87653732300015],[-14.901339530999905,10.888740540000072],[-14.886901854999849,10.906626702000096],[-14.896377563999977,10.920084952000025],[-14.906465529999934,10.908001899000112],[-14.914361953999958,10.88789367700008],[-14.937087058999964,10.863005638000061],[-14.930018424999957,10.837557792000041],[-14.917646408999929,10.815625192000027],[-14.903405187999965,10.811655998000106],[-14.897646903999942,10.816326141000047]]],[[[-14.853347778999932,10.903346062000082],[-14.861644744999865,10.934532165000178],[-14.877345084999945,10.943086624000046],[-14.887729643999933,10.935831071],[-14.885489462999942,10.924126625000042],[-14.87653255499987,10.915031432999967],[-14.878757475999919,10.906723975999967],[-14.87004756999994,10.898777008000025],[-14.853347778999932,10.903346062000082]]],[[[-14.897632598999962,10.946063995999964],[-14.900596618999884,10.95983028400019],[-14.91261291599983,10.95278453800006],[-14.897632598999962,10.946063995999964]]],[[[-14.923069000999874,10.895609856000021],[-14.904608725999935,10.926888466000037],[-14.924709319999977,10.95217800100005],[-14.954327583999941,10.975051880000024],[-14.985275938999905,10.961581318000128],[-15.006149851999965,10.948222013000134],[-15.017560923999895,10.928739695],[-15.03562927199988,10.92208862299998],[-15.059435644999951,10.90306904900018],[-15.075222845999917,10.884971526000129],[-15.084904671999936,10.869412422000096],[-15.08451557199993,10.855422973000032],[-15.078563690999943,10.845146180000143],[-15.03201961499991,10.790523529000154],[-15.014638900999955,10.777630806000161],[-14.982245444999876,10.772971153000185],[-14.952934264999953,10.772871017000057],[-14.941772460999914,10.791639327999974],[-14.948698043999912,10.805816650999986],[-14.960441588999913,10.814643860000047],[-14.974436759999946,10.817462921000129],[-14.97887802199989,10.824483870999984],[-14.9720220559999,10.835474967000096],[-14.961899757999959,10.837859155],[-14.97182369299992,10.860219002000065],[-14.971567153999956,10.875153542000135],[-14.953166960999908,10.861570358000165],[-14.923069000999874,10.895609856000021]]],[[[-14.895717888999911,10.999691253000037],[-14.902693718999956,11.017712147000054],[-14.918970654999953,11.040964914000085],[-14.928125319999822,11.049023401999989],[-14.953823621999902,11.0041506930001],[-14.962768553999979,10.97977924300011],[-14.94663524699996,10.974225998000065],[-14.917758940999818,10.954792977000068],[-14.898043165999923,10.968300018000036],[-14.895717888999911,10.999691253000037]]]]},"properties":{"iso2":"GN","iso3":"GIN","adm0_name":"Guinée","adm0_name1":null,"adm0_name2":null,"adm0_name3":null,"adm0_pcode":"GN","valid_on":"2016-03-04","valid_to":null,"area_sqkm":245057.47842795,"version":"v01","lang":"fr","lang1":null,"lang2":null,"lang3":null,"center_lat":9.9335735,"center_lon":-9.6629878}}
]}