{"type":"FeatureCollection","features":[{"type":"Feature","id":"Q208514","properties":{},"geometry":{"type":"MultiPolygon","coordinates":[[[[16.088111335,44.053811093],[16.091740951,44.055549835],[16.093551358,44.055489569],[16.096442276,44.056221644],[16.097101848,44.057809679],[16.103980457,44.06199468],[16.104334928,44.063085585],[16.10555944,44.063608196],[16.104741618,44.064409087],[16.104727368,44.065229173],[16.104303496,44.064814268],[16.10355407,44.065476774],[16.104372898,44.066719056],[16.106691835,44.066643786],[16.111021842,44.06851052],[16.112852366,44.067536291],[16.115042725,44.067559342],[16.116364551,44.06884303],[16.118263388,44.068910337],[16.119266366,44.069534621],[16.119269048,44.069975593],[16.142228087,44.089692427],[16.141434153,44.086735879],[16.142334789,44.086573354],[16.143047921,44.085398798],[16.14429255,44.087211971],[16.146148555,44.086379396],[16.148132383,44.090639918],[16.150173461,44.092628776],[16.149277184,44.096516051],[16.147922333,44.09829159],[16.148271439,44.099214186],[16.145705236,44.099758339],[16.14491499,44.100715552],[16.143982922,44.100999699],[16.141329463,44.100310539],[16.137771429,44.101109669],[16.137560289,44.102569042],[16.140323467,44.10647677],[16.139166262,44.107416632],[16.140148621,44.109480676],[16.134925773,44.113334926],[16.141525851,44.118228282],[16.148416949,44.121273427],[16.143975546,44.125682392],[16.14507609,44.126720155],[16.144908452,44.127129779],[16.143407756,44.127664461],[16.143870689,44.133708232],[16.144645176,44.134901647],[16.142022647,44.136960829],[16.138548599,44.136313998],[16.137153851,44.136973151],[16.138769295,44.138661434],[16.132598035,44.140789096],[16.135487025,44.146088554],[16.135714762,44.149488422],[16.134749334,44.153899231],[16.137434477,44.169353365],[16.1338259,44.177453636],[16.133027356,44.18406788],[16.131221139,44.190989152],[16.131282746,44.196163888],[16.137821721,44.201156988],[16.137396171,44.201791246],[16.138133779,44.202413854],[16.139309676,44.202402119],[16.138061192,44.205789833],[16.138740042,44.211147294],[16.13759499,44.212112638],[16.143170632,44.212480017],[16.145680844,44.21350789],[16.146398252,44.213077563],[16.146373693,44.211808878],[16.14709747,44.211063475],[16.158036189,44.211799071],[16.160106938,44.209563869],[16.162723936,44.208385122],[16.167690549,44.207695459],[16.172456834,44.209210069],[16.17307743,44.208204995],[16.172965197,44.210319581],[16.174437478,44.211511655],[16.175728626,44.211490868],[16.175839435,44.212311038],[16.180423833,44.211997554],[16.182055371,44.212656875],[16.183388093,44.21249435],[16.184160569,44.213216367],[16.185302436,44.213378724],[16.187860844,44.213709223],[16.190667525,44.213392471],[16.191969989,44.214047265],[16.197719639,44.214869362],[16.200975589,44.216390342],[16.203961558,44.216441388],[16.207164284,44.217214367],[16.210376899,44.216083145],[16.213843822,44.214073668],[16.216298798,44.213774769],[16.216701464,44.21288218],[16.219550138,44.211668146],[16.220148857,44.210591155],[16.221903022,44.210396946],[16.223749891,44.209395225],[16.225455943,44.209951029],[16.226262618,44.20956806],[16.226873574,44.206271541],[16.228816667,44.204169527],[16.23158982,44.201881016],[16.234542345,44.200546282],[16.236026361,44.202002135],[16.237553963,44.201249188],[16.240108767,44.197258481],[16.242762897,44.196487262],[16.243537469,44.194161619],[16.251171119,44.189348059],[16.251721391,44.187635637],[16.254153987,44.185856661],[16.256293049,44.183249554],[16.257359478,44.182902627],[16.259332662,44.180793573],[16.261735838,44.179568558],[16.263080798,44.176583259],[16.266069952,44.174941077],[16.270739175,44.173778339],[16.272242386,44.170773343],[16.277229869,44.169016161],[16.281717037,44.165866828],[16.282738121,44.165792062],[16.286285175,44.163596841],[16.288212677,44.163335242],[16.289802054,44.162354056],[16.28999249,44.160815055],[16.292045889,44.158022121],[16.291472064,44.157614342],[16.294409334,44.154739097],[16.294492231,44.154130236],[16.30615917,44.147771137],[16.309701278,44.143207275],[16.308285575,44.126683275],[16.312441323,44.124852919],[16.313633732,44.120776967],[16.31847973,44.114481068],[16.333938976,44.112569994],[16.351410635,44.105724578],[16.359274117,44.10196454],[16.363219479,44.098207519],[16.361566819,44.094909827],[16.369542367,44.082119881],[16.376634044,44.081654769],[16.377374669,44.080145775],[16.383817754,44.083505577],[16.388522181,44.080489265],[16.40177045,44.079590223],[16.427677823,44.083165439],[16.441664369,44.067566047],[16.441452894,44.067315428],[16.428508637,44.06871705],[16.382696591,44.062071793],[16.382342539,44.058548377],[16.371052367,44.051033246],[16.355875674,44.039281818],[16.342592118,44.025624931],[16.338322041,44.024838038],[16.33594024,44.026272936],[16.332013569,44.024992349],[16.338515244,44.021999088],[16.342677949,44.017385437],[16.330068633,43.987205892],[16.330299722,43.965724499],[16.329782055,43.962994345],[16.320823393,43.957832182],[16.315108025,43.953165558],[16.314693959,43.953013594],[16.314126756,43.95351173],[16.308007044,43.951617085],[16.292598843,43.972328433],[16.286064479,43.975528643],[16.285934057,43.976488623],[16.2849693,43.976981143],[16.279924567,43.974784079],[16.280118357,43.98914186],[16.275384761,43.996971731],[16.274178186,43.997372721],[16.278173169,44.006165421],[16.279805042,44.007011071],[16.278299065,44.009157761],[16.263788482,44.021083365],[16.255677147,44.030333549],[16.253486368,44.03189954],[16.250690249,44.032769582],[16.244824091,44.032795063],[16.240500118,44.033519762],[16.237629233,44.032405388],[16.233739778,44.03262952],[16.231776736,44.032127193],[16.23081726,44.032551988],[16.230922872,44.033342066],[16.228450881,44.032571098],[16.230057524,44.033763173],[16.227999683,44.03304082],[16.226239232,44.033667451],[16.224908773,44.032490297],[16.222717659,44.028957576],[16.223002728,44.026810468],[16.217907956,44.024322132],[16.21573545,44.024514497],[16.217417279,44.022198577],[16.218298385,44.018307781],[16.214611353,44.007388676],[16.212149253,44.00798178],[16.211841218,44.009054999],[16.210747296,44.009617843],[16.202456168,44.010035933],[16.202241089,44.010984094],[16.20146132,44.011075959],[16.20085732,44.013343096],[16.19836404,44.015211087],[16.200244771,44.015609982],[16.199178258,44.019917023],[16.200345186,44.022744155],[16.195681747,44.024636789],[16.189753646,44.029121023],[16.188279017,44.031496622],[16.188905732,44.033064541],[16.18711628,44.031819326],[16.185845248,44.031776662],[16.183977257,44.029960974],[16.181005453,44.02915497],[16.175934737,44.028906949],[16.169005921,44.026933766],[16.151028163,44.019241023],[16.149427974,44.024614745],[16.144711226,44.03027102],[16.143462574,44.030989936],[16.142634526,44.03345782],[16.138261268,44.038487297],[16.135472357,44.039095656],[16.131892362,44.033114246],[16.123189265,44.024738881],[16.120178317,44.023895493],[16.116462117,44.024446352],[16.114476863,44.026004883],[16.113096866,44.028034058],[16.111573958,44.028692121],[16.111608073,44.029317076],[16.106027485,44.033494281],[16.093224799,44.050318521],[16.088111335,44.053811093]]]]}}]}
