{"type":"FeatureCollection","features":[{"type":"Feature","geometry":{"type":"Point","coordinates":[150.939998,-33.767911]},"properties":{"label":"Blacktown City Football Club","marker-color":"#00843D","visibility":false}},{"type":"Feature","geometry":{"type":"Point","coordinates":[150.880388,-33.864662]},"properties":{"label":"Marconi Stallions Football Club","marker-color":"#00843D","visibility":false}},{"type":"Feature","geometry":{"type":"Point","coordinates":[150.919918,-33.868189]},"properties":{"label":"Westfields Sports High School","marker-color":"#00843D","visibility":false}},{"type":"Feature","geometry":{"type":"LineString","coordinates":[[150.846937,-33.760429],[150.825497,-33.75738],[150.828569,-33.743847],[150.834672,-33.744082],[150.842687,-33.744453],[150.846564,-33.745054],[150.846268,-33.746721],[150.845972,-33.748524],[150.845775,-33.750108],[150.845972,-33.751583],[150.846695,-33.753222],[150.847254,-33.754643],[150.847648,-33.756118],[150.847648,-33.757375],[150.847615,-33.758358],[150.847316,-33.759402],[150.847184,-33.760062],[150.847085,-33.760447]]},"properties":{"stroke":"#312E81","label":"Plumpton"}}]}