{
"type": "FeatureCollection",
"name": "salala-liberia-outline_EPSG-4326",
"crs": { "type": "name", "properties": { "name": "urn:ogc:def:crs:OGC:1.3:CRS84" } },
"features": [
{ "type": "Feature", "properties": { "adm2_name": "Salala", "adm2_name1": null, "adm2_name2": null, "adm2_name3": null, "adm2_pcode": "LR0207", "adm1_name": "Bong", "adm1_name1": null, "adm1_name2": null, "adm1_name3": null, "adm1_pcode": "LR02", "adm0_name": "Liberia", "adm0_name1": null, "adm0_name2": null, "adm0_name3": null, "adm0_pcode": "LR", "valid_on": "2019-11-04", "valid_to": null, "area_sqkm": 886.70680664999998, "version": "v01", "lang": "en", "lang1": null, "lang2": null, "lang3": null, "adm2_ref_n": "Salala", "center_lat": 6.77694998, "center_lon": -9.96488699 }, "geometry": { "type": "MultiPolygon", "coordinates": [ [ [ [ -9.978625842999918, 6.944883924000123 ], [ -9.978354570999954, 6.944741465000163 ], [ -9.975772376999885, 6.944746786000167 ], [ -9.972948336999934, 6.944752589000188 ], [ -9.966512221999949, 6.941722200000186 ], [ -9.965317889999881, 6.940695794000021 ], [ -9.959054174999949, 6.93531217300017 ], [ -9.947858221999979, 6.921131522000053 ], [ -9.942095384999959, 6.916070531000059 ], [ -9.936337327999922, 6.913376359999972 ], [ -9.931927040999881, 6.907636456000091 ], [ -9.932107490999897, 6.905324018000044 ], [ -9.932125974999906, 6.905085990000089 ], [ -9.932587036999962, 6.899181076000161 ], [ -9.929534522999973, 6.895467341000142 ], [ -9.928306613999894, 6.89438095600002 ], [ -9.927904016999889, 6.894024467000122 ], [ -9.926483742999892, 6.892767730000116 ], [ -9.92309015799998, 6.887701830000026 ], [ -9.922988815999929, 6.887509257000147 ], [ -9.922869875999936, 6.887283930000081 ], [ -9.919354203999944, 6.880607111000188 ], [ -9.910882077999872, 6.873859994000156 ], [ -9.90721470099993, 6.87264589300014 ], [ -9.899708783999927, 6.870161389000089 ], [ -9.897929967999914, 6.869620899000154 ], [ -9.883119452999892, 6.86511971800013 ], [ -9.886467446999973, 6.845837600000038 ], [ -9.888575054999933, 6.837345580000147 ], [ -9.890186319999941, 6.830852846000084 ], [ -9.89184106099998, 6.824184783000021 ], [ -9.891641034999964, 6.818325149000145 ], [ -9.891631163999932, 6.818033467000021 ], [ -9.891483463999975, 6.813702333000094 ], [ -9.889110149999965, 6.811001129999966 ], [ -9.887492868999914, 6.808675587000039 ], [ -9.886057062999953, 6.806610312000146 ], [ -9.88347565499987, 6.806984184000157 ], [ -9.881321696999919, 6.807295643999964 ], [ -9.87557017499995, 6.807306092000147 ], [ -9.870795562999945, 6.80663294500016 ], [ -9.868463416999873, 6.8063041690001 ], [ -9.861358164999956, 6.805978818000085 ], [ -9.859674377999909, 6.810378269000068 ], [ -9.85429617799997, 6.815565531000061 ], [ -9.850892643999941, 6.818848111000079 ], [ -9.842780828999935, 6.823596872000167 ], [ -9.837518171999818, 6.825653052000121 ], [ -9.836694939999916, 6.82597445100015 ], [ -9.825868621999973, 6.826331172999971 ], [ -9.822480902999871, 6.823969968000085 ], [ -9.820103557999971, 6.818563335000135 ], [ -9.820371749999879, 6.810971756000015 ], [ -9.820426257999941, 6.809431729999972 ], [ -9.809249294999859, 6.802348993000066 ], [ -9.809130875999927, 6.801375706000101 ], [ -9.808220254999981, 6.793895749000171 ], [ -9.807538485999885, 6.790853753000022 ], [ -9.806843391999905, 6.790161260000161 ], [ -9.802794097999879, 6.786127050000175 ], [ -9.798726762999877, 6.78139917600015 ], [ -9.794667533999927, 6.781743902000073 ], [ -9.788914536999926, 6.780738527999972 ], [ -9.781130434999966, 6.779060225000137 ], [ -9.77570649099988, 6.772305344000188 ], [ -9.773942342999931, 6.768791818000068 ], [ -9.771973418999949, 6.764871571000128 ], [ -9.771297840999978, 6.763593305000086 ], [ -9.768580254999904, 6.758451418000163 ], [ -9.765868082999873, 6.754735825000125 ], [ -9.759438787999954, 6.753731121000158 ], [ -9.754166852999901, 6.75144971900005 ], [ -9.751652568999873, 6.75036138300004 ], [ -9.750851040999919, 6.745834315000081 ], [ -9.772096814999941, 6.741038828000057 ], [ -9.790856233999818, 6.73263066700008 ], [ -9.792916804999948, 6.731706978000148 ], [ -9.79955614499994, 6.727155472000106 ], [ -9.815214340999944, 6.716420712000115 ], [ -9.821318034999933, 6.709844862000125 ], [ -9.825241167999934, 6.705618146000177 ], [ -9.831035303999954, 6.698379037000109 ], [ -9.844916349999892, 6.681036787000153 ], [ -9.849137706999954, 6.671785988000067 ], [ -9.853069401999903, 6.663169392000157 ], [ -9.853805755999929, 6.658704924000062 ], [ -9.85679616799996, 6.655127498000184 ], [ -9.863179708999951, 6.647490254000104 ], [ -9.863457299999936, 6.64715849300012 ], [ -9.867696102999901, 6.644322232000036 ], [ -9.867216554999914, 6.643939787000079 ], [ -9.867386479999936, 6.642341901 ], [ -9.868764111999894, 6.641263688000095 ], [ -9.868958707999923, 6.641484951000166 ], [ -9.869857362999937, 6.640995504999978 ], [ -9.869981222999968, 6.640375700000163 ], [ -9.870838987999889, 6.636083434999989 ], [ -9.870126858999924, 6.63541421900004 ], [ -9.871415397999954, 6.633474632000059 ], [ -9.871440977999953, 6.633436128000085 ], [ -9.870659627999885, 6.631105698000169 ], [ -9.870479958999852, 6.630542533000039 ], [ -9.870462709999913, 6.630488467000021 ], [ -9.871443591999821, 6.626056436 ], [ -9.873159491999957, 6.623160906000066 ], [ -9.873201496999968, 6.623149862000048 ], [ -9.874532786999964, 6.62279982300015 ], [ -9.881393209999885, 6.621023600000171 ], [ -9.881409151999947, 6.620991809000088 ], [ -9.881430978999902, 6.620986070000072 ], [ -9.882588627999951, 6.618639754000071 ], [ -9.887277636999954, 6.609289157000092 ], [ -9.887857159999953, 6.608664225000098 ], [ -9.890510691999964, 6.605814924000128 ], [ -9.890617393999889, 6.605709045000026 ], [ -9.890980814999921, 6.605884754000044 ], [ -9.892830399999923, 6.606804003000036 ], [ -9.896596679999902, 6.610590707000142 ], [ -9.896646855999961, 6.610641029000078 ], [ -9.89784240399996, 6.611840058000041 ], [ -9.899605128999951, 6.61361553200004 ], [ -9.899985909999941, 6.614001967000149 ], [ -9.901248868999971, 6.615283678000026 ], [ -9.9037385499999, 6.617404295000085 ], [ -9.904763575999823, 6.618289340000047 ], [ -9.905863642999975, 6.619253801000184 ], [ -9.906262287999937, 6.619624755000132 ], [ -9.906788993999896, 6.620065084000089 ], [ -9.906852488999903, 6.620120752000048 ], [ -9.90732854099997, 6.6204046040001 ], [ -9.907421580999937, 6.620460785000034 ], [ -9.907932954999978, 6.620764994000069 ], [ -9.909900210999922, 6.621937998000135 ], [ -9.916839329999959, 6.626135927000121 ], [ -9.920112436999943, 6.628027180000174 ], [ -9.920443435999971, 6.628224543000101 ], [ -9.922557831999882, 6.628627057000188 ], [ -9.923801018999882, 6.641386907000083 ], [ -9.923551492999934, 6.641891220000105 ], [ -9.923316628999942, 6.642359152000097 ], [ -9.922359867999944, 6.644299596999986 ], [ -9.922236701999964, 6.64454939500007 ], [ -9.920912241999872, 6.647230910000133 ], [ -9.919567223999877, 6.649951197000064 ], [ -9.919410478999964, 6.650260568000022 ], [ -9.916997611999818, 6.655137180000111 ], [ -9.914756891999957, 6.666448167999988 ], [ -9.914742626999953, 6.666522469000029 ], [ -9.915627199999847, 6.669025188999967 ], [ -9.916711746999965, 6.672093694000125 ], [ -9.917296300999908, 6.673758184000178 ], [ -9.91790102899995, 6.675458523999964 ], [ -9.918486698999914, 6.677105279000102 ], [ -9.91866272399983, 6.677613585000017 ], [ -9.918900203999954, 6.678299354000046 ], [ -9.918906337999829, 6.678302840000129 ], [ -9.918907498999943, 6.678306126000052 ], [ -9.919855287999894, 6.678842175999989 ], [ -9.921238589999973, 6.679628375000107 ], [ -9.922350981999898, 6.680220200000178 ], [ -9.923266892999948, 6.680712424000035 ], [ -9.924675272999934, 6.681413276000114 ], [ -9.925370313999963, 6.681759775000103 ], [ -9.925371443999893, 6.681759710000165 ], [ -9.925371918999929, 6.681759947000103 ], [ -9.925421649999976, 6.681756840000105 ], [ -9.926257946999954, 6.681709025000146 ], [ -9.930107040999928, 6.681468633000179 ], [ -9.93198517899998, 6.681685949000041 ], [ -9.932584514999917, 6.681309345000102 ], [ -9.933133007999913, 6.681274967000093 ], [ -9.933133251999948, 6.681274804 ], [ -9.933133943999906, 6.681274761000111 ], [ -9.933206959999836, 6.681225469000083 ], [ -9.940143648999936, 6.676582599000028 ], [ -9.941679589999978, 6.675554767000051 ], [ -9.942355940999903, 6.675325091000047 ], [ -9.952448083999968, 6.672818922999966 ], [ -9.952841010999975, 6.672805162000031 ], [ -9.956312611999977, 6.672682554000176 ], [ -9.957435788999931, 6.67356168200007 ], [ -9.958285291999971, 6.673701358000073 ], [ -9.961973837999949, 6.67711255800009 ], [ -9.963707958999919, 6.67871632400005 ], [ -9.968181945999902, 6.682853471000158 ], [ -9.974590194999962, 6.684233163000101 ], [ -9.977695221999909, 6.685269419000065 ], [ -9.978359697999906, 6.685044805000132 ], [ -9.979005955999924, 6.685183714000118 ], [ -9.990593040999954, 6.680904973000054 ], [ -9.990971733999913, 6.680701269000053 ], [ -9.999115743999823, 6.676358039999968 ], [ -9.999494149999975, 6.676156027000047 ], [ -10.005631685999901, 6.679282061000094 ], [ -10.006867084999897, 6.679836353000098 ], [ -10.009456222999972, 6.68005943300011 ], [ -10.014865222999958, 6.680525426000031 ], [ -10.022012451999899, 6.682309407999981 ], [ -10.028690949999941, 6.687990242000183 ], [ -10.029286790999947, 6.688079442000117 ], [ -10.03511030999988, 6.688949077000018 ], [ -10.036266083999919, 6.68858768500013 ], [ -10.040159144999905, 6.687370882000096 ], [ -10.04192683499997, 6.686818247000133 ], [ -10.043995466999888, 6.685405163999974 ], [ -10.044419338999944, 6.68518832500007 ], [ -10.044723633999922, 6.684974 ], [ -10.047798464999971, 6.682808066000064 ], [ -10.049508249999917, 6.682291142999986 ], [ -10.05163469699994, 6.681098939000094 ], [ -10.053855299999896, 6.680977178000091 ], [ -10.054850029999955, 6.680676577000156 ], [ -10.055730020999931, 6.680657168000096 ], [ -10.056089140999973, 6.679779639 ], [ -10.056087417999947, 6.678976370999976 ], [ -10.056323887999952, 6.678381183000113 ], [ -10.05661612199998, 6.678445470000042 ], [ -10.057408733999921, 6.676184698000043 ], [ -10.059148806999929, 6.67394667700006 ], [ -10.060228183999982, 6.6726004840001 ], [ -10.060352009999917, 6.672603755000125 ], [ -10.063902008999946, 6.672729201000038 ], [ -10.066331145999925, 6.672769776999985 ], [ -10.067060095999921, 6.673671744000103 ], [ -10.067071766999902, 6.673686266000061 ], [ -10.068980686999964, 6.673454858000127 ], [ -10.06942926399995, 6.673453885000129 ], [ -10.070439331999921, 6.673449457000117 ], [ -10.073289548999924, 6.673443262000035 ], [ -10.074414643999944, 6.673443046000045 ], [ -10.075103108999883, 6.673194961000036 ], [ -10.078203912999868, 6.672084518000077 ], [ -10.078905149999969, 6.671836552000173 ], [ -10.078904112999965, 6.671833766000077 ], [ -10.078739028999905, 6.671390129000088 ], [ -10.078741430999912, 6.671390037000094 ], [ -10.078780607999875, 6.671388536000052 ], [ -10.079264443999932, 6.671420705000116 ], [ -10.079619271999888, 6.671447214000068 ], [ -10.080148188999885, 6.671496070000046 ], [ -10.080185425999957, 6.671489511000118 ], [ -10.080976926999881, 6.67135009500015 ], [ -10.081491979999953, 6.671265836000032 ], [ -10.082271559999981, 6.671138302000088 ], [ -10.082282052999972, 6.671136211000032 ], [ -10.086491825999929, 6.674297291000073 ], [ -10.088618419999932, 6.677003531000025 ], [ -10.088722341999926, 6.677135779000139 ], [ -10.089366970999947, 6.678306562000103 ], [ -10.089865585999917, 6.679212151000172 ], [ -10.0906929329999, 6.679699868000114 ], [ -10.091122706999954, 6.679974758000071 ], [ -10.092797817999895, 6.682474912000032 ], [ -10.093687916999897, 6.683856447000039 ], [ -10.094142352999938, 6.684359027000028 ], [ -10.094581241999947, 6.684844411000029 ], [ -10.096321374999945, 6.688156869000011 ], [ -10.096595113999911, 6.689771215 ], [ -10.096722942999918, 6.690525068000113 ], [ -10.098350195999842, 6.690575616000046 ], [ -10.101338012999975, 6.690568935000101 ], [ -10.103133132999972, 6.690564911000138 ], [ -10.103581770999881, 6.690563905000033 ], [ -10.104614562999927, 6.690607939000131 ], [ -10.105071161999945, 6.690627263000124 ], [ -10.114262937999911, 6.691950749000057 ], [ -10.1147049409999, 6.691890958000158 ], [ -10.116390201999877, 6.696043036000162 ], [ -10.11966864599998, 6.696779478000167 ], [ -10.117306429999928, 6.698155645999975 ], [ -10.118043023999974, 6.699467103000075 ], [ -10.12204582399994, 6.701339206000171 ], [ -10.123079647999873, 6.701579344000095 ], [ -10.124262857999895, 6.701253866 ], [ -10.125739275999933, 6.701196782000068 ], [ -10.129530009999939, 6.702667960000156 ], [ -10.130806319999976, 6.701770762000137 ], [ -10.133725857999934, 6.700093652000135 ], [ -10.134998605999897, 6.700108236000062 ], [ -10.135446696999963, 6.700113418000171 ], [ -10.137447447999932, 6.699540126000159 ], [ -10.139000327999895, 6.700154933000135 ], [ -10.141504804999897, 6.701146255000083 ], [ -10.146679601999949, 6.703195169000139 ], [ -10.14757000599991, 6.703514161000044 ], [ -10.156981492999876, 6.698166689000118 ], [ -10.158375297999896, 6.697374857000113 ], [ -10.161201679999976, 6.695696128000066 ], [ -10.16357017699994, 6.693343542000093 ], [ -10.169002457999909, 6.694791864000024 ], [ -10.174853577999954, 6.696656849000078 ], [ -10.175186194999981, 6.697317977000068 ], [ -10.17632238199991, 6.699576311000044 ], [ -10.175826618999906, 6.701027963000058 ], [ -10.175613826999893, 6.70165082799997 ], [ -10.175229226999875, 6.702776057000108 ], [ -10.171864369999923, 6.706720033000124 ], [ -10.173463603999892, 6.712152915000047 ], [ -10.173797310999873, 6.713145849000114 ], [ -10.174905787999933, 6.716444330000115 ], [ -10.175595710999914, 6.718496840000114 ], [ -10.17544109999983, 6.720039814000074 ], [ -10.175063865999959, 6.721409786000095 ], [ -10.17512654799998, 6.72337788100009 ], [ -10.174732953999921, 6.726412026000048 ], [ -10.174670224999886, 6.726896607000128 ], [ -10.174618595999902, 6.727294111000163 ], [ -10.174501232999944, 6.727631290000033 ], [ -10.174162014999979, 6.729176402000178 ], [ -10.172255879999966, 6.737505041000134 ], [ -10.171823557999915, 6.739252176000036 ], [ -10.170996645999878, 6.742802883000081 ], [ -10.168230107999932, 6.746532904999981 ], [ -10.168065529999922, 6.746754882000175 ], [ -10.163426662999882, 6.750453755000024 ], [ -10.161970564999933, 6.751614890000099 ], [ -10.149522536999825, 6.752412602000049 ], [ -10.145697709999979, 6.759950411000091 ], [ -10.145706738999934, 6.763783471000181 ], [ -10.145716897999876, 6.768093613000133 ], [ -10.150404838999975, 6.774839742000097 ], [ -10.150205180999819, 6.781143502000134 ], [ -10.141680025999904, 6.796702845000084 ], [ -10.14064957599993, 6.798583657999984 ], [ -10.139472640999884, 6.800460294 ], [ -10.139115875999948, 6.801092538000091 ], [ -10.134439168999961, 6.809452545 ], [ -10.13064625099986, 6.814795880000077 ], [ -10.121875281999962, 6.827151675000039 ], [ -10.121741731999919, 6.831608581000182 ], [ -10.121590104999882, 6.836678847000144 ], [ -10.12470512699997, 6.854034412000033 ], [ -10.13366818999998, 6.873526949 ], [ -10.136211765999917, 6.87807697400018 ], [ -10.137326230999918, 6.880070849000049 ], [ -10.146792494999886, 6.897003936000146 ], [ -10.148168469999973, 6.896687472999986 ], [ -10.144072193999875, 6.899397013 ], [ -10.13084906499995, 6.900206339000022 ], [ -10.126818083999922, 6.900452723000114 ], [ -10.11260602699997, 6.900148043000172 ], [ -10.078766972999915, 6.899211074000164 ], [ -10.072624190999875, 6.899000307000051 ], [ -10.072413171999926, 6.898993065000184 ], [ -10.051018258999932, 6.89825831100012 ], [ -10.040864693999936, 6.897266442000046 ], [ -10.040395116999889, 6.896966170000042 ], [ -10.036121084999934, 6.89423326800005 ], [ -10.030025863999981, 6.892217642000105 ], [ -10.029438529999879, 6.892257913000151 ], [ -10.024951090999934, 6.892566599000077 ], [ -10.020827286999975, 6.895488921000151 ], [ -10.019207458999972, 6.896636524000144 ], [ -10.01895256399996, 6.900044058000162 ], [ -10.018878598999947, 6.901033469000026 ], [ -10.017953650999971, 6.902310168000099 ], [ -10.016179315999977, 6.90475882200019 ], [ -10.008686666999893, 6.908811461000028 ], [ -10.002997447999917, 6.911888472000157 ], [ -10.00165334299993, 6.916286998000146 ], [ -10.002002310999899, 6.921358613000109 ], [ -10.001297464999936, 6.92712436100004 ], [ -9.999864596999942, 6.927673448000064 ], [ -9.994237091999935, 6.929829402000109 ], [ -9.989227711999945, 6.930840990000149 ], [ -9.987471678999952, 6.931195689000106 ], [ -9.985111261999975, 6.935258826000108 ], [ -9.983092888999977, 6.941011473000117 ], [ -9.978625842999918, 6.944883924000123 ] ] ] ] } }
]
}
