{"type":"FeatureCollection", "features": [
{"type":"Feature","geometry":{"type":"Polygon","coordinates":[[[-5.522539301743557,54.600941243449974],[-5.529704421530939,54.64224148628738],[-5.574801618537901,54.67294707240922],[-5.636550095615681,54.67733875665767],[-5.720649223928985,54.667040253370125],[-5.740991553926741,54.67762496925739],[-5.857719442816886,54.63429053101104],[-5.912820921688025,54.647985392777834],[-5.894154905300377,54.67518211077522],[-5.842289996541347,54.70435900473307],[-5.745889528044391,54.727162853920035],[-5.688843149369828,54.768155996034444],[-5.69164131034321,54.809742506406025],[-5.722407445347375,54.846068489557204],[-5.789632627990836,54.845584907792855],[-5.882754708394287,54.913352026702604],[-5.92995926369275,54.96811933100404],[-5.991612122565138,54.98639671322323],[-5.96317906831311,55.04824283371951],[-6.04237823951385,55.05296473545599],[-6.058094794926975,55.06437066840972],[-6.025893829750597,55.139270578876165],[-6.033725383992924,55.16971999492485],[-6.076423443119624,55.19887502587718],[-6.15312230752186,55.22769101129695],[-6.23676338509044,55.20451890822858],[-6.291525233267327,55.229666729174035],[-6.368554724830746,55.24570688784767],[-6.408270004479096,55.23223486493369],[-6.481834135780749,55.25198363021606],[-6.56299411152617,55.2176266843613],[-6.693283175665856,55.196804883570756],[-6.727258761491393,55.172205005360524],[-6.835218197104549,55.16669047231294],[-6.907133547348263,55.172884577707535],[-6.951780420485261,55.19271016046358],[-6.966734907447364,55.15265184489545],[-7.013220238288593,55.07941695341872],[-7.058321992170135,55.04794759606011],[-7.131528482161927,55.04210663946982],[-7.182545931079606,55.060962714240674],[-7.232844138142845,55.048159804049455],[-7.345035823283692,55.050803703366775],[-7.405517151665882,55.003306254325324],[-7.405187742665237,54.942174353535634],[-7.44739198567157,54.93486214359479],[-7.442048343496743,54.87919587707983],[-7.484256319743991,54.823637749835996],[-7.548917805808594,54.78921969268353],[-7.547503813588854,54.75537175647792],[-7.577537067854118,54.74204179958325],[-7.636561453902186,54.751501125484786],[-7.735226852458631,54.71689402971482],[-7.749888218587238,54.704254105576055],[-7.854211028162263,54.72732921763622],[-7.913808356213436,54.67595127233098],[-7.890893974774206,54.656264645912806],[-7.815981806174898,54.64189159182478],[-7.771787280806428,54.621404110957705],[-7.704598085925348,54.632025543056294],[-7.697528157480327,54.6105779335229],[-7.799540838327852,54.5760279796714],[-7.85045952106104,54.53300303898363],[-7.937506685159787,54.533085973831646],[-8.00591153454649,54.545941120594776],[-8.041702753898594,54.50649148606562],[-8.161835995950552,54.44199886075894],[-8.083947292192404,54.397174332826886],[-8.031273708320288,54.356629414622034],[-8.004893044472952,54.36048583748169],[-7.961607215486756,54.31243384633996],[-7.888143539541165,54.30054058691987],[-7.860519749448546,54.26042345718688],[-7.861472235441921,54.2184811335841],[-7.803481443832474,54.207043025498756],[-7.68848618014142,54.20332116430827],[-7.625268254525067,54.165501645384005],[-7.61037897314851,54.14378248187631],[-7.565694963083394,54.12658603296432],[-7.47238313684358,54.126093882993814],[-7.442306234022119,54.15390276388667],[-7.372558795224311,54.13889240004072],[-7.310137249321568,54.16732372990294],[-7.252432483965608,54.15567834159524],[-7.258962956718892,54.19167535458512],[-7.184841404474047,54.22460458966952],[-7.146969641598838,54.22485988580076],[-7.172871046812404,54.28606648620376],[-7.183531850026378,54.33983449578854],[-7.153829198593065,54.33506463906511],[-7.029148658985129,54.421378000714405],[-6.976676360479665,54.4059976005205],[-6.876755415467613,54.34674682557754],[-6.836486773011549,54.2662704740247],[-6.79432299996352,54.20876908627123],[-6.664695633400007,54.193009649761954],[-6.635682210764895,54.170887827926],[-6.645033293837666,54.09916427153488],[-6.66502659388376,54.066232521620755],[-6.623445017728725,54.03891498538825],[-6.586663270361203,54.057538788380505],[-6.51569534316945,54.052498339350684],[-6.456608169201524,54.07255236382065],[-6.3898281052456,54.06036037554031],[-6.290854293172393,54.1126789002069],[-6.251022322708195,54.09728502516912],[-6.20204881842974,54.09867074663182],[-6.18437087322405,54.07596120089801],[-6.096246805444845,54.063086395618775],[-6.062842012516271,54.022729103472166],[-5.903917768487728,54.099247765713095],[-5.871921906898171,54.16713584351698],[-5.892017906226132,54.206822037737815],[-5.831294163834858,54.24031213136755],[-5.687486382218428,54.25061254800819],[-5.663946377962605,54.226624983029765],[-5.560276065231482,54.286504999964144],[-5.541789011753593,54.319260248392254],[-5.557107652152516,54.37640283331321],[-5.653980972893074,54.38246848598318],[-5.629740682771482,54.43664964825615],[-5.653949358115787,54.473898259654945],[-5.654758759480678,54.51551340834183],[-5.714590731971984,54.539760711441936],[-5.697029310431788,54.571344322615715],[-5.614047526271681,54.55853121140031],[-5.557073710003301,54.52882459777159],[-5.532087764645303,54.46968643632377],[-5.536025221683969,54.4313230738469],[-5.579414210914114,54.40057338943111],[-5.529899934158043,54.34858392687947],[-5.463624993638844,54.38284749366998],[-5.479758019392862,54.42649176128732],[-5.440993184510378,54.45444502424115],[-5.432876750694458,54.487595573358064],[-5.462324203533342,54.496914379933756],[-5.485741040885489,54.54741881058435],[-5.477201909988772,54.5640140357578],[-5.522539301743557,54.600941243449974]]]},"properties":{"geo_code":"N92000002","geo_label":"Northern Ireland","geo_labelw":"Gogledd Iwerddon","label":"N92000002","name":"Northern Ireland"}},
{"type":"Feature","geometry":{"type":"MultiPolygon","coordinates":[[[[-2.037357936693057,55.80978097904854],[-2.081345713634502,55.87619926864864],[-2.121248949061343,55.88341641875721],[-2.13653621170174,55.91628363465499],[-2.211964766044371,55.93122136991088],[-2.259161372102795,55.92454684283931],[-2.327386695362323,55.93194365173789],[-2.376899317244533,55.949513406997546],[-2.442614340239144,55.99043286615839],[-2.55320010187962,56.00481794831393],[-2.62728300550015,56.054231947707194],[-2.773910994227379,56.06790892801589],[-2.81767277712484,56.062714720870254],[-2.898503375346301,56.01504576862237],[-2.919735062272831,55.97691655995678],[-3.022108166981897,55.951535330699535],[-3.092346119443364,55.94974629820572],[-3.181785614918132,55.9915036745345],[-3.263476122104357,55.980780277093],[-3.308437996130249,56.001194014851905],[-3.382233374759444,55.99161993392051],[-3.557473420181064,56.01454776425248],[-3.640228824612783,56.03129848476625],[-3.633681108181546,56.048886209283936],[-3.494031469119161,56.03324662841696],[-3.464463906557779,56.012110369201245],[-3.389631257652466,56.006784757816554],[-3.385518287830489,56.02431101748806],[-3.307763064048924,56.03826547618297],[-3.279751137493727,56.0559476946583],[-3.172364905659363,56.06225300011866],[-3.150793601186686,56.113257826393436],[-3.119833174492433,56.1232669622882],[-2.965604224887668,56.20601077586631],[-2.926511934626348,56.21098562669996],[-2.843832852809865,56.182706496216156],[-2.706312565640406,56.215404368347905],[-2.600305746193515,56.263365076419774],[-2.58317225019674,56.278320801070585],[-2.68791283722183,56.32727312253521],[-2.771805421851338,56.334460797296266],[-2.808464090909444,56.36914335166016],[-2.798731148254308,56.438505217455464],[-2.922855681441124,56.45184909996994],[-2.993513142957598,56.422214447056795],[-3.07616323134113,56.427968673685555],[-2.943327088826952,56.46414207621921],[-2.871564835991452,56.462460868333466],[-2.787839616558756,56.4744886292193],[-2.729786048253696,56.46193319711053],[-2.711755280297953,56.4901917007889],[-2.606074113279857,56.548704464589996],[-2.538834735052989,56.56586921560144],[-2.47867489564857,56.62466774045794],[-2.495251405636293,56.66311634565702],[-2.437874388229683,56.68904463139855],[-2.441202280703735,56.72188348967935],[-2.393158719768887,56.77480869998606],[-2.322021581683797,56.79459135578658],[-2.214791575062375,56.88168726218366],[-2.192501920557789,56.95328262740345],[-2.16053512644197,57.01756560256734],[-2.105639286263243,57.05679738041708],[-2.072259416536625,57.10364614560876],[-2.018113998914228,57.12495668048684],[-2.027062439329943,57.1525410005806],[-2.072263874871378,57.178301329155275],[-2.052909622554129,57.22535736957497],[-1.967386847309043,57.32654196019256],[-1.857200624027003,57.38968702764472],[-1.771578677699139,57.47142030202421],[-1.798657585276879,57.54383057756812],[-1.824166655927005,57.57592597577373],[-1.818447454466412,57.61419924176571],[-1.878500821021444,57.63390521100662],[-1.916012221747676,57.67258808494434],[-2.075289847705436,57.70120650261767],[-2.123354815973128,57.69977814807712],[-2.191667477798192,57.671847784848],[-2.259769593911649,57.67947507707119],[-2.298679737786353,57.69561296839693],[-2.396054606993125,57.66870458362295],[-2.732583458420869,57.68488820382277],[-2.852834235292809,57.70718680290612],[-3.025714971808787,57.66473588887988],[-3.116332649765613,57.676631193483416],[-3.231777717884991,57.702980300750895],[-3.289352574266661,57.72553697664194],[-3.348201121407331,57.72666155411979],[-3.458660223446849,57.704694562667626],[-3.531275277385148,57.66475530537583],[-3.632845771981603,57.66727977920691],[-3.752464592558744,57.6466974699464],[-3.77399359634257,57.627939206847245],[-3.870381085749868,57.59049772896552],[-3.929749660506753,57.58669639437075],[-4.027797958432004,57.603787248501156],[-4.077262785015076,57.583030008033944],[-4.050206032177158,57.55729921798533],[-4.144894281553934,57.51872617165468],[-4.175701449363907,57.49205672324659],[-4.233990575325873,57.500557271847235],[-4.163001342937831,57.56800872564306],[-4.112856741472908,57.57771887949617],[-4.100680617605772,57.607339601048785],[-3.993218139413749,57.67733136849392],[-4.032516646491429,57.684223296263674],[-4.083828908384154,57.666171217877434],[-4.133282561568985,57.66427720978737],[-4.161024973321232,57.68588855797735],[-4.075058005206181,57.7189127139045],[-4.035381610926975,57.69442071567331],[-3.975862704780826,57.6941102298965],[-3.916556769821466,57.74917675295226],[-3.851256942904398,57.78931100737468],[-3.786964321075573,57.841288002448344],[-3.872754210811627,57.82623984800981],[-3.970694791867051,57.853832745601714],[-4.025170661363163,57.83460144892026],[-4.051567223820093,57.85698859719858],[-3.990528632833049,57.90346833268761],[-3.997016650432849,57.936197274512566],[-3.980698857467669,57.969560963437594],[-3.844248688392041,58.00354274895666],[-3.832940195246295,58.03747893277471],[-3.800137787504673,58.057304418158175],[-3.742692241447499,58.068731536110654],[-3.65837751385186,58.11260598628995],[-3.627902523987221,58.118362155866414],[-3.5082889495154,58.17185635336811],[-3.426207261776364,58.244941423827115],[-3.375560864570959,58.271640471198474],[-3.222288709149302,58.30475537556422],[-3.107915238702337,58.37143983825602],[-3.049327021757879,58.45156476164014],[-3.050322650380215,58.47926929645607],[-3.104125660520551,58.47411983369677],[-3.13187752737713,58.50630474112399],[-3.119117533946246,58.53072442728579],[-3.067312737396197,58.56353076109883],[-3.036756709552464,58.632313496790914],[-3.053896461261058,58.64886575022108],[-3.163198100451174,58.63966856485484],[-3.19158773111597,58.660469196854834],[-3.343465184758463,58.64724519665797],[-3.376927948811994,58.67237126750017],[-3.413275509863335,58.63952435715953],[-3.351323327900102,58.614087848669755],[-3.395738993056606,58.60308360488285],[-3.545870361856542,58.623896595252454],[-3.630511278152741,58.61528684088907],[-3.652222428479089,58.622992590152585],[-3.776573632307644,58.57346778744147],[-3.863568729924827,58.56337766977843],[-4.006098863570489,58.5747948025353],[-4.081156284096111,58.554378511258086],[-4.126704055473422,58.56918582250582],[-4.175558932484965,58.5447802917101],[-4.258549295319964,58.527225016758436],[-4.305583162468263,58.54338720573006],[-4.408104015893367,58.52591234600681],[-4.436861361213856,58.556384851842274],[-4.526941444097857,58.58000856777037],[-4.576853161192673,58.58038268643211],[-4.638622219931356,58.52158153675889],[-4.663502369708271,58.48342242415748],[-4.711928327904415,58.49585424812643],[-4.651510672895873,58.53417406008437],[-4.770239242970606,58.58459712627074],[-4.836908018825802,58.60132474087425],[-4.996999289292551,58.62692197502458],[-5.048728254257969,58.546526286358585],[-5.092089415434846,58.537714757058005],[-5.126199253874861,58.48893672074957],[-5.061725424165694,58.4521769421695],[-5.145815092394603,58.41121942378178],[-5.14500661564304,58.38612394167406],[-5.183738121844168,58.35258158878339],[-5.139161662679951,58.3108719886094],[-5.129838842808694,58.267821873792286],[-5.203567068673813,58.246700964726045],[-5.239530616480616,58.260358106245356],[-5.309307821365574,58.22611641112765],[-5.340986118284522,58.25069179403886],[-5.403106413163393,58.23753598843038],[-5.362269180741888,58.21735935415299],[-5.309827421362484,58.15527577905798],[-5.264389975422519,58.14762188312296],[-5.299879976858338,58.1155408055379],[-5.277713604486699,58.09676192594266],[-5.299945968872883,58.06590865930801],[-5.36749934520917,58.077164341031775],[-5.437820837713101,58.10457824528268],[-5.458609003127688,58.07467070743338],[-5.424308978457518,58.03765240732647],[-5.351042688874808,58.0204302461481],[-5.308277152768362,57.98818751834956],[-5.194328059170408,57.957236616876486],[-5.183440863814379,57.94029994686668],[-5.240522218628148,57.917435296815896],[-5.314919191550358,57.91086573032058],[-5.324374533500611,57.865525568604696],[-5.397049505372544,57.90473468066769],[-5.42468941317588,57.90772645454514],[-5.45562691206916,57.85748358907395],[-5.533465977472589,57.86815038191968],[-5.551668339815959,57.91283198635405],[-5.609968351863699,57.92507276954689],[-5.656279799071585,57.88859613505591],[-5.642419442322164,57.86078925523883],[-5.582603549427699,57.835876684079864],[-5.621936114214283,57.790140448691716],[-5.70430431954218,57.86974321036765],[-5.812190636667137,57.86016518163439],[-5.802290124947723,57.79354991354276],[-5.813443232258584,57.75050394053209],[-5.760107630026216,57.731191504186576],[-5.738135610529508,57.708415774882155],[-5.790558272006738,57.69637841910275],[-5.819656635648635,57.64244010820469],[-5.771855251561241,57.63210824419967],[-5.727818815396808,57.58551042158361],[-5.651380673196046,57.55224365033104],[-5.598791011399348,57.55634997093866],[-5.562281375190977,57.536533829569706],[-5.650155708921659,57.52624007061955],[-5.742722787738562,57.54397347757459],[-5.812263069616503,57.58614747215584],[-5.838741235219621,57.57887562424029],[-5.870957869344185,57.50351632330641],[-5.860766971141578,57.44796703496893],[-5.826766900308449,57.440284144655706],[-5.811387597090977,57.40560618353249],[-5.823683163603718,57.36246606338805],[-5.787100784418113,57.346019521034926],[-5.722687691397561,57.357468055114374],[-5.688604757452386,57.377987933899206],[-5.639589797236972,57.376332894662326],[-5.615189416002067,57.33863068786991],[-5.686930768651749,57.34064273354657],[-5.727586195673703,57.30564503143802],[-5.726243842479859,57.27950106437572],[-5.633177809335725,57.28219616655197],[-5.594494247123187,57.27112897021191],[-5.656468407827815,57.23404984893588],[-5.627763677308062,57.2129556828323],[-5.698733443583545,57.16743063719496],[-5.655456010246358,57.12713799285014],[-5.722341908783431,57.118420298544024],[-5.744633760781269,57.092289108263365],[-5.797191175180937,57.063107554467805],[-5.749399735495956,57.02938121595592],[-5.706141981165145,57.04076196275385],[-5.662706586242702,56.994810559258006],[-5.708537331811641,56.99146755891261],[-5.726975417782191,57.01833836875553],[-5.820662016726865,57.01245770056289],[-5.875467096949578,56.92681031506497],[-5.887267740882701,56.87397688501208],[-5.77768021801408,56.893407060865066],[-5.763984627083635,56.84771404877157],[-5.861489745844888,56.82922149012371],[-5.88580331396682,56.797192548695726],[-5.884795954145098,56.766894666297766],[-5.914261420144433,56.75315846208873],[-5.981320263977049,56.76943435081424],[-6.100431463930851,56.765528049176396],[-6.192141396354041,56.75350287570293],[-6.226931557844462,56.72799501566935],[-6.189621606689984,56.688549777725946],[-6.051217400992753,56.69227242233285],[-6.031377371089787,56.6802873135306],[-5.839542315657628,56.673908927207336],[-5.844671923787203,56.659669612596375],[-5.941610230360544,56.66915529772837],[-6.00508483740255,56.649641265384695],[-6.001821964290731,56.62026957225862],[-5.923902228247682,56.56096197244492],[-5.679492683968355,56.500154747723016],[-5.559691334707515,56.54493601503345],[-5.49184819849726,56.606715119644214],[-5.433517730383778,56.642607110031754],[-5.406414545504166,56.642588585942974],[-5.308044093266081,56.7078929684746],[-5.275407735111653,56.71062501540812],[-5.231394426725296,56.758367428329194],[-5.162988717270268,56.78218651455702],[-5.248523143344213,56.70533268618005],[-5.248559246153104,56.672705922797206],[-5.316839271559695,56.65409464069279],[-5.299963047039477,56.637832067195596],[-5.364449169273199,56.59690362084555],[-5.417655611799357,56.55186049751414],[-5.438149456942716,56.519479383322235],[-5.392222223102014,56.45693850387827],[-5.44667001653352,56.45266135798157],[-5.484560703206791,56.43400775168073],[-5.47746782641869,56.41089308773303],[-5.530053929115114,56.37990456251915],[-5.539711749001263,56.3500601277316],[-5.577649252363151,56.3334779319098],[-5.599217207516557,56.254303844576654],[-5.549661210769036,56.238563785075996],[-5.548723272259604,56.21394679919841],[-5.601259844959768,56.16279617066519],[-5.517378891332905,56.16871240941685],[-5.584361199937724,56.092235941234854],[-5.70788884547783,55.96433552669466],[-5.662989897882454,55.95154375573945],[-5.689036257703857,55.91065975143838],[-5.643948551209506,55.903912667825665],[-5.627932003208108,55.88196187271571],[-5.663263196237923,55.847470145102186],[-5.664927226187424,55.799055051989576],[-5.610210127243033,55.774007554033325],[-5.568055624827189,55.76866753974446],[-5.637356032317775,55.69712902370566],[-5.668075874912994,55.6850820248321],[-5.673465788570981,55.632449682297505],[-5.693422610075789,55.5875847974996],[-5.715291085118582,55.579327573842384],[-5.721599312708229,55.432102310604364],[-5.79163309800919,55.39602473007193],[-5.804186701428615,55.347745268100084],[-5.799985670541347,55.2996407250768],[-5.730005868186647,55.290762971165506],[-5.688958787338049,55.30730244937536],[-5.59688352751549,55.30919328421677],[-5.518356378091402,55.36099929451777],[-5.527838087683423,55.39612533350424],[-5.576974375342136,55.426043605754856],[-5.512687925008917,55.48612542016534],[-5.475469235051307,55.60566881286077],[-5.475825256945702,55.633000695426894],[-5.449362048865199,55.70595506441665],[-5.392745529901163,55.75069404115299],[-5.313972414968956,55.78371926722429],[-5.419559328333794,55.896619501750884],[-5.42866259422529,55.946781068760984],[-5.449642899523259,55.97143163689824],[-5.449824748520063,56.00561101581637],[-5.38056715975343,56.00481453320878],[-5.297564685072743,56.06472255341134],[-5.254213927849298,56.11395648602041],[-5.193293392364343,56.149115101641065],[-5.117054256590668,56.17106711063953],[-5.100597422714453,56.15700311605108],[-5.210421603522891,56.12230106363858],[-5.220303518834053,56.095941530293125],[-5.284484665617808,56.05520062826983],[-5.301850602461906,56.023907773233894],[-5.3421469440974,55.995726504615945],[-5.352979864943718,55.89819209528262],[-5.317784556825223,55.85707652141394],[-5.201433781698947,55.84003778597512],[-5.239193194316022,55.901892382797925],[-5.207114367314744,55.91606054142072],[-5.190270440524469,55.947100739972996],[-5.112238679742251,55.9013413034288],[-5.073019097147031,55.90608051885099],[-5.034659201323501,55.866972556292865],[-4.980366660907152,55.86041261131285],[-4.894249994488892,55.998407737777136],[-4.911222249029761,56.04984125266493],[-4.868330333877614,56.03828051282843],[-4.852245996942623,55.98870852192252],[-4.803260976307918,55.98195416678373],[-4.709589123590598,55.992635782266646],[-4.696896380476328,55.95279829659166],[-4.795893036059901,55.97214871782524],[-4.804472971970484,55.95907749544153],[-4.878932799043191,55.94269008953533],[-4.889735803264037,55.881707415446975],[-4.88846166590463,55.81862155538952],[-4.857574429425255,55.756930135101435],[-4.904869326533573,55.73029309193188],[-4.905601794497325,55.698829930888955],[-4.863633838833717,55.68243707419391],[-4.820388384508817,55.644859077803055],[-4.712372178072416,55.61226874626355],[-4.662047606414951,55.56856033824067],[-4.671278881148044,55.5490660728609],[-4.626556252967442,55.50855400566653],[-4.62945446604913,55.478654015938076],[-4.661839109739383,55.44321587870865],[-4.713295690291996,55.43375035241149],[-4.770694961711317,55.4002149334424],[-4.775952521175589,55.362691747320355],[-4.849205320590905,55.32290073742677],[-4.838562317920625,55.27806748880536],[-4.866337566956017,55.221847265997084],[-4.915372491445129,55.19403421966633],[-4.943190677447237,55.16407918959751],[-4.991748304223619,55.14393167242506],[-5.0165761975513,55.08666408738507],[-5.060874644258489,55.027944343614045],[-4.995866003447954,54.934703846341655],[-5.027425913152268,54.906229629300874],[-5.063840577787775,54.92840333167982],[-5.075123135000156,54.995883884035976],[-5.113087193471905,55.01767136725305],[-5.172678876312207,54.9963451503316],[-5.186031718719334,54.97746368041063],[-5.185696695736792,54.91643404710785],[-5.148936702336269,54.862161222073674],[-5.103327526695777,54.82911493298326],[-5.053968146136786,54.80931950156658],[-5.001716817890324,54.77177384928014],[-4.992568962473725,54.73484368656212],[-4.949265888007977,54.69969769369392],[-4.964592183268982,54.663871366860114],[-4.92236113659462,54.64310497122331],[-4.881778458642735,54.65674061290238],[-4.865027344784085,54.6838551936822],[-4.895203678114128,54.695439618571555],[-4.951220574942172,54.80155687366955],[-4.910795137035329,54.830784258871994],[-4.837910351812434,54.85314247410196],[-4.781156910359772,54.83207437467783],[-4.709466462379234,54.82212885537832],[-4.671705381144434,54.79855271662448],[-4.600324317059268,54.772852095214795],[-4.574957138440408,54.736578466898656],[-4.522947524095478,54.711510744125675],[-4.408307757871734,54.67807802265624],[-4.362333207433715,54.692017553689944],[-4.365991946170383,54.7285836641852],[-4.346391149980368,54.80848458282436],[-4.370975467396288,54.83411915250855],[-4.331760465525972,54.84938770674192],[-4.226203639239907,54.82525239159808],[-4.159126945420214,54.77933621469834],[-4.090791403742043,54.76619880726547],[-3.966893784081627,54.7705315766444],[-3.937812289188785,54.787555855446215],[-3.835376353333144,54.816392837838706],[-3.819031883690753,54.83546383726399],[-3.690982432995733,54.85421805837386],[-3.628443790852144,54.84627369319023],[-3.514440632648168,54.920287869052565],[-3.413071653289812,54.92241011629752],[-3.381038085884533,54.94951051261589],[-3.262872118745213,54.95994905390249],[-3.253719148997873,54.96016964034988],[-3.244748917466093,54.96074714026808],[-3.243892692269671,54.960836788995785],[-3.232361712502591,54.96170017450929],[-3.202473589367515,54.963455323583794],[-3.17831911863719,54.95894239378149],[-3.172767170554053,54.95840837206536],[-3.17003498716667,54.95709389119195],[-3.158753819826573,54.952277266099586],[-3.157836628192993,54.95160481547389],[-3.157310848408013,54.95123957130836],[-3.154816557080672,54.95001864129147],[-3.153527065206444,54.94969927943083],[-3.152680804886916,54.94959048292142],[-3.150150523766966,54.949560536926256],[-3.149246840555494,54.94962749926158],[-3.14551086165849,54.95057402326392],[-3.144267498682104,54.95132624134749],[-3.142769416249118,54.95300827070465],[-3.142244701948318,54.95377707379122],[-3.141372391069778,54.954954439891246],[-3.133799159562614,54.96190014623045],[-3.128602884106197,54.965686966714955],[-3.126578951792025,54.96731974991333],[-3.12295246984997,54.97142785869813],[-3.122586909571609,54.97176374130063],[-3.121568706272233,54.97250555186873],[-3.120364643670219,54.9730261976581],[-3.113220885249123,54.97287614763633],[-3.110276575580045,54.97289678442963],[-3.099635531393234,54.97196632913001],[-3.095831377869986,54.971387781654556],[-3.077824446711347,54.96779230280395],[-3.077168921794528,54.96781249041075],[-3.07342618712406,54.968631023510014],[-3.071725148451972,54.96957255337816],[-3.071381487101796,54.97338682436945],[-3.073054415519769,54.976071662631455],[-3.073197804517163,54.97676146989675],[-3.073120977391558,54.97768867053696],[-3.072984154454131,54.97870986144526],[-3.072779952024461,54.97925535473948],[-3.072641513854508,54.97963042010563],[-3.072184519098477,54.98065802830598],[-3.070381900511117,54.982793856134],[-3.069951847039087,54.98307532784181],[-3.069213005519163,54.98349790751429],[-3.069135893293121,54.98353632932375],[-3.068301005222366,54.98387347588282],[-3.064800500318283,54.98534562691182],[-3.06352032830243,54.985689332931],[-3.063294731569813,54.98572725192161],[-3.062453981908589,54.98584603345181],[-3.04506203064268,55.00605122006499],[-3.044928671838746,55.00753694930127],[-3.044898831869576,55.00759202382438],[-3.048909148196907,55.00698056419342],[-3.049620366215688,55.00757113688705],[-3.049450531660895,55.00944989759893],[-3.047731806768322,55.01010006695933],[-3.047840009222524,55.01035165731561],[-3.047804486963039,55.01048855919737],[-3.045276569068027,55.012495444758585],[-3.045302639054893,55.01259587021156],[-3.044212649809259,55.01337717952668],[-3.043914467728428,55.01333660384074],[-3.042014084936354,55.0142281920858],[-3.042648235774249,55.01455975315102],[-3.04089144525182,55.01888385382141],[-3.041761066957614,55.02015070033791],[-3.041537981287028,55.02029369970406],[-3.039733868023121,55.02038731890148],[-3.039722319643977,55.020847528601486],[-3.040428719950659,55.0212476795375],[-3.040396120571023,55.02210257849932],[-3.039109573341835,55.02285766231064],[-3.039007271908023,55.022833373959344],[-3.034619474621746,55.02282494633149],[-3.034395909219473,55.02295086186229],[-3.034283270515148,55.023132449022505],[-3.030967315514395,55.024357605613105],[-3.030140782703035,55.033906504889295],[-3.028808264240644,55.03411099149208],[-3.026121394957604,55.035197687315375],[-3.02935221162662,55.03732355759228],[-3.029717791523004,55.037545126110636],[-3.032648623569747,55.0398567717923],[-3.034035326701782,55.03901553888363],[-3.036811310426735,55.04046839520025],[-3.03865059239084,55.04139629091192],[-3.038954266066777,55.041338880550924],[-3.03955844574467,55.04110186804685],[-3.039547349004039,55.042183939998445],[-3.038351052809465,55.043730852088984],[-3.039895688416544,55.0447565043677],[-3.043801480021038,55.045396154097055],[-3.043546015251599,55.046405735976904],[-3.044432940643778,55.04740911194465],[-3.045509029108852,55.04726057981399],[-3.049409131560447,55.04856780024416],[-3.052933848213464,55.04719116798219],[-3.05299613344939,55.04717894648711],[-3.053282588815041,55.04974482278934],[-3.052976800548734,55.05002155873588],[-3.051052177421391,55.05273596676042],[-3.050928717537935,55.0528035336377],[-3.040223438633505,55.05528953128288],[-3.019033722940641,55.0546249743922],[-3.009386886959525,55.053541623705925],[-3.007189436895251,55.05330641269476],[-2.966889572592064,55.05008447337585],[-2.962716412725019,55.04968349757437],[-2.960106765340631,55.04953515957117],[-2.958335770432682,55.04976658426778],[-2.9567030964749,55.05317449790827],[-2.956348947378774,55.05374971553503],[-2.940861746428842,55.05885154950412],[-2.93776804685047,55.05911445436458],[-2.937306176731084,55.059113517683535],[-2.936381458709039,55.05974069219752],[-2.938131152227476,55.06091791693884],[-2.943133913690227,55.06460232131222],[-2.919552127108464,55.07344821637708],[-2.916914420282736,55.075558323886],[-2.916572584502527,55.07636337568469],[-2.917214672436161,55.07772985492864],[-2.917266996128137,55.07796310526771],[-2.917107881963603,55.07819704921475],[-2.912433780008033,55.078946566922355],[-2.910883712637482,55.07724987001211],[-2.90577572946107,55.07751352071943],[-2.895675829427802,55.08009090290962],[-2.890420145385603,55.088185652197446],[-2.889994522474312,55.087715185284765],[-2.889787096411286,55.08754596116928],[-2.889764991802013,55.087255865416495],[-2.88875116226945,55.087106006953775],[-2.884472640877508,55.088458134564014],[-2.884559193173349,55.08847547861181],[-2.882315397633382,55.09294894777001],[-2.876903110415913,55.09515821550908],[-2.871826399736084,55.102734131089946],[-2.871655086563466,55.10314423175235],[-2.862483498848342,55.107738581695145],[-2.851821270159805,55.10868076952355],[-2.851622971440811,55.108938263272584],[-2.850495711099533,55.110846724839064],[-2.850387522910188,55.11091936989747],[-2.850116001500897,55.1110515652316],[-2.846819125733073,55.11155978377097],[-2.84481691490351,55.11250825219147],[-2.843667441013734,55.11673075248478],[-2.83991124517196,55.11741719150762],[-2.838154958001879,55.117028503795765],[-2.837930559372397,55.11754315819357],[-2.827864540613009,55.12775286063401],[-2.829578788207905,55.12874315594195],[-2.830792167494709,55.12977728152474],[-2.831231426382141,55.130160690040604],[-2.827441568429513,55.13611282724099],[-2.817513824186157,55.13771194773769],[-2.809093547701211,55.13709956283939],[-2.806743196186136,55.13722656701375],[-2.803241534547664,55.13821569003303],[-2.803000230706012,55.13830714016663],[-2.795003352314956,55.13965353522637],[-2.794080524965908,55.139789846194354],[-2.792857980818977,55.140238117437384],[-2.791348122224829,55.14004214596589],[-2.788503996958927,55.14178948252121],[-2.78440786905908,55.14210794731585],[-2.784111370436435,55.14258791029938],[-2.784123620621745,55.14281248190946],[-2.77990054510547,55.14627941105373],[-2.769371133411419,55.15067306352985],[-2.766128939334458,55.150981026720444],[-2.763280857424267,55.153029715470524],[-2.760566814907906,55.1538913528855],[-2.760450691077245,55.15397384935125],[-2.760433333802562,55.15471080704609],[-2.753477802474701,55.15660059425122],[-2.752842691567785,55.15662608273512],[-2.752271785295835,55.156727552583014],[-2.75076784050886,55.15728586255774],[-2.749151996101477,55.15731916281363],[-2.748432043991126,55.15826171763222],[-2.745946618656205,55.15837489233796],[-2.745312060794426,55.160113964448094],[-2.74411965869479,55.15971507977511],[-2.737277522389558,55.163159626169374],[-2.735061300066056,55.16555159202525],[-2.724664759934684,55.168734714365115],[-2.724383686043561,55.16881726040408],[-2.72425966005556,55.16890336543403],[-2.723423707571419,55.169119504422184],[-2.723322328919957,55.16915605061148],[-2.72322887987122,55.16919704268987],[-2.720383649057403,55.169857301486644],[-2.714670381309272,55.17167379078056],[-2.711792699079645,55.171852389289484],[-2.708526763250089,55.17227130988814],[-2.70499237982003,55.172606329084275],[-2.701064783760205,55.175587213045084],[-2.693108564749598,55.18577980528172],[-2.69304589110152,55.185788249291775],[-2.691900681930459,55.186767050238856],[-2.690369911703792,55.18815868823621],[-2.688974253680039,55.189194593351196],[-2.688277866255142,55.18934230636283],[-2.687310922452269,55.18974045558618],[-2.685700295498114,55.19198525949527],[-2.685600108261275,55.19255374114407],[-2.684911333021109,55.192691507100434],[-2.686094154141793,55.19388089403195],[-2.683990208384382,55.19576990602869],[-2.683489333504109,55.196334343582706],[-2.683450587461048,55.19636511341411],[-2.6830352249859,55.19641956128589],[-2.682319321335613,55.19681266715151],[-2.682727569258359,55.20001479907813],[-2.683307597801604,55.201775504685365],[-2.668391460545644,55.22016808261056],[-2.647748923987385,55.21992093077348],[-2.635300576361153,55.22835144317758],[-2.634111778396061,55.23120347443282],[-2.634405478064776,55.23187499339461],[-2.63331310896552,55.234868495033695],[-2.632940688611866,55.23963657395746],[-2.63065602437306,55.24333623061011],[-2.630062732290286,55.24410938886314],[-2.627121642903333,55.245611711989675],[-2.625099594182376,55.24605431262163],[-2.624847178445412,55.24600618326594],[-2.624356760553752,55.2463276942902],[-2.62427879816219,55.246371225686126],[-2.617467352571495,55.246825536191785],[-2.617296017069153,55.2469342343915],[-2.616014345740001,55.246441994799326],[-2.620129590331082,55.27385325099316],[-2.613404742116769,55.279212256056475],[-2.612054161341757,55.2799334114072],[-2.607716443050467,55.28400680215697],[-2.590796333079795,55.29119857328394],[-2.57530349673298,55.29622556005446],[-2.560696692406537,55.30851239258332],[-2.56022639871131,55.30867629578202],[-2.557094624866171,55.31171254210835],[-2.559210739818016,55.31542476904814],[-2.559320168928854,55.315922977347725],[-2.558290249609147,55.31775629416525],[-2.529581749549657,55.322557687049006],[-2.522385114783875,55.3223559676252],[-2.509258859356797,55.33164694633123],[-2.500534180159073,55.34101913295996],[-2.481476062549232,55.35363959225756],[-2.427604315777714,55.35758260594895],[-2.424074501163106,55.358629153616256],[-2.423932642987987,55.35863863194903],[-2.419883092603243,55.359033615309684],[-2.401206808857504,55.35352539340131],[-2.399758236821572,55.349850551383504],[-2.399616004797575,55.34825517295058],[-2.399505280614553,55.34822138989374],[-2.391553013615022,55.347752037809066],[-2.360506680916208,55.35932313205653],[-2.351281859301587,55.36318593410899],[-2.350362648492096,55.36359651812069],[-2.340915150996323,55.36564591559227],[-2.336475692418437,55.37790099466412],[-2.332540816054775,55.38195533391821],[-2.311139006433197,55.409988161905574],[-2.306687064441478,55.41124840224912],[-2.281451869508987,55.42511173043358],[-2.278710392082921,55.42619986430185],[-2.262267630473439,55.42935870995033],[-2.259309025030421,55.43240210630783],[-2.204078297685541,55.43836085513395],[-2.197131141762252,55.442936858423074],[-2.182806604781408,55.46437044453218],[-2.167081657000415,55.46890452353022],[-2.174507114569993,55.472331043241155],[-2.184161248946605,55.47337264847297],[-2.192986688755453,55.47468437094107],[-2.194625977418108,55.4750861129333],[-2.205712419224979,55.48056699483049],[-2.206321671399785,55.482102463777416],[-2.205972619422984,55.49252600056505],[-2.223873603432709,55.50666432140217],[-2.227735018354138,55.51460017760694],[-2.226231100647477,55.520196300424736],[-2.232537600089076,55.543541686910466],[-2.232858034830595,55.545472907305516],[-2.235173059057121,55.548334777917916],[-2.239376995219874,55.55159276673213],[-2.240734916480695,55.55592548200358],[-2.248024986367939,55.55688583171769],[-2.249738881372019,55.55842331671806],[-2.260286941795415,55.565293029448405],[-2.264618582620324,55.566919058420154],[-2.27317286595921,55.572587933456],[-2.27559352778944,55.57516576504467],[-2.29231919184748,55.58603504229194],[-2.28784793109697,55.59286538182437],[-2.288188187074382,55.600313284653595],[-2.293885532897409,55.604555120589154],[-2.317828019661289,55.628094906673084],[-2.332214977768718,55.62978997558175],[-2.335119945386276,55.6333410882662],[-2.334930906775391,55.63445486506115],[-2.331806551802238,55.63502044340404],[-2.325897241848226,55.6407113166952],[-2.317544618598301,55.64312688771117],[-2.312745728579652,55.645003654130555],[-2.297992504639929,55.64694080047021],[-2.268390873839841,55.643329880938396],[-2.256753594356111,55.64457142748037],[-2.254510973071754,55.64419514176716],[-2.252083422510573,55.64346608014323],[-2.234169097104598,55.64590698194489],[-2.248237465065248,55.65206551196166],[-2.248040308485343,55.6522995241002],[-2.219704766219822,55.6732034308618],[-2.213596103934801,55.67842099795113],[-2.208429854124017,55.68172644786774],[-2.207894633627751,55.6842530245828],[-2.187988787357986,55.69700322345859],[-2.171859096498946,55.70468195389386],[-2.167782527380063,55.7058151868949],[-2.166899410175141,55.70768525314786],[-2.168502924196032,55.70866781745789],[-2.176963570070567,55.71626983677031],[-2.176037768107135,55.719225455808335],[-2.16019037921416,55.72286186071666],[-2.147898869741295,55.7371698050039],[-2.145881546797519,55.738561305803564],[-2.144434682916333,55.73920814253174],[-2.142469839699506,55.739765714340116],[-2.140647749278232,55.74017573663605],[-2.135663357486096,55.74034847037567],[-2.125460504760618,55.73727387073891],[-2.122307781375324,55.73742980018076],[-2.118862113820748,55.73814570050529],[-2.117314893254043,55.7399900198864],[-2.114893966827335,55.74808871382277],[-2.113827464107718,55.748359258337125],[-2.106444554474812,55.748563556329785],[-2.105978198470078,55.749883858182365],[-2.106525879044698,55.75210447732533],[-2.106862154191326,55.75273313516368],[-2.108676889690494,55.755073032713234],[-2.104487048527299,55.76119365642515],[-2.102035025282566,55.76194955967344],[-2.096228449523102,55.76270179988606],[-2.086147928529269,55.76214143848869],[-2.085671144536455,55.76272489763115],[-2.086001788103721,55.76452705356898],[-2.085614024620472,55.76575018028746],[-2.088545829413593,55.78668219996312],[-2.086222696465826,55.792577092975506],[-2.08601624549026,55.79297796736198],[-2.081321293929023,55.793816769062204],[-2.076649687790221,55.79446130137053],[-2.073542859057841,55.79615686725892],[-2.073415437973698,55.79625038711459],[-2.054970934107458,55.80278402303008],[-2.038841209997025,55.809183914526514],[-2.037357936693057,55.80978097904854]]],[[[-6.743104460321503,58.20787492733715],[-6.757923200199524,58.18780537334083],[-6.827963344826914,58.204672548737165],[-6.891942413493624,58.1855877350883],[-6.951023055805337,58.227330788456634],[-7.048219806907747,58.23284406663808],[-7.065194721360289,58.19556982051147],[-7.136957328894684,58.12227898609912],[-7.110675399230902,58.10984176278709],[-7.099716899449602,58.06920845903735],[-7.065837906488058,58.0599066572716],[-7.054290977053037,58.01113856658246],[-7.093177261122237,58.0099393389708],[-7.076290509416414,57.96590850664834],[-6.987385772536686,57.95668302063691],[-6.861225513585895,57.929310787424164],[-6.918348663774444,57.910983810672526],[-7.055209886176899,57.8258300394746],[-7.134052639189972,57.8372921679723],[-7.054775669648848,57.77807949558988],[-6.986838737300827,57.742023939492185],[-6.873193862279272,57.77379592673376],[-6.834341002778506,57.81903552685762],[-6.736348822992447,57.8268963630135],[-6.79267345316044,57.879519436852476],[-6.668323878976072,57.87989934355441],[-6.673477372566703,57.921149590904186],[-6.614704187980999,57.928020280586885],[-6.540165494476421,57.91636105656807],[-6.449072359789445,57.96614242743719],[-6.455681574334696,57.99363825358256],[-6.358252576128469,58.03930210617692],[-6.399276935396197,58.09090392410395],[-6.47342045635608,58.095976927649346],[-6.422536169110727,58.128658492769475],[-6.369619060913639,58.13185993592154],[-6.368366693006683,58.160307242270854],[-6.306306104869464,58.20532844276477],[-6.25390307067181,58.18040541572827],[-6.170632166117358,58.207448372992594],[-6.148685972040393,58.24206733235002],[-6.165048441142388,58.25782406647822],[-6.285042850850482,58.208273760549126],[-6.334949206379104,58.233234437165514],[-6.317681199091411,58.2665474098361],[-6.176424657282307,58.3460056148543],[-6.212837084350386,58.36937227573929],[-6.168815691300897,58.42914250571761],[-6.194623696872426,58.47666300718164],[-6.261154339630654,58.51616953160781],[-6.276109386077644,58.495903866271824],[-6.356756667120673,58.459323331341345],[-6.437896920609631,58.43442947364553],[-6.519264366209504,58.397016821502056],[-6.547036536952511,58.373654605972064],[-6.624299908696127,58.346536210060336],[-6.649132471839321,58.35447640857835],[-6.730409464480521,58.32058657251063],[-6.803915553743972,58.30152330461217],[-6.828478576932895,58.283310866028906],[-6.7938457661752,58.24022394632314],[-6.743104460321503,58.20787492733715]]],[[[-6.653423555660472,57.35724137827777],[-6.564802073168463,57.33620336512748],[-6.568044735754253,57.389922914841726],[-6.499952225694976,57.384195580669925],[-6.482832057817121,57.36784343140613],[-6.414352070980717,57.34890943668954],[-6.428926576927875,57.32726239751558],[-6.48343610254793,57.310812037500774],[-6.481519862234729,57.28957313610069],[-6.354397889289175,57.18902537597229],[-6.284185261650245,57.19083859114359],[-6.304379827495452,57.1612866610024],[-6.211995527374323,57.17709396917573],[-6.103491449290545,57.1701329069007],[-6.113482629821277,57.13755368431597],[-6.087203555754211,57.125959731038286],[-6.008706419225195,57.20420558232749],[-5.977263905460709,57.16677686693433],[-5.917470796794319,57.16485164207564],[-5.996002524825903,57.12655225531257],[-6.03915463773713,57.04776293971559],[-6.019710141474659,57.01962382179577],[-5.962463704740192,57.027149052849154],[-5.899428697619405,57.05680268315629],[-5.850367220455878,57.109342663406025],[-5.787260187765416,57.1383531013874],[-5.780583772727436,57.166251364124044],[-5.672946599158127,57.2063042690683],[-5.660983813655132,57.26442761730719],[-5.739766083784071,57.27523280387042],[-5.896613536124795,57.240694097962034],[-5.94098654885014,57.26075671490275],[-6.045797549010069,57.290179441586936],[-6.093672188188905,57.315791485204336],[-6.145023582126651,57.37097716878457],[-6.124357571867511,57.395299131222274],[-6.146535494604338,57.42775653106398],[-6.138716861478048,57.582417919757496],[-6.191525900199829,57.63411237719221],[-6.224086682058895,57.63550621755604],[-6.249798164100774,57.67279351514172],[-6.296659958039938,57.70770451419795],[-6.352693212883315,57.69826542368157],[-6.354774723552384,57.67129465334474],[-6.427714903134614,57.64230281778434],[-6.395614529702552,57.612469107834094],[-6.374081938168406,57.534636890890546],[-6.401020314601395,57.50942468113836],[-6.456372573357116,57.501883783630205],[-6.542030393777018,57.54860659558304],[-6.589196812367518,57.594506771173485],[-6.633037047469656,57.59384241643371],[-6.654303424606773,57.55497834188096],[-6.561150667599095,57.507399303825395],[-6.641073413454913,57.50191125548716],[-6.623463264151913,57.473042514310364],[-6.63910755680172,57.443088971155504],[-6.71679970613603,57.51377240640073],[-6.748797026260799,57.49999371666545],[-6.746606847903299,57.45681840585673],[-6.788070814832903,57.433164770983154],[-6.739807930155986,57.413395044451974],[-6.717033850690081,57.37003016735814],[-6.653423555660472,57.35724137827777]]],[[[-1.082555946602135,60.60601532344264],[-1.02792723469218,60.60529418731892],[-0.988975174161805,60.653882603345814],[-1.003105530067711,60.72233400309392],[-1.071683525153879,60.73259170527451],[-1.127572662741195,60.726461267121685],[-1.139996319898664,60.65086008890393],[-1.186754739974292,60.63627501630838],[-1.309114498666735,60.63771460838319],[-1.349627280101627,60.60997160140481],[-1.421784126131316,60.61106112495397],[-1.472707721967073,60.560789842303016],[-1.518242673949266,60.531651210281574],[-1.613289309804691,60.508292388262745],[-1.633057914711862,60.48298378222144],[-1.510236955510677,60.48065861643696],[-1.468005638966407,60.46941827858282],[-1.452752874259994,60.41601398529604],[-1.341536326510334,60.357946192536446],[-1.370488312203642,60.33668197629488],[-1.481989068404279,60.30315778558424],[-1.511392254825096,60.318826771600136],[-1.686640891533683,60.300961873816675],[-1.691549660835576,60.23503935458196],[-1.555315760995736,60.21791697733695],[-1.546848865766686,60.18641877209018],[-1.45119774342876,60.15247165225912],[-1.419144234641278,60.16588017899072],[-1.401067147202457,60.200293291044325],[-1.339997008929031,60.20494686793878],[-1.297612962454628,60.13160058323098],[-1.266762453431949,60.13742360946684],[-1.324147319054363,60.00646807036061],[-1.346767354503055,59.99915757861173],[-1.331692699138914,59.94566884410541],[-1.361303965888696,59.944795232730385],[-1.381832515542166,59.88898222448436],[-1.318548694451384,59.89641447886418],[-1.275797762236035,59.91931287399854],[-1.25376460715809,59.95489479051378],[-1.261585477242903,59.988490709192405],[-1.212437094346452,59.999633446298695],[-1.232677580740464,60.033012313773675],[-1.199673139142644,60.107785299991285],[-1.14215538607157,60.15357164278844],[-1.157981669154148,60.198431198084435],[-1.194418474878051,60.244365528887315],[-1.149471807542802,60.24326832684627],[-1.14895549247374,60.284789529463055],[-1.088959295859843,60.31733193016012],[-1.171729721036162,60.33932090663337],[-1.082779917179004,60.35501640056986],[-1.100535441786608,60.42590211444126],[-1.15304608621249,60.40291939722444],[-1.192488480451305,60.412735760485646],[-1.180271522199746,60.46223048122989],[-1.14099715090539,60.461693466772154],[-1.032684024733333,60.49405103732768],[-1.048397558997767,60.543531767512874],[-1.003678679886916,60.56623665818763],[-1.030385219557877,60.597015402584724],[-1.082555946602135,60.60601532344264]]],[[[-6.336661592458064,56.5345061965847],[-6.263516154434682,56.523160037205734],[-6.229948006272643,56.52881956042856],[-6.149361544723374,56.49917067480646],[-6.117136112921857,56.47244324025917],[-6.009604635795441,56.49523697069049],[-6.053004014934407,56.45332534996775],[-6.118913444312991,56.4516058718749],[-6.151992899210183,56.41340053665405],[-6.206715953433695,56.385378141799144],[-6.194492880405011,56.35821478069901],[-6.101348947775403,56.36707043159556],[-6.090228641233647,56.34781411353743],[-6.157548445995276,56.33703714348086],[-6.253817591454227,56.337653169336626],[-6.333630963380116,56.34779295928266],[-6.367958645004861,56.332811649112784],[-6.385334768156015,56.28744488005991],[-6.331478956782096,56.284896289054366],[-6.264233457846394,56.26435037281974],[-6.251172027475739,56.28504191857435],[-6.118945699250892,56.296789529808265],[-6.046204885016428,56.29210988791191],[-5.987381373161473,56.32159611813034],[-5.889497048137758,56.32172426200373],[-5.834615026171264,56.31043128767288],[-5.746079641902814,56.34152154648338],[-5.667647528131749,56.389654307630074],[-5.645486538980371,56.447049536903286],[-5.719374022444825,56.486255813569855],[-5.764102048729169,56.48917239574418],[-5.799826932159001,56.515969911507476],[-5.949746137652278,56.520321106320836],[-5.984089513496616,56.57328662423135],[-6.065675498286279,56.63862750449458],[-6.14706780514585,56.65340540475104],[-6.229051788876315,56.63422628729978],[-6.224863867957716,56.60505131126611],[-6.323477721427415,56.60405763104891],[-6.300359026553316,56.56483807382643],[-6.336661592458064,56.5345061965847]]],[[[-6.339496173458961,55.784547602678174],[-6.287478745905642,55.781865211945465],[-6.27157750756854,55.76220283852845],[-6.332659196705902,55.74257428385268],[-6.270292642041738,55.68147963594694],[-6.264491097789405,55.655206991881585],[-6.323358121703101,55.63159969408613],[-6.333294649830615,55.595768550255876],[-6.296959168864807,55.58033021131715],[-6.240948475137896,55.59175852757318],[-6.194331076280241,55.63268899355728],[-6.14979352936493,55.62543310710825],[-6.102757681815056,55.64067790490359],[-6.019215535812084,55.68423468771476],[-6.040497141475754,55.70855647525404],[-6.048649507346226,55.76401338306723],[-6.082244096530981,55.781556533741636],[-6.101219431713522,55.84063745906129],[-6.131990046446702,55.89356815192819],[-6.122639669151607,55.93803934086483],[-6.199882058426819,55.927502493321875],[-6.28573811666528,55.878666322360786],[-6.33141300321328,55.89217529787753],[-6.384145475567794,55.86830961156015],[-6.453252967144785,55.85283999206646],[-6.459891855445574,55.77076851401288],[-6.496442685549046,55.73653941609779],[-6.50439879810217,55.67440421605668],[-6.419940749732134,55.70273896143696],[-6.339496173458961,55.784547602678174]]],[[[-3.044545476575455,59.103131580983366],[-3.195513284136138,59.15374718982744],[-3.325613657268468,59.13356589482005],[-3.349255074543952,59.11178208460779],[-3.349698777079841,59.03767896498761],[-3.366369977810947,59.01539418221653],[-3.356540563115085,58.96618265314067],[-3.238399126411419,58.94262126676554],[-3.189343912226074,58.90843045569629],[-3.114248215181894,58.93015490545315],[-3.00950555634483,58.94487779903785],[-2.97323562986365,58.94037247581143],[-2.933817566628941,58.900633017726],[-2.895866787934875,58.89074764229054],[-2.960204566772298,58.85280914050703],[-2.963364791543498,58.83648185263003],[-3.036654920201141,58.819528344893726],[-2.980014840928993,58.77809008589101],[-2.993205628595893,58.75433117317965],[-2.95537405403723,58.72958866835719],[-2.920152787123687,58.73344941965294],[-2.926397548689861,58.77334571347213],[-2.87677890903919,58.84445787348239],[-2.907183736870893,58.87180798897597],[-2.880118816740004,58.89882143952713],[-2.820695157908237,58.876560720390906],[-2.780556036116041,58.915444312545766],[-2.713262989571843,58.91892833718177],[-2.70355989443807,58.963253525982424],[-2.778298375571873,58.9519198077505],[-2.840277472226367,58.954852047877154],[-2.857755733804924,58.98580961302828],[-2.910875997314336,58.96250359373226],[-2.948453327334168,58.99430304240518],[-3.035268656160876,59.01075414840094],[-2.999960231818271,59.065076338380294],[-3.044545476575455,59.103131580983366]]],[[[-5.371026233413018,55.58437957175064],[-5.35012827242123,55.570873601366294],[-5.351131894637526,55.51301823100986],[-5.315269521480761,55.46453784216124],[-5.244001465003953,55.43802577736949],[-5.180212369805947,55.43306269426096],[-5.115449835296586,55.439440681959404],[-5.078439936343226,55.4642339619513],[-5.078958348637593,55.510038082437624],[-5.117475782054633,55.522529821983284],[-5.082590769000127,55.55249136066967],[-5.149475958413369,55.579093294074305],[-5.127366895412641,55.61190332941331],[-5.167825581101403,55.683958009147446],[-5.254337252433879,55.72054434354281],[-5.284921472318119,55.71963037408894],[-5.365622825915239,55.6781984431881],[-5.396093947638271,55.627193780527755],[-5.371026233413018,55.58437957175064]]],[[[-7.495731580814604,57.583135213660746],[-7.441064997250398,57.56000073547983],[-7.377567908052643,57.51904156914666],[-7.373564924381395,57.5038642008829],[-7.311716269724808,57.486648260917136],[-7.204186194662879,57.47271453371272],[-7.21724061191204,57.50041936749985],[-7.148375390317717,57.52000112597008],[-7.102292944596775,57.607966676992056],[-7.062358267799123,57.64003272982756],[-7.163754932904397,57.654682753691745],[-7.177067778311001,57.68824360388974],[-7.244320126436395,57.686880056591995],[-7.261693936965169,57.667568982977244],[-7.316070891689988,57.682811846945334],[-7.370636031436278,57.662340609652226],[-7.476833984904265,57.66347499856177],[-7.529613114666126,57.59107275683602],[-7.495731580814604,57.583135213660746]]],[[[-6.096692096660816,55.87162910846062],[-6.064730901246049,55.80588878872921],[-5.970315422323551,55.79157768293151],[-5.942600288011474,55.82260355946322],[-5.93651679790175,55.866504667270625],[-5.855017585441703,55.925514380364085],[-5.834290929318017,55.96831304741189],[-5.777284718138528,56.016195230286684],[-5.691627153249686,56.107125516992426],[-5.709105570974819,56.14987210403895],[-5.799925360279588,56.112256345841615],[-5.833164030376542,56.090167975791346],[-5.954223154477911,56.03574761945973],[-6.002870589736897,55.98664518030871],[-5.999432638648301,55.953160205073544],[-6.043461817485251,55.940942721010494],[-6.093239932107599,55.893007724724114],[-6.096692096660816,55.87162910846062]]],[[[-7.402350839062111,57.345189672480835],[-7.401017144363371,57.304607003466714],[-7.448055055767991,57.23956395609029],[-7.394333267437063,57.110664055651334],[-7.354241135016388,57.101266436762316],[-7.214234657966078,57.11290376676363],[-7.261439058049975,57.14018917912555],[-7.244815025353789,57.163068699051124],[-7.273868811938948,57.2156826001725],[-7.25296853343893,57.26023150642418],[-7.203283642043851,57.28089023662382],[-7.238992619966105,57.319856086792285],[-7.220137530661351,57.34750240547184],[-7.343899277024438,57.41576172907094],[-7.43231853492569,57.3844173938684],[-7.402350839062111,57.345189672480835]]],[[[-3.267727262855686,58.77917365792316],[-3.1871340624762,58.7767116293181],[-3.138568985491652,58.803105778146524],[-3.200311932982811,58.8295781066093],[-3.212354621818726,58.878172275916974],[-3.352526919836136,58.932840225496285],[-3.405317095292304,58.920450322065115],[-3.432821752295038,58.8707288131599],[-3.380209527312668,58.86540856056878],[-3.369272548486114,58.83614541592601],[-3.329288051370074,58.816533915986845],[-3.295780034900134,58.77631268744765],[-3.267727262855686,58.77917365792316]]],[[[-0.93988412411835,60.76231482729072],[-0.977429600827527,60.720387331036385],[-0.967890024726895,60.677745113764985],[-0.869207476036032,60.702229940425845],[-0.792042597611393,60.73978264528777],[-0.778134230073633,60.798482832964304],[-0.79743057836501,60.83416426310411],[-0.874999212113302,60.84569589485877],[-0.951718923684965,60.78911511741744],[-0.93988412411835,60.76231482729072]]],[[[-5.133393865008831,55.84264986853144],[-5.143551166677908,55.81194214549297],[-5.062235317226243,55.7562604597739],[-5.001886819832682,55.77691887090688],[-5.079437875263447,55.882592188344944],[-5.160673158170735,55.92264808274117],[-5.222148934606858,55.901388024992805],[-5.16702913962308,55.8504449413933],[-5.133393865008831,55.84264986853144]]],[[[-6.32969544730225,57.061031739314615],[-6.370185239533426,57.053353589242604],[-6.433117724419711,57.02212284974917],[-6.437878269088397,56.995070272838724],[-6.369466216233392,56.95196898673865],[-6.302006657196221,56.93711203236975],[-6.250002557065043,56.97117068882748],[-6.254531979245671,57.03321805329493],[-6.32969544730225,57.061031739314615]]],[[[-7.411946240149374,57.4490013477665],[-7.395032814297426,57.422001275249556],[-7.343025927677893,57.415651291686046],[-7.303079943891147,57.396320583368045],[-7.199625845657938,57.412479740647534],[-7.206539543795193,57.460698925052725],[-7.338225826260084,57.49737766595465],[-7.380189290241362,57.48955993729375],[-7.411946240149374,57.4490013477665]]],[[[-6.950174991643429,56.45712017904503],[-6.8209356129806,56.49004537806628],[-6.800164933044247,56.52195990810725],[-6.723109638856119,56.529352613173316],[-6.754554241274723,56.55724383814577],[-6.884075821058943,56.519353514210614],[-6.951360047278295,56.52931307145364],[-6.987866026356317,56.503161173272574],[-6.981598927642701,56.45956944578648],[-6.950174991643429,56.45712017904503]]],[[[-6.620390915505054,56.62222189073771],[-6.671742865820971,56.58202449926775],[-6.636233726249427,56.57279557555675],[-6.554377245607138,56.59284574225638],[-6.505983676243019,56.61642711199577],[-6.450755763550706,56.68118812255185],[-6.497221932435579,56.68652233595901],[-6.610654943214699,56.638689659801564],[-6.620390915505054,56.62222189073771]]],[[[-2.572129998345444,59.26581890627337],[-2.534546576207102,59.291773583858166],[-2.550897075238889,59.30795325181496],[-2.637306530863042,59.23459928076483],[-2.527494471268102,59.234521194933656],[-2.531918164411384,59.26791948038143],[-2.572129998345444,59.26581890627337]]],[[[-6.07435511773542,57.34731904817985],[-6.020980922372356,57.33272515352567],[-5.992067867546931,57.36863662503475],[-6.018262347050353,57.38997613559124],[-6.031546400004569,57.43383600614653],[-5.978939926320166,57.49303911154001],[-6.033158728692253,57.49246994109848],[-6.080848377089567,57.43436428492705],[-6.07435511773542,57.34731904817985]]],[[[-7.483425127880634,57.01517137982929],[-7.554502053914599,56.95114084873705],[-7.472326737832314,56.944775615377196],[-7.407307389061875,56.98189929276757],[-7.416964959552732,57.027315784732195],[-7.450791517631921,57.04324437081623],[-7.483425127880634,57.01517137982929]]],[[[-2.941212478040307,59.28454509933596],[-2.960280085779585,59.30943220364942],[-3.02291333433615,59.30481876376006],[-2.989072934525597,59.26037266677484],[-2.941212478040307,59.28454509933596]]],[[[-6.148564951438307,56.13368052917111],[-6.246170051084829,56.085984111152236],[-6.279021269564652,56.02113543138355],[-6.255511518193812,55.9993486818089],[-6.182763855526449,56.04480338456835],[-6.133912921831572,56.12013672511801],[-6.148564951438307,56.13368052917111]]],[[[-2.963556873111323,59.13592551705522],[-2.977730266126588,59.1619888260989],[-3.072010610320883,59.20013929615801],[-3.121002630330695,59.173811114038855],[-3.080603079200209,59.13887286587177],[-3.040521805876255,59.12569498949709],[-2.963556873111323,59.13592551705522]]],[[[-0.866660221824371,60.633468602314835],[-0.947531370022974,60.62093418000179],[-0.909113306561694,60.57181562566924],[-0.797887428741284,60.57110009038441],[-0.765816668857253,60.60450327937872],[-0.866660221824371,60.633468602314835]]],[[[-2.624174855131204,59.11560330420453],[-2.643096593145954,59.085370318133876],[-2.599485236716042,59.06983474930922],[-2.532380928641954,59.08910642804359],[-2.589242732991824,59.13888878570552],[-2.624174855131204,59.11560330420453]]],[[[-6.140967969505232,56.945868190766525],[-6.158010092130278,56.9199148731042],[-6.208040008832115,56.90776512384752],[-6.207131006707054,56.885367854141926],[-6.127863989256967,56.87660398975034],[-6.111182901227972,56.92472633130763],[-6.140967969505232,56.945868190766525]]],[[[-2.777965616632156,59.20548032818353],[-2.827206642228266,59.17449128857158],[-2.755559405490262,59.15747961309441],[-2.777965616632156,59.20548032818353]]],[[[-2.897111384611392,59.032695306136034],[-2.834322348615181,59.01729169531124],[-2.805542353861159,59.02815199079661],[-2.849280082704523,59.05922011401167],[-2.903063852056386,59.07088206024549],[-2.897111384611392,59.032695306136034]]],[[[-1.114178106867262,60.148487508445086],[-1.122729017663515,60.12061543395472],[-1.068927391579347,60.113212929936246],[-1.050263358447541,60.160658562274655],[-1.114178106867262,60.148487508445086]]],[[[-5.994943012491272,57.325712253664946],[-6.023769413864898,57.30439352702904],[-5.982696446547989,57.273129923842724],[-5.923659640132943,57.282066697582984],[-5.924770089630865,57.30719420098335],[-5.994943012491272,57.325712253664946]]],[[[-6.307580757723751,56.49841347341603],[-6.297647312083844,56.48100890039367],[-6.16091346121998,56.463067124783336],[-6.155525160338173,56.48292945137793],[-6.307580757723751,56.49841347341603]]],[[[-6.812366570918004,58.207397021551735],[-6.781773134821555,58.21400697533174],[-6.852052339933123,58.25675088454459],[-6.892736616387979,58.25233981315636],[-6.867861329048876,58.20787858772734],[-6.812366570918004,58.207397021551735]]],[[[-0.997923764808226,60.368156485996806],[-0.978648685479917,60.3313971053721],[-0.923473680480372,60.37452702114516],[-0.997923764808226,60.368156485996806]]],[[[-1.427773198340095,60.39039591897023],[-1.475512017683314,60.37423754416237],[-1.451716055122956,60.34855202217815],[-1.391799543549215,60.35132946409259],[-1.379176354650823,60.37158251719909],[-1.427773198340095,60.39039591897023]]],[[[-5.723024479613878,55.729882476874955],[-5.774451774001839,55.67682686877395],[-5.736227539556441,55.676820064357784],[-5.723024479613878,55.729882476874955]]],[[[-7.008687614982521,57.922006291805374],[-7.053924390508262,57.89917493133206],[-7.01076338541989,57.879962847430555],[-6.986344418126576,57.9028561880288],[-7.008687614982521,57.922006291805374]]],[[[-6.206858024187094,57.16629073102155],[-6.256441658442919,57.148014263264756],[-6.2271992850846,57.128550172193165],[-6.181608092498493,57.15262178665932],[-6.206858024187094,57.16629073102155]]]]},"properties":{"geo_code":"S92000003","geo_label":"Scotland","geo_labelw":"Yr Alban","label":"S92000003","name":"Scotland"}},
{"type":"Feature","geometry":{"type":"MultiPolygon","coordinates":[[[[-3.117684700968739,51.37460033647065],[-3.107440595628272,51.34162443928419],[-2.888023310230582,51.4278664582025],[-2.902575949424397,51.40948808267969],[-2.98206506069061,51.38775094149832],[-3.032691730593823,51.322713490769246],[-3.044864735368341,51.28981558887294],[-3.079808631724538,51.26331000415301],[-3.054339673441167,51.23925988934403],[-3.07984490291822,51.223736341377744],[-3.281954525947208,51.185489036786095],[-3.400133211971251,51.188452809826614],[-3.460647596728705,51.21833957589098],[-3.563075214745128,51.23481193040748],[-3.618869796302966,51.21871517394693],[-3.766660493725278,51.23788589289319],[-3.937883139661848,51.229085308185105],[-3.948331993303626,51.22213524570265],[-4.129893630613077,51.2103094034222],[-4.213760668624256,51.19047759546485],[-4.220889886747595,51.152474729431404],[-4.24807219061285,51.14572898742255],[-4.222523438702143,51.07702811830392],[-4.241597408349545,51.04391981906029],[-4.302375267490128,51.00038703931483],[-4.37443388566116,50.99084410968313],[-4.418542208488606,51.01275564397249],[-4.526154812773455,51.02337925271601],[-4.535841228567456,50.965214122915185],[-4.565584627170304,50.91702750095083],[-4.558598461755872,50.813634685582755],[-4.564822217665591,50.78334754321787],[-4.652761753903798,50.73830160608417],[-4.684527823391298,50.69548737013301],[-4.75562661180884,50.67111945766527],[-4.77223726619416,50.624848345908084],[-4.803314994799796,50.59690772336852],[-4.858529148286572,50.59361318571348],[-4.922179907318457,50.57842373292261],[-4.985051737863152,50.543208002152255],[-5.028190677850834,50.540679364003815],[-5.037412864708654,50.47237520256853],[-5.060541708536738,50.42745642179418],[-5.149826791525009,50.40156863556068],[-5.163976483583482,50.344650929688974],[-5.234423566991016,50.30688290165891],[-5.251776718812466,50.28266939164426],[-5.344364645634068,50.23872290423954],[-5.395592785848192,50.24083990653531],[-5.425586544174247,50.20299224985638],[-5.474514607335156,50.21671967732769],[-5.539838018640719,50.21520107118721],[-5.630695841806581,50.168003098083055],[-5.672160070777786,50.16260453152765],[-5.710575804154227,50.12653755922518],[-5.691718269895288,50.08733012563977],[-5.716143522008324,50.06923862194546],[-5.679556947061254,50.03489328355091],[-5.554379875307778,50.060026585058566],[-5.521795582420632,50.12465265341768],[-5.463847194817768,50.12245652484519],[-5.426068141551109,50.09898981769598],[-5.332469663383703,50.089899659517066],[-5.282838941964463,50.0585484696195],[-5.257483830487937,50.02132926075948],[-5.246957708989843,49.97704733254537],[-5.2156754874783,49.9591440234636],[-5.154503547730701,50.00693810999757],[-5.10157690403397,50.0037236920497],[-5.060901185349415,50.06048904640296],[-5.10380111436388,50.094657391984434],[-5.088248326956402,50.1268824189544],[-5.045893119000661,50.16869720511353],[-4.985225858157614,50.14945546421015],[-4.967878779280586,50.19160282753137],[-4.863952513236955,50.23445668123581],[-4.782296296648949,50.23569937179998],[-4.78262979387577,50.2834719024305],[-4.75252587613399,50.33175933511201],[-4.699305157731425,50.3419120178176],[-4.682560727320289,50.32283784715569],[-4.536869758666214,50.32388492502895],[-4.451744259983636,50.34270717785688],[-4.433918323724519,50.36011637479792],[-4.304258015754855,50.360152605764995],[-4.20710489101401,50.31825692924767],[-4.167364810741297,50.359806276712334],[-4.133479633932457,50.363284977241115],[-4.121087227106929,50.32031584000847],[-4.070740332025726,50.31387037038002],[-4.046791137227011,50.29359424718273],[-3.991869166060036,50.30716965717483],[-3.923621712228119,50.2966263381916],[-3.863088431391742,50.26401951079219],[-3.86768624796863,50.23846368185433],[-3.788179445709249,50.20954295054197],[-3.770665515459222,50.22145606701708],[-3.706031259547045,50.20542957647665],[-3.660364442651077,50.22015356374568],[-3.637187095698501,50.296575287520014],[-3.61136939095993,50.31854121279998],[-3.544133118773979,50.33544767022058],[-3.514322599342198,50.373195627709094],[-3.456325823777394,50.39996549975522],[-3.467738797500518,50.46392081968315],[-3.495681115720154,50.516753076737956],[-3.494759914091817,50.54336291289679],[-3.416826803225327,50.61560092251133],[-3.384705612244129,50.6056468069302],[-3.294078574987243,50.635751639559665],[-3.257779890432339,50.67262253320096],[-3.182851896255662,50.685054083308245],[-3.095707383669598,50.68520542244612],[-3.080048311460498,50.70192379368093],[-3.022483601569272,50.69787255221491],[-2.95784280756205,50.71197449827906],[-2.912589438152302,50.73300312494585],[-2.780399077538856,50.71495211919072],[-2.679443087788834,50.680444593617224],[-2.592331853607344,50.643395392877565],[-2.460958467168888,50.571593011561674],[-2.466219650493141,50.59140332992039],[-2.422672639799075,50.63593695260288],[-2.223984658891702,50.61665798542285],[-2.198244715496269,50.62292955291905],[-2.056101419720842,50.5765590309624],[-2.026683691057404,50.58888023640713],[-1.960896858338598,50.59083683533166],[-1.940759106884771,50.67368498230873],[-1.917761773504774,50.70189526755251],[-1.858744418491838,50.71820340292785],[-1.748920848223086,50.71175187399811],[-1.716744215978609,50.735431036713784],[-1.643339342022651,50.731695874539696],[-1.554971245671099,50.71350401422942],[-1.470202830236573,50.75762602466913],[-1.34191485441604,50.78589904127775],[-1.299429318980112,50.83132272003906],[-1.214099292314761,50.80914627204833],[-1.137762698079757,50.773682934451266],[-1.030655706468746,50.7869372275707],[-0.93656064270833,50.7770865120556],[-0.867071379979805,50.7616654843659],[-0.785487964940238,50.72230518610217],[-0.726782504022878,50.77145755436566],[-0.555417336916872,50.79813611869194],[-0.37261289465479,50.80542919033487],[-0.277367061268858,50.826282624483575],[-0.171297405286828,50.823435375366955],[-0.084160039737085,50.8090027801274],[0.037283363874861,50.77987750528725],[0.064022896193479,50.782407143923905],[0.120502103151573,50.75750297271729],[0.208279230537051,50.73695917064109],[0.261553704837928,50.73808122500941],[0.356618218008386,50.811843034388964],[0.418186131112732,50.83025035429504],[0.592001926912084,50.8534945297511],[0.668928882362421,50.87187344003834],[0.731063797331194,50.91148511587203],[0.801544582089743,50.92797864902909],[0.946516881038703,50.91103169957018],[0.981771879394508,50.915190251563445],[0.973171351696038,50.98613204807541],[0.988153199023678,51.01209965295682],[1.058384821990519,51.057951848514584],[1.164234362339145,51.07233762838668],[1.212311449723728,51.09517308469842],[1.26769370167409,51.10169438885018],[1.380305690719512,51.14115385645031],[1.40586895721681,51.17257884500249],[1.405320740364738,51.22943831916702],[1.387193673394472,51.272212950086015],[1.392618483166491,51.32244943911296],[1.441008943742948,51.33939846358002],[1.451484016191974,51.37907068099452],[1.425527479188349,51.39676318130882],[1.252047350334917,51.37772174586028],[1.189098140457269,51.38055060600057],[1.080729623499351,51.37458876464263],[0.972430632653071,51.356178126426265],[0.952617130374156,51.39166001008456],[0.902793127445835,51.41835111143803],[0.826006967092112,51.429765670780455],[0.733249367682116,51.45175650198877],[0.73593822555666,51.47088549162029],[0.678097857870225,51.487235434590815],[0.677675829503989,51.52162547946533],[0.71831076149369,51.521797200795056],[0.78668720968946,51.50447001127366],[0.853838122274068,51.50917781299844],[0.873650255368985,51.52225878877263],[0.928316573997463,51.52244606217498],[0.928591552010611,51.55204590220509],[0.982572137471889,51.557855352908845],[0.98387481832658,51.5877924800175],[1.041326114526218,51.65558181355262],[0.96510641636281,51.650654754470324],[0.98211207911474,51.695927947287345],[0.970506049999286,51.73596521880212],[0.924668485383447,51.74928836432053],[1.024836825650093,51.79374549803201],[1.033894150485999,51.769619234026024],[1.117083210248643,51.773083773978776],[1.235113737709527,51.81781086918497],[1.288735179598456,51.86014424488285],[1.253665528381379,51.8923946193473],[1.29386575281344,51.9611078475589],[1.326112074079756,51.939423497174914],[1.430763232418186,52.00428529723148],[1.452975020587571,52.03374895492545],[1.494942200481567,52.05921809553614],[1.583788682231636,52.089182347931434],[1.622760743205309,52.18692876894623],[1.630538516289377,52.266135164806215],[1.676635026557468,52.31525515178112],[1.729483214576857,52.39871932261075],[1.734764393502363,52.44800829952518],[1.768024679278327,52.48109148265436],[1.73297988870677,52.55689208535004],[1.744423221088296,52.627523148030754],[1.703248822279112,52.71614176442761],[1.612903269710377,52.785818358388575],[1.432963813402731,52.883233018796865],[1.314748995282131,52.9300218024003],[1.222516953097048,52.945758566842095],[1.13114896318426,52.950811059776484],[0.972242407971649,52.983181019949704],[0.916042542330719,52.98028173376585],[0.845481343663048,52.99272819748795],[0.786510601091717,52.97916061427616],[0.682890777082224,52.989919240246806],[0.623754900226405,52.9761803440783],[0.573027104157252,52.983338160158915],[0.497446576493522,52.95788803167807],[0.429812305416701,52.8828135714637],[0.393614974926619,52.87521454902607],[0.35209696757194,52.82796709607016],[0.284508367915903,52.84061294685114],[0.252776660190158,52.8615040134078],[0.21864444608467,52.85699469171492],[0.206470439896469,52.905014999018924],[0.144839164977107,52.93024348362908],[0.17879969210641,52.957044045029086],[0.168662382313876,52.98440418412834],[0.227491059178918,53.00057653006881],[0.311104008843433,53.037224654586154],[0.343531139444656,53.09551707902119],[0.357140743157355,53.19132983861526],[0.321239677377097,53.27540816012899],[0.291228376091569,53.30732068281976],[0.234192858549832,53.409939050471124],[0.159547956280202,53.49113915479434],[0.091794407234036,53.520305644303996],[0.037070887843187,53.53268624141063],[-0.012438226056597,53.57010221101569],[-0.091819409355216,53.5895245040663],[-0.194072933732499,53.635327155646976],[-0.295763600192336,53.71683136067226],[-0.24664745610025,53.72598532915257],[-0.210326193391997,53.68992466604338],[-0.132913972304692,53.63996557153273],[-0.090314493057941,53.629012282705254],[0.005619903589986,53.62514142567379],[0.086958636919506,53.59654371126345],[0.14821628472681,53.59919263907808],[0.13293653297735,53.646552394683134],[0.103961870581256,53.67715664374858],[-0.028069605789961,53.783696082575986],[-0.114330683123899,53.85910186305613],[-0.154162091854628,53.90397286359109],[-0.204397911339398,53.990668905009336],[-0.208323545671249,54.05997980455315],[-0.171121055826441,54.09520373732629],[-0.076666387184287,54.11074160047338],[-0.092645125928215,54.12771163859519],[-0.223266369255715,54.15974018193418],[-0.275336472776324,54.18981319623192],[-0.275157218631198,54.219180367027754],[-0.351109866954176,54.24220015747088],[-0.39411606857195,54.27619438651407],[-0.419250621894838,54.33318107999812],[-0.470287534494063,54.39693219918377],[-0.521844900483625,54.41753499557579],[-0.52050305726696,54.44755006864243],[-0.589376733107483,54.48951193635114],[-0.663903022394804,54.50076329040527],[-0.706586448314034,54.53431710830211],[-0.742073102253172,54.52855344945378],[-0.78393760771578,54.562059856217694],[-0.895527790314046,54.5724261033597],[-1.018229854229527,54.60077694256538],[-1.050659426684807,54.62047782998822],[-1.097684989184589,54.625183972915],[-1.173892677430066,54.65506819384639],[-1.199033819858675,54.706625032557],[-1.248483768939702,54.728188305676824],[-1.308253751870834,54.78049640852721],[-1.312316618546644,54.81220206504274],[-1.361287982513788,54.897904751703244],[-1.361760113631993,54.97250818762213],[-1.410997029296129,55.00299401036004],[-1.489859924519929,55.12157156870331],[-1.519417599557814,55.14958503803557],[-1.495846778782488,55.186576270601655],[-1.564729333293425,55.26668436167766],[-1.543466414368016,55.32113693365679],[-1.595733348812504,55.35638563298948],[-1.603764048664819,55.38382353245046],[-1.569197740472953,55.41070335406938],[-1.594540450750576,55.49149868091869],[-1.629396433779296,55.53329661265198],[-1.61963919069126,55.55146358738823],[-1.688084655810323,55.607803679483744],[-1.745867356851502,55.62274851584351],[-1.785733055692224,55.65769460621971],[-1.776732760659872,55.68519097435917],[-1.914106189356816,55.71161464233223],[-1.985462161007568,55.75481954009768],[-2.004399457091159,55.7906013223994],[-2.037357936693057,55.80978097904854],[-2.038841209997025,55.809183914526514],[-2.054970934107458,55.80278402303008],[-2.073415437973698,55.79625038711459],[-2.073542859057841,55.79615686725892],[-2.076649687790221,55.79446130137053],[-2.081321293929023,55.793816769062204],[-2.08601624549026,55.79297796736198],[-2.086222696465826,55.792577092975506],[-2.088545829413593,55.78668219996312],[-2.085614024620472,55.76575018028746],[-2.086001788103721,55.76452705356898],[-2.085671144536455,55.76272489763115],[-2.086147928529269,55.76214143848869],[-2.096228449523102,55.76270179988606],[-2.102035025282566,55.76194955967344],[-2.104487048527299,55.76119365642515],[-2.108676889690494,55.755073032713234],[-2.106862154191326,55.75273313516368],[-2.106525879044698,55.75210447732533],[-2.105978198470078,55.749883858182365],[-2.106444554474812,55.748563556329785],[-2.113827464107718,55.748359258337125],[-2.114893966827335,55.74808871382277],[-2.117314893254043,55.7399900198864],[-2.118862113820748,55.73814570050529],[-2.122307781375324,55.73742980018076],[-2.125460504760618,55.73727387073891],[-2.135663357486096,55.74034847037567],[-2.140647749278232,55.74017573663605],[-2.142469839699506,55.739765714340116],[-2.144434682916333,55.73920814253174],[-2.145881546797519,55.738561305803564],[-2.147898869741295,55.7371698050039],[-2.16019037921416,55.72286186071666],[-2.176037768107135,55.719225455808335],[-2.176963570070567,55.71626983677031],[-2.168502924196032,55.70866781745789],[-2.166899410175141,55.70768525314786],[-2.167782527380063,55.7058151868949],[-2.171859096498946,55.70468195389386],[-2.187988787357986,55.69700322345859],[-2.207894633627751,55.6842530245828],[-2.208429854124017,55.68172644786774],[-2.213596103934801,55.67842099795113],[-2.219704766219822,55.6732034308618],[-2.248040308485343,55.6522995241002],[-2.248237465065248,55.65206551196166],[-2.234169097104598,55.64590698194489],[-2.252083422510573,55.64346608014323],[-2.254510973071754,55.64419514176716],[-2.256753594356111,55.64457142748037],[-2.268390873839841,55.643329880938396],[-2.297992504639929,55.64694080047021],[-2.312745728579652,55.645003654130555],[-2.317544618598301,55.64312688771117],[-2.325897241848226,55.6407113166952],[-2.331806551802238,55.63502044340404],[-2.334930906775391,55.63445486506115],[-2.335119945386276,55.6333410882662],[-2.332214977768718,55.62978997558175],[-2.317828019661289,55.628094906673084],[-2.293885532897409,55.604555120589154],[-2.288188187074382,55.600313284653595],[-2.28784793109697,55.59286538182437],[-2.29231919184748,55.58603504229194],[-2.27559352778944,55.57516576504467],[-2.27317286595921,55.572587933456],[-2.264618582620324,55.566919058420154],[-2.260286941795415,55.565293029448405],[-2.249738881372019,55.55842331671806],[-2.248024986367939,55.55688583171769],[-2.240734916480695,55.55592548200358],[-2.239376995219874,55.55159276673213],[-2.235173059057121,55.548334777917916],[-2.232858034830595,55.545472907305516],[-2.232537600089076,55.543541686910466],[-2.226231100647477,55.520196300424736],[-2.227735018354138,55.51460017760694],[-2.223873603432709,55.50666432140217],[-2.205972619422984,55.49252600056505],[-2.206321671399785,55.482102463777416],[-2.205712419224979,55.48056699483049],[-2.194625977418108,55.4750861129333],[-2.192986688755453,55.47468437094107],[-2.184161248946605,55.47337264847297],[-2.174507114569993,55.472331043241155],[-2.167081657000415,55.46890452353022],[-2.182806604781408,55.46437044453218],[-2.197131141762252,55.442936858423074],[-2.204078297685541,55.43836085513395],[-2.259309025030421,55.43240210630783],[-2.262267630473439,55.42935870995033],[-2.278710392082921,55.42619986430185],[-2.281451869508987,55.42511173043358],[-2.306687064441478,55.41124840224912],[-2.311139006433197,55.409988161905574],[-2.332540816054775,55.38195533391821],[-2.336475692418437,55.37790099466412],[-2.340915150996323,55.36564591559227],[-2.350362648492096,55.36359651812069],[-2.351281859301587,55.36318593410899],[-2.360506680916208,55.35932313205653],[-2.391553013615022,55.347752037809066],[-2.399505280614553,55.34822138989374],[-2.399616004797575,55.34825517295058],[-2.399758236821572,55.349850551383504],[-2.401206808857504,55.35352539340131],[-2.419883092603243,55.359033615309684],[-2.423932642987987,55.35863863194903],[-2.424074501163106,55.358629153616256],[-2.427604315777714,55.35758260594895],[-2.481476062549232,55.35363959225756],[-2.500534180159073,55.34101913295996],[-2.509258859356797,55.33164694633123],[-2.522385114783875,55.3223559676252],[-2.529581749549657,55.322557687049006],[-2.558290249609147,55.31775629416525],[-2.559320168928854,55.315922977347725],[-2.559210739818016,55.31542476904814],[-2.557094624866171,55.31171254210835],[-2.56022639871131,55.30867629578202],[-2.560696692406537,55.30851239258332],[-2.57530349673298,55.29622556005446],[-2.590796333079795,55.29119857328394],[-2.607716443050467,55.28400680215697],[-2.612054161341757,55.2799334114072],[-2.613404742116769,55.279212256056475],[-2.620129590331082,55.27385325099316],[-2.616014345740001,55.246441994799326],[-2.617296017069153,55.2469342343915],[-2.617467352571495,55.246825536191785],[-2.62427879816219,55.246371225686126],[-2.624356760553752,55.2463276942902],[-2.624847178445412,55.24600618326594],[-2.625099594182376,55.24605431262163],[-2.627121642903333,55.245611711989675],[-2.630062732290286,55.24410938886314],[-2.63065602437306,55.24333623061011],[-2.632940688611866,55.23963657395746],[-2.63331310896552,55.234868495033695],[-2.634405478064776,55.23187499339461],[-2.634111778396061,55.23120347443282],[-2.635300576361153,55.22835144317758],[-2.647748923987385,55.21992093077348],[-2.668391460545644,55.22016808261056],[-2.683307597801604,55.201775504685365],[-2.682727569258359,55.20001479907813],[-2.682319321335613,55.19681266715151],[-2.6830352249859,55.19641956128589],[-2.683450587461048,55.19636511341411],[-2.683489333504109,55.196334343582706],[-2.683990208384382,55.19576990602869],[-2.686094154141793,55.19388089403195],[-2.684911333021109,55.192691507100434],[-2.685600108261275,55.19255374114407],[-2.685700295498114,55.19198525949527],[-2.687310922452269,55.18974045558618],[-2.688277866255142,55.18934230636283],[-2.688974253680039,55.189194593351196],[-2.690369911703792,55.18815868823621],[-2.691900681930459,55.186767050238856],[-2.69304589110152,55.185788249291775],[-2.693108564749598,55.18577980528172],[-2.701064783760205,55.175587213045084],[-2.70499237982003,55.172606329084275],[-2.708526763250089,55.17227130988814],[-2.711792699079645,55.171852389289484],[-2.714670381309272,55.17167379078056],[-2.720383649057403,55.169857301486644],[-2.72322887987122,55.16919704268987],[-2.723322328919957,55.16915605061148],[-2.723423707571419,55.169119504422184],[-2.72425966005556,55.16890336543403],[-2.724383686043561,55.16881726040408],[-2.724664759934684,55.168734714365115],[-2.735061300066056,55.16555159202525],[-2.737277522389558,55.163159626169374],[-2.74411965869479,55.15971507977511],[-2.745312060794426,55.160113964448094],[-2.745946618656205,55.15837489233796],[-2.748432043991126,55.15826171763222],[-2.749151996101477,55.15731916281363],[-2.75076784050886,55.15728586255774],[-2.752271785295835,55.156727552583014],[-2.752842691567785,55.15662608273512],[-2.753477802474701,55.15660059425122],[-2.760433333802562,55.15471080704609],[-2.760450691077245,55.15397384935125],[-2.760566814907906,55.1538913528855],[-2.763280857424267,55.153029715470524],[-2.766128939334458,55.150981026720444],[-2.769371133411419,55.15067306352985],[-2.77990054510547,55.14627941105373],[-2.784123620621745,55.14281248190946],[-2.784111370436435,55.14258791029938],[-2.78440786905908,55.14210794731585],[-2.788503996958927,55.14178948252121],[-2.791348122224829,55.14004214596589],[-2.792857980818977,55.140238117437384],[-2.794080524965908,55.139789846194354],[-2.795003352314956,55.13965353522637],[-2.803000230706012,55.13830714016663],[-2.803241534547664,55.13821569003303],[-2.806743196186136,55.13722656701375],[-2.809093547701211,55.13709956283939],[-2.817513824186157,55.13771194773769],[-2.827441568429513,55.13611282724099],[-2.831231426382141,55.130160690040604],[-2.830792167494709,55.12977728152474],[-2.829578788207905,55.12874315594195],[-2.827864540613009,55.12775286063401],[-2.837930559372397,55.11754315819357],[-2.838154958001879,55.117028503795765],[-2.83991124517196,55.11741719150762],[-2.843667441013734,55.11673075248478],[-2.84481691490351,55.11250825219147],[-2.846819125733073,55.11155978377097],[-2.850116001500897,55.1110515652316],[-2.850387522910188,55.11091936989747],[-2.850495711099533,55.110846724839064],[-2.851622971440811,55.108938263272584],[-2.851821270159805,55.10868076952355],[-2.862483498848342,55.107738581695145],[-2.871655086563466,55.10314423175235],[-2.871826399736084,55.102734131089946],[-2.876903110415913,55.09515821550908],[-2.882315397633382,55.09294894777001],[-2.884559193173349,55.08847547861181],[-2.884472640877508,55.088458134564014],[-2.88875116226945,55.087106006953775],[-2.889764991802013,55.087255865416495],[-2.889787096411286,55.08754596116928],[-2.889994522474312,55.087715185284765],[-2.890420145385603,55.088185652197446],[-2.895675829427802,55.08009090290962],[-2.90577572946107,55.07751352071943],[-2.910883712637482,55.07724987001211],[-2.912433780008033,55.078946566922355],[-2.917107881963603,55.07819704921475],[-2.917266996128137,55.07796310526771],[-2.917214672436161,55.07772985492864],[-2.916572584502527,55.07636337568469],[-2.916914420282736,55.075558323886],[-2.919552127108464,55.07344821637708],[-2.943133913690227,55.06460232131222],[-2.938131152227476,55.06091791693884],[-2.936381458709039,55.05974069219752],[-2.937306176731084,55.059113517683535],[-2.93776804685047,55.05911445436458],[-2.940861746428842,55.05885154950412],[-2.956348947378774,55.05374971553503],[-2.9567030964749,55.05317449790827],[-2.958335770432682,55.04976658426778],[-2.960106765340631,55.04953515957117],[-2.962716412725019,55.04968349757437],[-2.966889572592064,55.05008447337585],[-3.007189436895251,55.05330641269476],[-3.009386886959525,55.053541623705925],[-3.019033722940641,55.0546249743922],[-3.040223438633505,55.05528953128288],[-3.050928717537935,55.0528035336377],[-3.051052177421391,55.05273596676042],[-3.052976800548734,55.05002155873588],[-3.053282588815041,55.04974482278934],[-3.05299613344939,55.04717894648711],[-3.052933848213464,55.04719116798219],[-3.049409131560447,55.04856780024416],[-3.045509029108852,55.04726057981399],[-3.044432940643778,55.04740911194465],[-3.043546015251599,55.046405735976904],[-3.043801480021038,55.045396154097055],[-3.039895688416544,55.0447565043677],[-3.038351052809465,55.043730852088984],[-3.039547349004039,55.042183939998445],[-3.03955844574467,55.04110186804685],[-3.038954266066777,55.041338880550924],[-3.03865059239084,55.04139629091192],[-3.036811310426735,55.04046839520025],[-3.034035326701782,55.03901553888363],[-3.032648623569747,55.0398567717923],[-3.029717791523004,55.037545126110636],[-3.02935221162662,55.03732355759228],[-3.026121394957604,55.035197687315375],[-3.028808264240644,55.03411099149208],[-3.030140782703035,55.033906504889295],[-3.030967315514395,55.024357605613105],[-3.034283270515148,55.023132449022505],[-3.034395909219473,55.02295086186229],[-3.034619474621746,55.02282494633149],[-3.039007271908023,55.022833373959344],[-3.039109573341835,55.02285766231064],[-3.040396120571023,55.02210257849932],[-3.040428719950659,55.0212476795375],[-3.039722319643977,55.020847528601486],[-3.039733868023121,55.02038731890148],[-3.041537981287028,55.02029369970406],[-3.041761066957614,55.02015070033791],[-3.04089144525182,55.01888385382141],[-3.042648235774249,55.01455975315102],[-3.042014084936354,55.0142281920858],[-3.043914467728428,55.01333660384074],[-3.044212649809259,55.01337717952668],[-3.045302639054893,55.01259587021156],[-3.045276569068027,55.012495444758585],[-3.047804486963039,55.01048855919737],[-3.047840009222524,55.01035165731561],[-3.047731806768322,55.01010006695933],[-3.049450531660895,55.00944989759893],[-3.049620366215688,55.00757113688705],[-3.048909148196907,55.00698056419342],[-3.044898831869576,55.00759202382438],[-3.044928671838746,55.00753694930127],[-3.04506203064268,55.00605122006499],[-3.062453981908589,54.98584603345181],[-3.063294731569813,54.98572725192161],[-3.06352032830243,54.985689332931],[-3.064800500318283,54.98534562691182],[-3.068301005222366,54.98387347588282],[-3.069135893293121,54.98353632932375],[-3.069213005519163,54.98349790751429],[-3.069951847039087,54.98307532784181],[-3.070381900511117,54.982793856134],[-3.072184519098477,54.98065802830598],[-3.072641513854508,54.97963042010563],[-3.072779952024461,54.97925535473948],[-3.072984154454131,54.97870986144526],[-3.073120977391558,54.97768867053696],[-3.073197804517163,54.97676146989675],[-3.073054415519769,54.976071662631455],[-3.071381487101796,54.97338682436945],[-3.071725148451972,54.96957255337816],[-3.07342618712406,54.968631023510014],[-3.077168921794528,54.96781249041075],[-3.077824446711347,54.96779230280395],[-3.095831377869986,54.971387781654556],[-3.099635531393234,54.97196632913001],[-3.110276575580045,54.97289678442963],[-3.113220885249123,54.97287614763633],[-3.120364643670219,54.9730261976581],[-3.121568706272233,54.97250555186873],[-3.122586909571609,54.97176374130063],[-3.12295246984997,54.97142785869813],[-3.126578951792025,54.96731974991333],[-3.128602884106197,54.965686966714955],[-3.133799159562614,54.96190014623045],[-3.141372391069778,54.954954439891246],[-3.142244701948318,54.95377707379122],[-3.142769416249118,54.95300827070465],[-3.144267498682104,54.95132624134749],[-3.14551086165849,54.95057402326392],[-3.149246840555494,54.94962749926158],[-3.150150523766966,54.949560536926256],[-3.152680804886916,54.94959048292142],[-3.153527065206444,54.94969927943083],[-3.154816557080672,54.95001864129147],[-3.157310848408013,54.95123957130836],[-3.157836628192993,54.95160481547389],[-3.158753819826573,54.952277266099586],[-3.17003498716667,54.95709389119195],[-3.172767170554053,54.95840837206536],[-3.17831911863719,54.95894239378149],[-3.202473589367515,54.963455323583794],[-3.232361712502591,54.96170017450929],[-3.243892692269671,54.960836788995785],[-3.244748917466093,54.96074714026808],[-3.253719148997873,54.96016964034988],[-3.262872118745213,54.95994905390249],[-3.309643906114382,54.947026182754755],[-3.394611844859752,54.87072699558458],[-3.465957759207384,54.820459351618936],[-3.44201658967859,54.78416020362645],[-3.45051702293175,54.75493044965627],[-3.500264636978464,54.72663896527491],[-3.520878927075038,54.697369181674105],[-3.579875900889737,54.65239359493006],[-3.5720713857556,54.6088639268785],[-3.585307935760388,54.56532876311741],[-3.61457359091005,54.525352135821265],[-3.620776753912512,54.49083287930939],[-3.49578659730183,54.39726893604821],[-3.44375132265206,54.3422515041837],[-3.427803977274048,54.28831723202245],[-3.349080085032663,54.20985740037364],[-3.275309945164104,54.10626345407166],[-3.223794918826035,54.04932981354029],[-3.179318486255214,54.04250246246454],[-3.130544488108741,54.06854586725722],[-3.025414445658781,54.08185448665656],[-2.959485298118164,54.045655114460736],[-2.90798255069628,54.054358774909495],[-2.976093689305846,53.96950191760949],[-3.068690529205893,53.9453450354608],[-3.054759009894273,53.87198568006176],[-3.076416936556439,53.7732044757526],[-3.078515091336791,53.69549176052409],[-3.057303792958862,53.67466906597509],[-3.084199009067046,53.60339654094486],[-3.119510025157745,53.55457819086818],[-3.112484997160221,53.527192048415934],[-3.028492343412219,53.45509863298093],[-3.094909483251531,53.44557872965844],[-3.12541374423478,53.42696760914648],[-3.176382031464489,53.42769152008364],[-3.263756754063879,53.4494955933917],[-3.216933039955302,53.33831206157094],[-3.095091963964471,53.26181595376425],[-3.036024353954404,53.25180498887338],[-2.949215408712024,53.211075223319405],[-2.927331864355151,53.1717731643755],[-2.979498042697919,53.15062170410813],[-2.944980531391709,53.12227772978466],[-2.883797283844582,53.11157075025885],[-2.89077009803748,53.087407016489955],[-2.83480943585925,52.99860753870305],[-2.727325196220016,52.983918896843726],[-2.728531633779284,52.92517640693651],[-2.755326672937338,52.924627993627155],[-2.800537197480891,52.895463232943925],[-2.840198952998993,52.941906452158634],[-2.898292242747417,52.95027561397389],[-2.927388026752396,52.93876850435448],[-2.972818189468053,52.960497495341414],[-3.010032556101336,52.95583627899777],[-3.037260451907351,52.92866847648718],[-3.095979833968698,52.93033165500477],[-3.127721372600663,52.867253846494584],[-3.167844807032296,52.81927520639422],[-3.158471523392889,52.793494043188836],[-3.091481122155127,52.78589721649485],[-3.010591210247736,52.76161563565346],[-2.984976539726532,52.72283474019785],[-3.020482615636399,52.721144020920825],[-3.051721817834237,52.64743929844412],[-3.116926503822731,52.58607090387366],[-3.111736830811659,52.54164435196523],[-3.0140759869314,52.575382894361795],[-2.99417829458506,52.55294669043919],[-3.02920238162043,52.501268077878834],[-3.113884043008214,52.498011519465756],[-3.23222501648989,52.45260606345983],[-3.230686732243599,52.43048341964825],[-3.041325782124817,52.344338853232266],[-2.998324591234886,52.351893707628236],[-3.012566226533807,52.27911788616796],[-3.099970560426561,52.202245701567286],[-3.121994851415089,52.166916762108116],[-3.093690017368214,52.14430573753951],[-3.125977734044293,52.07833059246124],[-3.090780929434285,52.05082548767876],[-3.099199260844731,52.02268582972977],[-3.068313536187486,51.983894760046425],[-3.025944609935062,51.95728239444142],[-2.967863689566099,51.90458136224581],[-2.875061095794497,51.93283590185495],[-2.790044421468835,51.88590846220424],[-2.739167358161488,51.837178911348616],[-2.658995183094152,51.83326525317446],[-2.686007043358598,51.7319359240879],[-2.669073101039359,51.70706493735703],[-2.66607131438639,51.594129130754595],[-2.710700016083511,51.56964031681549],[-2.701627642211967,51.52266638693641],[-2.773055583773711,51.52500487949736],[-2.782663835580091,51.52474351526338],[-3.117016036657802,51.37546277884966],[-3.117684700968739,51.37460033647065]]],[[[-1.113564566692913,50.72352440781619],[-1.13471545890307,50.73775105736786],[-1.211743845039176,50.736828267862975],[-1.271934975359966,50.76566583567528],[-1.313844627876608,50.767507883127045],[-1.355384169971208,50.73982931583039],[-1.425416450343382,50.72716405572817],[-1.487031210280389,50.706825703112614],[-1.522037693063641,50.70731797234077],[-1.550123129095983,50.66335557206642],[-1.485617593076153,50.66669515343971],[-1.447251487894224,50.64290450654681],[-1.389793508863416,50.62677363841812],[-1.299987993965788,50.57482447892114],[-1.186630790573274,50.596342886054835],[-1.168022751572956,50.63967660807055],[-1.140044265867356,50.659126014662654],[-1.069036632106119,50.679165662031934],[-1.113564566692913,50.72352440781619]]]]},"properties":{"geo_code":"E92000001","geo_label":"England","geo_labelw":"Lloegr","label":"E92000001","name":"England"}},
{"type":"Feature","geometry":{"type":"MultiPolygon","coordinates":[[[[-2.710700016083511,51.56964031681549],[-2.66607131438639,51.594129130754595],[-2.669073101039359,51.70706493735703],[-2.686007043358598,51.7319359240879],[-2.658995183094152,51.83326525317446],[-2.739167358161488,51.837178911348616],[-2.790044421468835,51.88590846220424],[-2.875061095794497,51.93283590185495],[-2.967863689566099,51.90458136224581],[-3.025944609935062,51.95728239444142],[-3.068313536187486,51.983894760046425],[-3.099199260844731,52.02268582972977],[-3.090780929434285,52.05082548767876],[-3.125977734044293,52.07833059246124],[-3.093690017368214,52.14430573753951],[-3.121994851415089,52.166916762108116],[-3.099970560426561,52.202245701567286],[-3.012566226533807,52.27911788616796],[-2.998324591234886,52.351893707628236],[-3.041325782124817,52.344338853232266],[-3.230686732243599,52.43048341964825],[-3.23222501648989,52.45260606345983],[-3.113884043008214,52.498011519465756],[-3.02920238162043,52.501268077878834],[-2.99417829458506,52.55294669043919],[-3.0140759869314,52.575382894361795],[-3.111736830811659,52.54164435196523],[-3.116926503822731,52.58607090387366],[-3.051721817834237,52.64743929844412],[-3.020482615636399,52.721144020920825],[-2.984976539726532,52.72283474019785],[-3.010591210247736,52.76161563565346],[-3.091481122155127,52.78589721649485],[-3.158471523392889,52.793494043188836],[-3.167844807032296,52.81927520639422],[-3.127721372600663,52.867253846494584],[-3.095979833968698,52.93033165500477],[-3.037260451907351,52.92866847648718],[-3.010032556101336,52.95583627899777],[-2.972818189468053,52.960497495341414],[-2.927388026752396,52.93876850435448],[-2.898292242747417,52.95027561397389],[-2.840198952998993,52.941906452158634],[-2.800537197480891,52.895463232943925],[-2.755326672937338,52.924627993627155],[-2.728531633779284,52.92517640693651],[-2.727325196220016,52.983918896843726],[-2.83480943585925,52.99860753870305],[-2.89077009803748,53.087407016489955],[-2.883797283844582,53.11157075025885],[-2.944980531391709,53.12227772978466],[-2.979498042697919,53.15062170410813],[-2.927331864355151,53.1717731643755],[-2.949215408712024,53.211075223319405],[-3.036024353954404,53.25180498887338],[-3.095091963964471,53.26181595376425],[-3.216933039955302,53.33831206157094],[-3.228962371236695,53.332644067454616],[-3.320101559036118,53.36191038776068],[-3.449604366652658,53.33696550477193],[-3.498643515849669,53.33322510468165],[-3.545524171141494,53.30844032586409],[-3.601896936292516,53.293418712351894],[-3.694262579654909,53.294266663944335],[-3.775304808167785,53.328311035749856],[-3.826257974884026,53.327247669470864],[-3.917612334285193,53.27597332158358],[-3.971588102554678,53.263092712582704],[-4.064543173261652,53.28024512786365],[-4.103122493845393,53.24453544886215],[-4.195490756751773,53.21285089907152],[-4.209454727915572,53.18641008698846],[-4.274190206110155,53.1449611555152],[-4.352777135763098,53.10796096837812],[-4.33943220070439,53.08752309681453],[-4.353436229676556,53.03569107405447],[-4.413418019630742,52.99839525875017],[-4.436305634211942,52.99898385152282],[-4.517463093459774,52.94208995498412],[-4.577784575571436,52.939223524461816],[-4.61923430186899,52.92137055283698],[-4.716646176880638,52.85499317674725],[-4.767172700098391,52.794362018643746],[-4.713005130420787,52.80285595018523],[-4.64375771146107,52.799913752449505],[-4.612691504601366,52.82247934752615],[-4.538020342788926,52.79838189702902],[-4.499932758431115,52.81905084906854],[-4.458576298406533,52.87017476263109],[-4.392049211928949,52.89430514111104],[-4.329690484385794,52.89207141857594],[-4.311570635079462,52.9081520531598],[-4.227576509321449,52.91844690179575],[-4.171201672134771,52.90082193548482],[-4.121247881170913,52.844981678476344],[-4.151726298840532,52.80351751966237],[-4.080751851043216,52.74303361650236],[-4.058722160165017,52.69062861982538],[-4.097656487004672,52.668926158217296],[-4.13098902111879,52.61128122745132],[-4.062944259672865,52.52814115008477],[-4.053747013440671,52.48067882930802],[-4.08130982345451,52.4474777098084],[-4.0896699695374,52.401073502022705],[-4.127442416699097,52.33972927184086],[-4.208345360822454,52.26441410817054],[-4.265788729098207,52.24580339907115],[-4.313078079664173,52.21888930649994],[-4.378816501355172,52.214531929754564],[-4.432975953863627,52.17628217547549],[-4.536900813833239,52.134902785490326],[-4.643313525977936,52.1382345881679],[-4.730155377073587,52.11791824870101],[-4.792126083053817,52.058706545397314],[-4.837975015694893,52.04979647746493],[-4.849795468400264,52.023257336651156],[-4.98642139448752,52.00050601946645],[-4.991193571498997,52.02443894918276],[-5.058693736427013,52.02803535254693],[-5.086916599618488,51.9682972255499],[-5.195281460012328,51.948344585769796],[-5.300329732019662,51.89074469955655],[-5.315340406871186,51.85943488188172],[-5.221833845457353,51.87292079520418],[-5.136324184862847,51.86243166182177],[-5.104750802669551,51.79044654964157],[-5.118015205993323,51.768795745360876],[-5.159911168061636,51.772180378040744],[-5.211954729621065,51.73427463432095],[-5.167246698716002,51.713121833831636],[-5.086223322585643,51.70615511629463],[-5.120562683358875,51.67573985198368],[-5.071243128904197,51.664146177804014],[-5.059426268015461,51.62050844253633],[-4.929734276789842,51.59842777580421],[-4.863458899353649,51.644085938612484],[-4.781262675837017,51.63507730819978],[-4.693516996862083,51.67071327587941],[-4.693842686687725,51.708438524150374],[-4.650915325987274,51.73128128978273],[-4.564222148081313,51.73751537936635],[-4.436774978279777,51.721804773523104],[-4.371064368671052,51.696806239247486],[-4.339878855038102,51.674460678425184],[-4.288272472469735,51.65956012819369],[-4.266203230695283,51.629391383421925],[-4.313014266339958,51.608178199706636],[-4.296458585925001,51.57358575976992],[-4.237087604516755,51.541624049472574],[-4.183379855621637,51.546422223853796],[-4.125837104217204,51.56802806500625],[-4.075018732430767,51.56089587906221],[-3.991525037122464,51.56293970615348],[-3.968412947056219,51.6007184599246],[-3.944255098207796,51.609691204833375],[-3.854063566108239,51.60678866918888],[-3.791819835188841,51.566160259170694],[-3.747644268072886,51.5006106372998],[-3.702742238677961,51.472620249552286],[-3.65399005929874,51.474076768184254],[-3.592408171471791,51.43352912863928],[-3.559313847741643,51.39973569901522],[-3.342923874738389,51.38045408736016],[-3.265450122107257,51.38691522826767],[-3.167287416853833,51.4065763137642],[-3.162167813459825,51.44190767743117],[-3.13638653911212,51.4631284080557],[-3.034978564974711,51.51023516716033],[-2.945396171906048,51.531542547629904],[-2.893361836483986,51.52770845060228],[-2.873365465646372,51.510574823130106],[-2.825037776050765,51.52965513674478],[-2.782663835580091,51.52474351526338],[-2.773055583773711,51.52500487949736],[-2.748546600678791,51.52822240608105],[-2.710700016083511,51.56964031681549]]],[[[-4.100731382795785,53.318350004372846],[-4.143062250433899,53.30834840608542],[-4.220172842440006,53.32390460579833],[-4.22932348602253,53.35556370554978],[-4.25957602359389,53.36435129531053],[-4.282918221295458,53.41105735836656],[-4.426322725897552,53.430024596875825],[-4.573449763292467,53.404127518246725],[-4.557157882445185,53.37476742267888],[-4.583888455777414,53.32425021542214],[-4.608650116532684,53.305515215759435],[-4.651854061113869,53.323299004813045],[-4.695864525359502,53.30844568520933],[-4.624787764474301,53.278444609351716],[-4.597783051059508,53.24079356192642],[-4.558370195951149,53.24501191001339],[-4.50493448801634,53.21410232773999],[-4.506081255513812,53.18800190686162],[-4.459189670780633,53.17605124678566],[-4.407302360601346,53.13868577753605],[-4.331827725205195,53.12644996269752],[-4.245158893483638,53.178745981892895],[-4.20609010690393,53.21241072127215],[-4.084226440847391,53.262788393251824],[-4.040022024525708,53.30924755656136],[-4.100731382795785,53.318350004372846]]]]},"properties":{"geo_code":"W92000004","geo_label":"Wales","geo_labelw":"Cymru","label":"W92000004","name":"Wales"}}
]}